pretty,year,mon,mday,hour,min,tzname,utcdate,tempm,tempi,dewptm,dewpti,hum,wspdm,wspdi,wgustm,wgusti,wdird,wdire,vism,visi,pressurem,pressurei,windchillm,windchilli,heatindexm,heatindexi,precipm,precipi,conds,icon,fog,rain,snow,hail,thunder,tornado,metar
1:00 AM +07 on June 20,2017,2017,6,20,1,0,Asia/Bangkok,26,80,24,74,79,13,8.1,,,270,West,7,4,1008,29.77,-999,-999,-9999,-9999,,,Mist,hazy,0,0,0,0,0,0,AAXX 19184 48376 11557 72707 10265 20236 39937 40081 51002 69923 71022 84576 333 58013 70002
4:00 AM +07 on June 20,2017,2017,6,20,4,0,Asia/Bangkok,25,77,23,73,85,0,0,,,,,6,4,1007,29.74,-999,-999,-9999,-9999,,,Light Rain,rain,0,1,0,0,0,0,AAXX 19214 48376 21556 80000 10252 20230 39926 40070 57011 76062 8452/ 333 58011 69967
7:00 AM +07 on June 20,2017,2017,6,20,7,0,Asia/Bangkok,25,78,24,74,85,0,0,,,,,6,4,1007,29.75,-999,-999,-9999,-9999,,,Mist,hazy,0,0,0,0,0,0,AAXX 20004 48376 01556 70000 10254 20235 39929 40074 51004 60014 71062 83576 333 20248 58003 69927 70010
10:00 AM +07 on June 20,2017,2017,6,20,10,0,Asia/Bangkok,31,88,23,74,54,14.8,9.2,,,260,West,9,6,1008,29.77,-999,-999,-9999,-9999,,,Haze,hazy,0,0,0,0,0,0,AAXX 20034 48376 31559 62608 10312 20232 39938 40080 51009 70522 83536 333 59005
1:00 PM +07 on June 20,2017,2017,6,20,13,0,Asia/Bangkok,31,88,23,73,52,11.1,6.9,,,270,West,9,6,1007,29.75,-999,-999,-9999,-9999,,,Haze,hazy,0,0,0,0,0,0,AAXX 20064 48376 31559 72706 10312 20227 39932 40074 56006 70522 83536 333 58009 70010
4:00 PM +07 on June 20,2017,2017,6,20,16,0,Asia/Bangkok,31,88,23,74,55,9.3,5.8,,,270,West,8,5,1005,29.68,-999,-999,-9999,-9999,,,Haze,hazy,0,0,0,0,0,0,AAXX 20094 48376 31558 62705 10310 20233 39907 40049 57025 70522 83536 333 58005
7:00 PM +07 on June 20,2017,2017,6,20,19,0,Asia/Bangkok,27,81,24,75,77,7.4,4.6,,,260,West,7,4,1006,29.72,-999,-999,-9999,-9999,,,Light Rain,rain,0,1,0,0,0,0,AAXX 20124 48376 01557 82604 10271 20239 39919 40063 52012 69942 72122 85576 333 10327 58006 69945 70014
10:00 PM +07 on June 20,2017,2017,6,20,22,0,Asia/Bangkok,26,79,23,74,79,7.4,4.6,,,220,SW,7,4,1008,29.76,-999,-999,-9999,-9999,,,Mist,hazy,0,0,0,0,0,0,AAXX 20154 48376 21557 62204 10263 20231 39933 40078 52015 71062 83536 333 59001 69966
1:00 AM +07 on January 01,2017,2017,1,1,1,0,Asia/Bangkok,25,77,19,66,62,0,0,,,,,10,6,1017,30.03,-999,-999,-9999,-9999,,,Partly Cloudy,partlycloudy,0,0,0,0,0,0,AAXX 31184 48380 11560 70000 10252 20191 30072 40167 54000 69903 70262 82556 333 59006 79999
4:00 AM +07 on January 01,2017,2017,1,1,4,0,Asia/Bangkok,24,75,20,68,73,0,0,,,,,10,6,1016,29.99,-999,-999,-9999,-9999,,,Overcast,cloudy,0,0,0,0,0,0,AAXX 31214 48380 32560 80000 10240 20200 30061 40156 57011 82557 333 59001
7:00 AM +07 on January 01,2017,2017,1,1,7,0,Asia/Bangkok,23,73,20,67,76,5.6,3.5,,,40,NE,9,6,1017,30.04,-999,-999,-9999,-9999,,,Light Rain,rain,0,1,0,0,0,0,AAXX 01004 48380 01559 80403 10226 20195 30076 40171 52015 69904 76022 84577 333 20172 58005 69905 79999
10:00 AM +07 on January 01,2017,2017,1,1,10,0,Asia/Bangkok,24,75,20,68,72,5.6,3.5,,,250,WSW,8,5,1019,30.08,-999,-999,-9999,-9999,,,Light Rain,rain,0,1,0,0,0,0,AAXX 01034 48380 21558 82503 10240 20198 30091 40186 52015 76066 85577 333 58003 69907
1:00 PM +07 on January 01,2017,2017,1,1,13,0,Asia/Bangkok,27,80,19,67,56,7.4,4.6,,,290,WNW,10,6,1016,30.01,-999,-999,-9999,-9999,,,Partly Cloudy,partlycloudy,0,0,0,0,0,0,AAXX 01064 48380 01560 82904 10268 20194 30066 40160 57025 69901 70266 85576 333 58003 69907 79999
4:00 PM +07 on January 01,2017,2017,1,1,16,0,Asia/Bangkok,26,80,19,67,55,5.6,3.5,,,320,NW,10,6,1014,29.94,-999,-999,-9999,-9999,,,Overcast,cloudy,0,0,0,0,0,0,AAXX 01094 48380 32560 83203 10264 20193 30044 40139 57021 84576 333 58006
7:00 PM +07 on January 01,2017,2017,1,1,19,0,Asia/Bangkok,25,77,20,67,65,3.7,2.3,,,310,NW,10,6,1015,29.97,-999,-999,-9999,-9999,,,Scattered Clouds,partlycloudy,0,0,0,0,0,0,AAXX 01124 48380 32560 63102 10250 20197 30054 40148 52009 82546 333 10272 58001 79999
10:00 PM +07 on January 01,2017,2017,1,1,22,0,Asia/Bangkok,24,74,20,68,76,0,0,,,,,10,6,1016,30.02,-999,-999,-9999,-9999,,,Scattered Clouds,partlycloudy,0,0,0,0,0,0,AAXX 01154 48380 32560 60000 10236 20199 30070 40165 52016 82556 333 59001
1:00 AM +07 on January 02,2017,2017,1,2,1,0,Asia/Bangkok,23,73,19,67,75,5.6,3.5,,,270,West,10,6,1016,30.01,-999,-999,-9999,-9999,,,Scattered Clouds,partlycloudy,0,0,0,0,0,0,AAXX 01184 48380 32560 72703 10226 20193 30066 40162 57004 82546 333 59005 79999
4:00 AM +07 on January 02,2017,2017,1,2,4,0,Asia/Bangkok,22,72,19,66,77,5.6,3.5,,,310,NW,10,6,1015,29.96,-999,-999,-9999,-9999,,,Scattered Clouds,partlycloudy,0,0,0,0,0,0,AAXX 01214 48380 32560 53103 10224 20191 30051 40146 57015 81546 333 59010
7:00 AM +07 on January 02,2017,2017,1,2,7,0,Asia/Bangkok,22,71,19,66,81,0,0,,,,,10,6,1016,29.99,-999,-999,-9999,-9999,,,Mist,hazy,0,0,0,0,0,0,AAXX 02004 48380 11960 60000 10216 20191 30061 40156 52010 69904 71022 83071 333 20215 59015 79999
10:00 AM +07 on January 02,2017,2017,1,2,10,0,Asia/Bangkok,26,79,19,66,56,11.1,6.9,,,280,West,10,6,1017,30.03,-999,-999,-9999,-9999,,,Scattered Clouds,partlycloudy,0,0,0,0,0,0,AAXX 02034 48380 32560 22806 10260 20190 30073 40168 52013 81535 333 59018
1:00 PM +07 on January 02,2017,2017,1,2,13,0,Asia/Bangkok,31,87,21,69,46,5.6,3.5,,,0,North,12,7,1015,29.96,-999,-999,-9999,-9999,,,Scattered Clouds,partlycloudy,0,0,0,0,0,0,AAXX 02064 48380 32562 33603 10308 20206 30053 40146 57020 82205 333 59014
4:00 PM +07 on January 02,2017,2017,1,2,16,0,Asia/Bangkok,30,85,20,67,46,0,0,,,,,12,7,1013,29.91,-999,-999,-9999,-9999,,,Overcast,cloudy,0,0,0,0,0,0,AAXX 02094 48380 32562 80000 10296 20195 30035 40128 57018 8457/ 333 59010
7:00 PM +07 on January 02,2017,2017,1,2,19,0,Asia/Bangkok,26,79,21,70,68,0,0,,,,,10,6,1014,29.94,-999,-999,-9999,-9999,,,Scattered Clouds,partlycloudy,0,0,0,0,0,0,AAXX 02124 48380 32560 70000 10263 20213 30045 40139 52010 82576 333 10313 59010
10:00 PM +07 on January 02,2017,2017,1,2,22,0,Asia/Bangkok,23,74,21,69,80,0,0,,,,,10,6,1015,29.98,-999,-999,-9999,-9999,,,Scattered Clouds,partlycloudy,0,0,0,0,0,0,AAXX 02154 48380 32960 50000 10232 20206 30056 40152 52012 82036 333 59014
1:00 AM +07 on January 03,2017,2017,1,3,1,0,Asia/Bangkok,22,72,21,69,89,0,0,,,,,10,6,1015,29.97,-999,-999,-9999,-9999,,,Scattered Clouds,partlycloudy,0,0,0,0,0,0,AAXX 02184 48380 32960 50000 10225 20208 30054 40149 57003 82036 333 59013
4:00 AM +07 on January 03,2017,2017,1,3,4,0,Asia/Bangkok,22,72,20,67,81,0,0,,,,,10,6,1013,29.92,-999,-999,-9999,-9999,,,Clear,clear,0,0,0,0,0,0,AAXX 02214 48380 32960 20000 10223 20196 30035 40130 57019 80001 333 59016
7:00 AM +07 on January 03,2017,2017,1,3,7,0,Asia/Bangkok,22,71,21,69,92,0,0,,,,,10,6,1014,29.96,-999,-999,-9999,-9999,,,Scattered Clouds,partlycloudy,0,0,0,0,0,0,AAXX 03004 48380 32560 70000 10218 20206 30049 40144 52014 81536 333 20217 59012
10:00 AM +07 on January 03,2017,2017,1,3,10,0,Asia/Bangkok,27,81,21,70,61,0,0,,,,,10,6,1015,29.99,-999,-999,-9999,-9999,,,Scattered Clouds,partlycloudy,0,0,0,0,0,0,AAXX 03034 48380 32560 60000 10270 20210 30059 40153 52011 81536 333 59015
1:00 PM +07 on January 03,2017,2017,1,3,13,0,Asia/Bangkok,31,88,20,67,40,0,0,,,,,12,7,1013,29.91,-999,-999,-9999,-9999,,,Scattered Clouds,partlycloudy,0,0,0,0,0,0,AAXX 03064 48380 32562 50000 10312 20195 30036 40129 57023 82535 333 59017
4:00 PM +07 on January 03,2017,2017,1,3,16,0,Asia/Bangkok,30,86,21,70,49,1.9,1.2,,,120,ESE,12,7,1011,29.86,-999,-999,-9999,-9999,,,Scattered Clouds,partlycloudy,0,0,0,0,0,0,AAXX 03094 48380 32562 71201 10300 20210 30019 40112 57017 82576 333 59016
7:00 PM +07 on January 03,2017,2017,1,3,19,0,Asia/Bangkok,27,81,22,72,66,0,0,,,,,10,6,1012,29.89,-999,-999,-9999,-9999,,,Scattered Clouds,partlycloudy,0,0,0,0,0,0,AAXX 03124 48380 32560 70000 10274 20220 30027 40121 52008 81576 333 10313 59018
10:00 PM +07 on January 03,2017,2017,1,3,22,0,Asia/Bangkok,25,78,23,73,79,0,0,,,,,10,6,1014,29.95,-999,-999,-9999,-9999,,,Scattered Clouds,partlycloudy,0,0,0,0,0,0,AAXX 03154 48380 32560 70000 10253 20226 30046 40140 52019 82576 333 59011
1:00 AM +07 on January 04,2017,2017,1,4,1,0,Asia/Bangkok,23,73,22,71,91,0,0,,,,,5,3,1014,29.94,-999,-999,-9999,-9999,,,Mist,hazy,0,0,0,0,0,0,AAXX 03184 48376 31550 20000 10230 20216 39992 40138 56004 71020 81505 333 59014
4:00 AM +07 on January 04,2017,2017,1,4,4,0,Asia/Bangkok,22,72,21,69,89,0,0,,,,,4,2,1012,29.89,-999,-999,-9999,-9999,,,Mist,hazy,0,0,0,0,0,0,AAXX 03214 48376 31540 50000 10222 20208 39973 40120 57019 71020 82536 333 59015
7:00 AM +07 on January 04,2017,2017,1,4,7,0,Asia/Bangkok,22,72,21,69,89,0,0,,,,,5,3,1013,29.91,-999,-999,-9999,-9999,,,Mist,hazy,0,0,0,0,0,0,AAXX 04004 48376 31550 60000 10220 20208 39982 40129 52009 71020 83536 333 20217 59015
10:00 AM +07 on January 04,2017,2017,1,4,10,0,Asia/Bangkok,26,79,22,71,70,3.7,2.3,,,280,West,5,3,1014,29.95,-999,-999,-9999,-9999,,,Mist,hazy,0,0,0,0,0,0,AAXX 04034 48376 31550 62802 10260 20216 39996 40141 52014 71022 82536 333 59018
1:00 PM +07 on January 04,2017,2017,1,4,13,0,Asia/Bangkok,29,84,22,71,57,0,0,,,,,5,3,1012,29.88,-999,-999,-9999,-9999,,,Mist,hazy,0,0,0,0,0,0,AAXX 04064 48376 31550 60000 10287 20217 39973 40117 57022 71022 82336 333 59011
4:00 PM +07 on January 04,2017,2017,1,4,16,0,Asia/Bangkok,29,85,20,68,48,5.6,3.5,,,90,East,6,4,1010,29.83,-999,-999,-9999,-9999,,,Haze,hazy,0,0,0,0,0,0,AAXX 04094 48376 31556 60903 10292 20201 39956 40099 57017 70522 83336 333 59010
7:00 PM +07 on January 04,2017,2017,1,4,19,0,Asia/Bangkok,27,81,22,71,64,0,0,,,,,5,3,1012,29.88,-999,-999,-9999,-9999,,,Mist,hazy,0,0,0,0,0,0,AAXX 04124 48376 31550 60000 10270 20216 39972 40117 52016 71022 82536 333 10300 59006
10:00 PM +07 on January 04,2017,2017,1,4,22,0,Asia/Bangkok,24,75,21,70,80,0,0,,,,,3,2,1015,29.98,-999,-999,-9999,-9999,,,Light Rain,rain,0,1,0,0,0,0,AAXX 04154 48376 21530 80000 10238 20211 30004 40150 52032 76162 8552/ 333 58009 60146
1:00 AM +07 on January 05,2017,2017,1,5,1,0,Asia/Bangkok,20,69,19,67,89,7.4,4.6,,,320,NW,4,2,1015,29.96,-999,-999,-9999,-9999,,,Mist,hazy,0,0,0,0,0,0,AAXX 04184 48376 01540 83204 10203 20192 39998 40146 56006 60243 71062 8452/ 333 58008 60107 70240
4:00 AM +07 on January 05,2017,2017,1,5,4,0,Asia/Bangkok,20,69,19,66,88,5.6,3.5,,,310,NW,4,2,1013,29.91,-999,-999,-9999,-9999,,,Mist,hazy,0,0,0,0,0,0,AAXX 04214 48376 31540 63103 10203 20190 39979 40127 57019 71022 83536 333 58007
7:00 AM +07 on January 05,2017,2017,1,5,7,0,Asia/Bangkok,20,69,19,66,87,0,0,,,,,3,2,1013,29.92,-999,-999,-9999,-9999,,,Mist,hazy,0,0,0,0,0,0,AAXX 05004 48376 11530 80000 10205 20189 39984 40132 51005 60244 71022 8552/ 333 20201 58003 70240
10:00 AM +07 on January 05,2017,2017,1,5,10,0,Asia/Bangkok,22,71,19,65,78,7.4,4.6,,,330,NNW,4,2,1015,29.98,-999,-999,-9999,-9999,,,Mist,hazy,0,0,0,0,0,0,AAXX 05034 48376 31540 83304 10215 20186 30005 40152 52021 71022 8552/ 333 58011
1:00 PM +07 on January 05,2017,2017,1,5,13,0,Asia/Bangkok,23,73,19,67,75,9.3,5.8,,,320,NW,4,2,1013,29.93,-999,-999,-9999,-9999,,,Mist,hazy,0,0,0,0,0,0,AAXX 05064 48376 31540 83205 10227 20192 39987 40134 57017 71022 8452/ 333 58017 70240
4:00 PM +07 on January 05,2017,2017,1,5,16,0,Asia/Bangkok,23,74,21,70,83,0,0,,,,,4,2,1012,29.88,-999,-999,-9999,-9999,,,Mist,hazy,0,0,0,0,0,0,AAXX 05094 48376 31540 60000 10232 20211 39972 40118 57016 71022 83536 333 58019
7:00 PM +07 on January 05,2017,2017,1,5,19,0,Asia/Bangkok,22,72,20,67,81,0,0,,,,,4,2,1013,29.91,-999,-999,-9999,-9999,,,Mist,hazy,0,0,0,0,0,0,AAXX 05124 48376 31540 70000 10221 20196 39981 40128 51009 71022 83536 333 10240 58012 70240
10:00 PM +07 on January 05,2017,2017,1,5,22,0,Asia/Bangkok,22,71,20,68,87,7.4,4.6,,,310,NW,3,2,1014,29.95,-999,-999,-9999,-9999,,,Light Rain,rain,0,1,0,0,0,0,AAXX 05154 48376 21530 83104 10215 20199 39992 40140 52011 72122 8552/ 333 59010 69925
1:00 AM +07 on January 06,2017,2017,1,6,1,0,Asia/Bangkok,21,70,20,67,88,0,0,,,,,3,2,1012,29.9,-999,-999,-9999,-9999,,,Mist,hazy,0,0,0,0,0,0,AAXX 05184 48376 01530 80000 10209 20196 39976 40124 57016 69933 71062 8452/ 333 59022 69917 70003
4:00 AM +07 on January 06,2017,2017,1,6,4,0,Asia/Bangkok,21,70,20,67,88,0,0,,,,,3,2,1012,29.88,-999,-999,-9999,-9999,,,Mist,hazy,0,0,0,0,0,0,AAXX 05214 48376 31530 60000 10209 20195 39971 40118 56005 71022 83576 333 59008
7:00 AM +07 on January 06,2017,2017,1,6,7,0,Asia/Bangkok,21,69,19,67,90,0,0,,,,,3,2,1012,29.9,-999,-999,-9999,-9999,,,Mist,hazy,0,0,0,0,0,0,AAXX 06004 48376 11530 70000 10207 20193 39977 40125 51006 69934 71022 84576 333 20205 59007 70003
10:00 AM +07 on January 06,2017,2017,1,6,10,0,Asia/Bangkok,24,76,20,69,72,5.6,3.5,,,330,NNW,5,3,1014,29.96,-999,-999,-9999,-9999,,,Mist,hazy,0,0,0,0,0,0,AAXX 06034 48376 31550 63303 10244 20204 39998 40144 52021 71022 82536 333 59008
1:00 PM +07 on January 06,2017,2017,1,6,13,0,Asia/Bangkok,27,81,18,65,49,7.4,4.6,,,320,NW,6,4,1012,29.88,-999,-999,-9999,-9999,,,Haze,hazy,0,0,0,0,0,0,AAXX 06064 48376 31556 63204 10270 20184 39973 40118 57025 70522 83536 333 59016 70003
4:00 PM +07 on January 06,2017,2017,1,6,16,0,Asia/Bangkok,27,81,19,67,53,3.7,2.3,,,310,NW,6,4,1010,29.82,-999,-999,-9999,-9999,,,Haze,hazy,0,0,0,0,0,0,AAXX 06094 48376 31556 63102 10271 20194 39952 40096 57021 70522 82536 333 59022
7:00 PM +07 on January 06,2017,2017,1,6,19,0,Asia/Bangkok,24,76,19,67,66,0,0,,,,,5,3,1011,29.86,-999,-999,-9999,-9999,,,Mist,hazy,0,0,0,0,0,0,AAXX 06124 48376 31550 60000 10245 20194 39965 40110 52012 71022 82536 333 10277 59018 70003
10:00 PM +07 on January 06,2017,2017,1,6,22,0,Asia/Bangkok,23,73,19,67,75,0,0,,,,,5,3,1013,29.91,-999,-999,-9999,-9999,,,Mist,hazy,0,0,0,0,0,0,AAXX 06154 48376 31550 60000 10227 20192 39980 40127 52015 71022 82536 333 59013
1:00 AM +07 on January 07,2017,2017,1,7,1,0,Asia/Bangkok,24,74,19,66,70,5.6,3.5,,,330,NNW,10,6,1011,29.87,-999,-999,-9999,-9999,,,Scattered Clouds,partlycloudy,0,0,0,0,0,0,AAXX 06184 48380 32960 23303 10236 20189 30018 40113 57007 81045 333 59012
4:00 AM +07 on January 07,2017,2017,1,7,4,0,Asia/Bangkok,23,73,19,67,75,3.7,2.3,,,340,NNW,10,6,1010,29.84,-999,-999,-9999,-9999,,,Scattered Clouds,partlycloudy,0,0,0,0,0,0,AAXX 06214 48380 32560 23402 10229 20193 30008 40103 57010 81545 333 59010
7:00 AM +07 on January 07,2017,2017,1,7,7,0,Asia/Bangkok,22,72,19,67,79,5.6,3.5,,,340,NNW,10,6,1010,29.84,-999,-999,-9999,-9999,,,Scattered Clouds,partlycloudy,0,0,0,0,0,0,AAXX 07004 48380 32560 73403 10225 20194 30008 40103 52001 82576 333 20221 59016
10:00 AM +07 on January 07,2017,2017,1,7,10,0,Asia/Bangkok,27,80,19,67,56,7.4,4.6,,,330,NNW,10,6,1012,29.89,-999,-999,-9999,-9999,,,Scattered Clouds,partlycloudy,0,0,0,0,0,0,AAXX 07034 48380 32560 13304 10268 20194 30028 40122 52019 81141 333 59021
1:00 PM +07 on January 07,2017,2017,1,7,13,0,Asia/Bangkok,31,87,20,68,43,5.6,3.5,,,290,WNW,10,6,1009,29.8,-999,-999,-9999,-9999,,,Scattered Clouds,partlycloudy,0,0,0,0,0,0,AAXX 07064 48380 32560 12903 10307 20198 39999 40091 57029 81102 333 59022
4:00 PM +07 on January 07,2017,2017,1,7,16,0,Asia/Bangkok,31,88,20,68,41,0,0,,,,,10,6,1007,29.75,-999,-999,-9999,-9999,,,Scattered Clouds,partlycloudy,0,0,0,0,0,0,AAXX 07094 48380 32560 50000 10313 20198 39980 40072 57019 82546 333 59021
7:00 PM +07 on January 07,2017,2017,1,7,19,0,Asia/Bangkok,28,83,22,71,59,0,0,,,,,10,6,1008,29.76,-999,-999,-9999,-9999,,,Scattered Clouds,partlycloudy,0,0,0,0,0,0,AAXX 07124 48380 32560 50000 10282 20216 39985 40078 52005 81546 333 10321 59027
10:00 PM +07 on January 07,2017,2017,1,7,22,0,Asia/Bangkok,25,77,22,71,77,0,0,,,,,10,6,1010,29.84,-999,-999,-9999,-9999,,,Scattered Clouds,partlycloudy,0,0,0,0,0,0,AAXX 07154 48380 32560 30000 10250 20217 30009 40103 52024 81545 333 59018
1:00 AM +07 on January 08,2017,2017,1,8,1,0,Asia/Bangkok,23,74,20,69,79,0,0,,,,,4,2,1010,29.83,-999,-999,-9999,-9999,,,Mist,hazy,0,0,0,0,0,0,AAXX 07184 48376 31940 00000 10232 20204 39956 40102 56004 71000 333 59016
4:00 AM +07 on January 08,2017,2017,1,8,4,0,Asia/Bangkok,22,72,20,67,81,0,0,,,,,4,2,1009,29.8,-999,-999,-9999,-9999,,,Mist,hazy,0,0,0,0,0,0,AAXX 07214 48376 31940 00000 10222 20197 39945 40091 57010 71000 333 59014
7:00 AM +07 on January 08,2017,2017,1,8,7,0,Asia/Bangkok,22,71,19,67,83,5.6,3.5,,,280,West,4,2,1011,29.85,-999,-999,-9999,-9999,,,Mist,hazy,0,0,0,0,0,0,AAXX 08004 48376 31540 62803 10216 20194 39959 40106 52014 71020 82536 333 20213 59006
10:00 AM +07 on January 08,2017,2017,1,8,10,0,Asia/Bangkok,25,77,20,69,68,5.6,3.5,,,300,WNW,5,3,1013,29.91,-999,-999,-9999,-9999,,,Mist,hazy,0,0,0,0,0,0,AAXX 08034 48376 31550 63003 10252 20203 39983 40129 52025 71022 82536 333 58003
1:00 PM +07 on January 08,2017,2017,1,8,13,0,Asia/Bangkok,29,84,20,68,50,5.6,3.5,,,320,NW,6,4,1010,29.83,-999,-999,-9999,-9999,,,Haze,hazy,0,0,0,0,0,0,AAXX 08064 48376 31556 53203 10290 20202 39957 40100 57026 70522 82536 333 58006
4:00 PM +07 on January 08,2017,2017,1,8,16,0,Asia/Bangkok,31,87,22,71,50,0,0,,,,,6,4,1007,29.75,-999,-999,-9999,-9999,,,Haze,hazy,0,0,0,0,0,0,AAXX 08094 48376 31556 60000 10306 20217 39931 40074 57025 70522 82336 333 58002
7:00 PM +07 on January 08,2017,2017,1,8,19,0,Asia/Bangkok,27,81,23,73,71,0,0,,,,,5,3,1009,29.79,-999,-999,-9999,-9999,,,Mist,hazy,0,0,0,0,0,0,AAXX 08124 48376 31950 20000 10270 20229 39943 40087 52011 71020 80005 333 10310 58004
10:00 PM +07 on January 08,2017,2017,1,8,22,0,Asia/Bangkok,25,76,22,72,84,0,0,,,,,5,3,1011,29.85,-999,-999,-9999,-9999,,,Mist,hazy,0,0,0,0,0,0,AAXX 08154 48376 31950 20000 10246 20222 39960 40106 52018 71000 80005 333 58001
1:00 AM +07 on January 09,2017,2017,1,9,1,0,Asia/Bangkok,23,74,22,71,86,0,0,,,,,5,3,1010,29.84,-999,-999,-9999,-9999,,,Mist,hazy,0,0,0,0,0,0,AAXX 08184 48376 31950 20000 10233 20215 39959 40105 56001 71000 80005 333 58004
4:00 AM +07 on January 09,2017,2017,1,9,4,0,Asia/Bangkok,23,73,22,71,90,0,0,,,,,4,2,1009,29.81,-999,-999,-9999,-9999,,,Mist,hazy,0,0,0,0,0,0,AAXX 08214 48376 31940 20000 10230 20215 39945 40092 57014 71000 80005 333 58000
7:00 AM +07 on January 09,2017,2017,1,9,7,0,Asia/Bangkok,24,75,21,70,79,0,0,,,,,4,2,1010,29.83,-999,-999,-9999,-9999,,,Mist,hazy,0,0,0,0,0,0,AAXX 09004 48376 31540 80000 10240 20209 39954 40100 51009 71020 8452/ 333 20226 59006
10:00 AM +07 on January 09,2017,2017,1,9,10,0,Asia/Bangkok,25,77,22,71,76,0,0,,,,,6,4,1012,29.9,-999,-999,-9999,-9999,,,Mist,hazy,0,0,0,0,0,0,AAXX 09034 48376 31556 80000 10252 20216 39979 40125 52025 71022 85576 333 59004
1:00 PM +07 on January 09,2017,2017,1,9,13,0,Asia/Bangkok,27,81,22,71,64,3.7,2.3,,,300,WNW,6,4,1010,29.83,-999,-999,-9999,-9999,,,Mist,hazy,0,0,0,0,0,0,AAXX 09064 48376 31556 63002 10273 20215 39956 40100 57023 71022 82536 333 58000
4:00 PM +07 on January 09,2017,2017,1,9,16,0,Asia/Bangkok,29,83,22,71,60,3.7,2.3,,,320,NW,5,3,1008,29.77,-999,-999,-9999,-9999,,,Mist,hazy,0,0,0,0,0,0,AAXX 09094 48376 31550 63202 10286 20218 39935 40079 57021 71022 83536 333 58005
7:00 PM +07 on January 09,2017,2017,1,9,19,0,Asia/Bangkok,26,80,23,73,74,0,0,,,,,5,3,1009,29.8,-999,-999,-9999,-9999,,,Mist,hazy,0,0,0,0,0,0,AAXX 09124 48376 31550 60000 10265 20228 39945 40090 52010 71022 82536 333 10296 58003
10:00 PM +07 on January 09,2017,2017,1,9,22,0,Asia/Bangkok,25,77,23,73,84,0,0,,,,,5,3,1011,29.86,-999,-999,-9999,-9999,,,Mist,hazy,0,0,0,0,0,0,AAXX 09154 48376 31550 70000 10250 20228 39965 40110 52020 71022 84576 333 58004
1:00 AM +07 on January 10,2017,2017,1,10,1,0,Asia/Bangkok,24,76,22,72,85,0,0,,,,,4,2,1011,29.86,-999,-999,-9999,-9999,,,Light Rain,rain,0,1,0,0,0,0,AAXX 09184 48376 01540 80000 10242 20224 39964 40109 56001 69903 76022 8452/ 333 58004 69905 79999
4:00 AM +07 on January 10,2017,2017,1,10,4,0,Asia/Bangkok,24,75,23,73,90,0,0,,,,,4,2,1009,29.81,-999,-999,-9999,-9999,,,Light Rain,rain,0,1,0,0,0,0,AAXX 09214 48376 21540 80000 10239 20226 39947 40093 57017 72162 8452/ 333 58001 69967
7:00 AM +07 on January 10,2017,2017,1,10,7,0,Asia/Bangkok,23,73,22,71,93,0,0,,,,,3,2,1010,29.84,-999,-999,-9999,-9999,,,Mist,hazy,0,0,0,0,0,0,AAXX 10004 48376 11530 60000 10230 20219 39959 40105 52012 69964 71062 84576 333 20226 58005 70006
10:00 AM +07 on January 10,2017,2017,1,10,10,0,Asia/Bangkok,24,75,23,73,90,0,0,,,,,3,2,1012,29.9,-999,-999,-9999,-9999,,,Light Rain,rain,0,1,0,0,0,0,AAXX 10034 48376 21530 80000 10238 20226 39979 40125 52020 72122 84576 333 58001 69935
1:00 PM +07 on January 10,2017,2017,1,10,13,0,Asia/Bangkok,24,75,23,73,92,0,0,,,,,3,2,1011,29.86,-999,-999,-9999,-9999,,,Mist,hazy,0,0,0,0,0,0,AAXX 10064 48376 01530 70000 10240 20228 39963 40109 57016 60011 71062 84576 333 58009 60016 70019
4:00 PM +07 on January 10,2017,2017,1,10,16,0,Asia/Bangkok,26,79,23,73,78,0,0,,,,,4,2,1009,29.79,-999,-999,-9999,-9999,,,Mist,hazy,0,0,0,0,0,0,AAXX 10094 48376 31540 70000 10263 20229 39944 40088 57019 71022 84576 333 58010
7:00 PM +07 on January 10,2017,2017,1,10,19,0,Asia/Bangkok,25,78,24,74,86,0,0,,,,,4,2,1010,29.83,-999,-999,-9999,-9999,,,Mist,hazy,0,0,0,0,0,0,AAXX 10124 48376 31540 70000 10254 20236 39955 40100 52011 71022 83576 333 10268 58010 70019
10:00 PM +07 on January 10,2017,2017,1,10,22,0,Asia/Bangkok,24,76,23,74,91,0,0,,,,,3,2,1012,29.87,-999,-999,-9999,-9999,,,Light Rain,rain,0,1,0,0,0,0,AAXX 10154 48376 21530 80000 10242 20233 39970 40115 52015 72162 8552/ 333 58005 69967
1:00 AM +07 on January 11,2017,2017,1,11,1,0,Asia/Bangkok,24,75,23,73,93,0,0,,,,,3,2,1011,29.86,-999,-999,-9999,-9999,,,Light Rain,rain,0,1,0,0,0,0,AAXX 10184 48376 01530 80000 10237 20230 39963 40109 56006 60033 76062 8552/ 333 58000 69967 70031
4:00 AM +07 on January 11,2017,2017,1,11,4,0,Asia/Bangkok,23,73,22,72,98,0,0,,,,,2,1,1009,29.81,-999,-999,-9999,-9999,,,Mist,hazy,0,0,0,0,0,0,AAXX 10214 48376 21520 80000 10230 20225 39948 40094 57016 71062 8552/ 333 58001 60047
7:00 AM +07 on January 11,2017,2017,1,11,7,0,Asia/Bangkok,23,73,22,72,94,0,0,,,,,3,2,1010,29.84,-999,-999,-9999,-9999,,,Mist,hazy,0,0,0,0,0,0,AAXX 11004 48376 01530 80000 10226 20220 39957 40104 52010 60104 71062 8452/ 333 20222 59001 60047 70102
10:00 AM +07 on January 11,2017,2017,1,11,10,0,Asia/Bangkok,23,74,23,73,94,3.7,2.3,,,100,East,3,2,1012,29.9,-999,-999,-9999,-9999,,,Light Rain,rain,0,1,0,0,0,0,AAXX 11034 48376 21530 81002 10232 20226 39977 40123 52019 76022 8552/ 333 59002 69965
1:00 PM +07 on January 11,2017,2017,1,11,13,0,Asia/Bangkok,25,77,24,74,89,0,0,,,,,3,2,1010,29.83,-999,-999,-9999,-9999,,,Mist,hazy,0,0,0,0,0,0,AAXX 11064 48376 01530 80000 10250 20235 39956 40101 57021 60021 71062 8552/ 333 59008 60017 70105
4:00 PM +07 on January 11,2017,2017,1,11,16,0,Asia/Bangkok,25,78,24,74,86,5.6,3.5,,,50,NE,4,2,1008,29.78,-999,-999,-9999,-9999,,,Mist,hazy,0,0,0,0,0,0,AAXX 11094 48376 31540 80503 10254 20236 39940 40085 57016 71022 8552/ 333 59004
7:00 PM +07 on January 11,2017,2017,1,11,19,0,Asia/Bangkok,25,77,24,74,90,5.6,3.5,,,50,NE,3,2,1009,29.8,-999,-999,-9999,-9999,,,Light Rain,rain,0,1,0,0,0,0,AAXX 11124 48376 01530 80503 10248 20236 39945 40090 51005 60022 76022 8552/ 333 10257 59010 69925 70107
10:00 PM +07 on January 11,2017,2017,1,11,22,0,Asia/Bangkok,24,75,23,74,96,3.7,2.3,,,40,NE,2.5,2,1011,29.85,-999,-999,-9999,-9999,,,Light Rain,rain,0,1,0,0,0,0,AAXX 11154 48376 21525 80402 10241 20234 39960 40106 52015 76062 8552/ 333 59010 60046
1:00 AM +07 on January 12,2017,2017,1,12,1,0,Asia/Bangkok,25,76,24,75,94,0,0,,,,,10,6,1010,29.83,-999,-999,-9999,-9999,,,Overcast,cloudy,0,0,0,0,0,0,AAXX 11184 48380 32560 80000 10246 20237 30007 40101 57001 8472/ 333 59007 70016
4:00 AM +07 on January 12,2017,2017,1,12,4,0,Asia/Bangkok,24,75,23,73,93,0,0,,,,,10,6,1008,29.78,-999,-999,-9999,-9999,,,Partly Cloudy,partlycloudy,0,0,0,0,0,0,AAXX 11214 48380 21560 80000 10240 20230 39990 40084 57017 70262 8472/ 333 59010 60017
7:00 AM +07 on January 12,2017,2017,1,12,7,0,Asia/Bangkok,24,75,23,74,96,0,0,,,,,8,5,1009,29.79,-999,-999,-9999,-9999,,,Light Rain,rain,0,1,0,0,0,0,AAXX 12004 48380 01558 80000 10240 20234 39994 40088 52004 60034 76062 8472/ 333 20232 59018 69915 70027
10:00 AM +07 on January 12,2017,2017,1,12,10,0,Asia/Bangkok,25,77,24,75,92,0,0,,,,,10,6,1011,29.86,-999,-999,-9999,-9999,,,Partly Cloudy,partlycloudy,0,0,0,0,0,0,AAXX 12034 48380 21560 80000 10248 20239 30015 40109 52021 70262 8672/ 333 59014 60027
1:00 PM +07 on January 12,2017,2017,1,12,13,0,Asia/Bangkok,27,81,24,74,75,1.9,1.2,,,110,ESE,10,6,1009,29.79,-999,-999,-9999,-9999,,,Partly Cloudy,partlycloudy,0,0,0,0,0,0,AAXX 12064 48380 11560 71101 10272 20236 39993 40086 57022 60021 70162 83576 333 59015 70042
4:00 PM +07 on January 12,2017,2017,1,12,16,0,Asia/Bangkok,29,85,23,73,60,3.7,2.3,,,160,SSE,10,6,1007,29.73,-999,-999,-9999,-9999,,,Mostly Cloudy,mostlycloudy,0,0,0,0,0,0,AAXX 12094 48380 32560 71602 10292 20228 39976 40068 57017 85576 333 59014
7:00 PM +07 on January 12,2017,2017,1,12,19,0,Asia/Bangkok,27,81,24,76,81,3.7,2.3,,,140,SE,10,6,1008,29.76,-999,-999,-9999,-9999,,,Scattered Clouds,partlycloudy,0,0,0,0,0,0,AAXX 12124 48380 32560 61402 10274 20245 39983 40076 52007 82556 333 10294 59015 70036
10:00 PM +07 on January 12,2017,2017,1,12,22,0,Asia/Bangkok,26,78,24,75,89,0,0,,,,,10,6,1009,29.81,-999,-999,-9999,-9999,,,Scattered Clouds,partlycloudy,0,0,0,0,0,0,AAXX 12154 48380 32560 70000 10257 20241 30000 40094 52017 82556 333 59008
1:00 AM +07 on January 13,2017,2017,1,13,1,0,Asia/Bangkok,22,72,20,69,87,0,0,,,,,4,2,1010,29.82,-999,-999,-9999,-9999,,,Mist,hazy,0,0,0,0,0,0,AAXX 12184 48376 31940 20000 10220 20205 39949 40096 56002 71020 80005 333 59005 70026
4:00 AM +07 on January 13,2017,2017,1,13,4,0,Asia/Bangkok,20,68,19,66,90,0,0,,,,,4,2,1009,29.8,-999,-999,-9999,-9999,,,Mist,hazy,0,0,0,0,0,0,AAXX 12214 48376 31540 50000 10198 20188 39942 40090 56007 71020 82536 333 58003
7:00 AM +07 on January 13,2017,2017,1,13,7,0,Asia/Bangkok,19,65,18,64,96,0,0,,,,,5,3,1010,29.83,-999,-999,-9999,-9999,,,Mist,hazy,0,0,0,0,0,0,AAXX 13004 48376 11950 20000 10186 20178 39952 40100 51009 60034 71020 81035 333 20183 58012 70026
10:00 AM +07 on January 13,2017,2017,1,13,10,0,Asia/Bangkok,26,79,20,68,62,5.6,3.5,,,330,NNW,7,4,1011,29.87,-999,-999,-9999,-9999,,,Mist,hazy,0,0,0,0,0,0,AAXX 13034 48376 31957 23303 10260 20202 39969 40114 52017 71000 80005 333 58004
1:00 PM +07 on January 13,2017,2017,1,13,13,0,Asia/Bangkok,30,87,21,70,47,0,0,,,,,7,4,1009,29.8,-999,-999,-9999,-9999,,,Haze,hazy,0,0,0,0,0,0,AAXX 13064 48376 31557 20000 10303 20209 39946 40089 57023 70500 81205 333 59002 79999
4:00 PM +07 on January 13,2017,2017,1,13,16,0,Asia/Bangkok,31,88,22,71,48,5.6,3.5,,,200,SSW,6,4,1007,29.73,-999,-999,-9999,-9999,,,Haze,hazy,0,0,0,0,0,0,AAXX 13094 48376 31556 22003 10311 20216 39924 40066 57022 70500 82205 333 59003
7:00 PM +07 on January 13,2017,2017,1,13,19,0,Asia/Bangkok,27,81,19,66,50,5.6,3.5,,,270,West,6,4,1008,29.78,-999,-999,-9999,-9999,,,Haze,hazy,0,0,0,0,0,0,AAXX 13124 48376 31956 02703 10270 20187 39941 40085 52017 70500 333 10320 58009
10:00 PM +07 on January 13,2017,2017,1,13,22,0,Asia/Bangkok,24,75,18,65,62,3.7,2.3,,,250,WSW,5,3,1011,29.86,-999,-999,-9999,-9999,,,Mist,hazy,0,0,0,0,0,0,AAXX 13154 48376 31550 22502 10240 20181 39963 40109 52022 71000 81105 333 58013
1:00 AM +07 on January 14,2017,2017,1,14,1,0,Asia/Bangkok,23,73,19,67,75,0,0,,,,,10,6,1010,29.84,-999,-999,-9999,-9999,,,,,0,0,0,0,0,0,AAXX 13184 48380 32960 00000 10228 20192 30010 40105 57001 333 58012
4:00 AM +07 on January 14,2017,2017,1,14,4,0,Asia/Bangkok,21,69,19,66,86,0,0,,,,,10,6,1010,29.81,-999,-999,-9999,-9999,,,Scattered Clouds,partlycloudy,0,0,0,0,0,0,AAXX 13214 48380 32960 10000 10206 20187 30000 40095 57010 81041 333 58007
7:00 AM +07 on January 14,2017,2017,1,14,7,0,Asia/Bangkok,20,68,18,64,81,0,0,,,,,10,6,1011,29.86,-999,-999,-9999,-9999,,,Clear,clear,0,0,0,0,0,0,AAXX 14004 48380 32960 30000 10198 20175 30013 40109 52013 80001 333 20197 58012
10:00 AM +07 on January 14,2017,2017,1,14,10,0,Asia/Bangkok,27,80,19,65,52,3.7,2.3,,,310,NW,10,6,1012,29.9,-999,-999,-9999,-9999,,,Scattered Clouds,partlycloudy,0,0,0,0,0,0,AAXX 14034 48380 32560 23102 10269 20186 30029 40123 52017 82542 333 58011
1:00 PM +07 on January 14,2017,2017,1,14,13,0,Asia/Bangkok,31,87,21,69,46,3.7,2.3,,,150,SSE,12,7,1010,29.84,-999,-999,-9999,-9999,,,Scattered Clouds,partlycloudy,0,0,0,0,0,0,AAXX 14064 48380 32562 21502 10308 20206 30012 40104 57017 81201 333 58015
4:00 PM +07 on January 14,2017,2017,1,14,16,0,Asia/Bangkok,33,91,21,70,41,3.7,2.3,,,190,South,12,7,1009,29.79,-999,-999,-9999,-9999,,,Scattered Clouds,partlycloudy,0,0,0,0,0,0,AAXX 14094 48380 32562 21902 10327 20213 39995 40086 57017 81201 333 58016
7:00 PM +07 on January 14,2017,2017,1,14,19,0,Asia/Bangkok,30,85,22,72,56,0,0,,,,,10,6,1010,29.82,-999,-999,-9999,-9999,,,Scattered Clouds,partlycloudy,0,0,0,0,0,0,AAXX 14124 48380 32560 20000 10295 20221 30004 40097 52009 81531 333 10328 58016
10:00 PM +07 on January 14,2017,2017,1,14,22,0,Asia/Bangkok,27,80,25,76,86,0,0,,,,,10,6,1013,29.91,-999,-999,-9999,-9999,,,Clear,clear,0,0,0,0,0,0,AAXX 14154 48380 32960 10000 10267 20247 30033 40127 52029 80001 333 58022
1:00 AM +07 on January 15,2017,2017,1,15,1,0,Asia/Bangkok,22,72,21,69,89,0,0,,,,,4,2,1013,29.92,-999,-999,-9999,-9999,,,Mist,hazy,0,0,0,0,0,0,AAXX 14184 48376 31940 20000 10220 20208 39985 40132 51005 71000 81032 333 58025
4:00 AM +07 on January 15,2017,2017,1,15,4,0,Asia/Bangkok,21,70,21,69,97,5.6,3.5,,,270,West,4,2,1012,29.9,-999,-999,-9999,-9999,,,Mist,hazy,0,0,0,0,0,0,AAXX 14214 48376 31940 02703 10213 20208 39976 40123 56009 71000 333 58024
7:00 AM +07 on January 15,2017,2017,1,15,7,0,Asia/Bangkok,19,67,19,66,94,0,0,,,,,4,2,1014,29.94,-999,-999,-9999,-9999,,,Mist,hazy,0,0,0,0,0,0,AAXX 15004 48376 31940 20000 10193 20187 39988 40136 52012 71000 80002 333 20192 58028
10:00 AM +07 on January 15,2017,2017,1,15,10,0,Asia/Bangkok,25,78,20,68,65,5.6,3.5,,,310,NW,5,3,1014,29.96,-999,-999,-9999,-9999,,,Mist,hazy,0,0,0,0,0,0,AAXX 15034 48376 31950 23103 10254 20202 39998 40143 52010 71000 80005 333 58016
1:00 PM +07 on January 15,2017,2017,1,15,13,0,Asia/Bangkok,31,87,22,71,51,5.6,3.5,,,90,East,6,4,1012,29.9,-999,-999,-9999,-9999,,,Haze,hazy,0,0,0,0,0,0,AAXX 15064 48376 31556 30903 10306 20219 39982 40125 57016 70500 82205 333 58021
4:00 PM +07 on January 15,2017,2017,1,15,16,0,Asia/Bangkok,32,90,21,69,41,0,0,,,,,7,4,1010,29.83,-999,-999,-9999,-9999,,,Haze,hazy,0,0,0,0,0,0,AAXX 15094 48376 31557 20000 10324 20206 39959 40101 57023 70500 81205 333 58011
7:00 PM +07 on January 15,2017,2017,1,15,19,0,Asia/Bangkok,27,81,22,72,69,0,0,,,,,6,4,1011,29.86,-999,-999,-9999,-9999,,,Mist,hazy,0,0,0,0,0,0,AAXX 15124 48376 31956 20000 10271 20225 39967 40112 51009 71000 80005 333 10328 58012
10:00 PM +07 on January 15,2017,2017,1,15,22,0,Asia/Bangkok,24,75,22,71,84,0,0,,,,,5,3,1014,29.93,-999,-999,-9999,-9999,,,Mist,hazy,0,0,0,0,0,0,AAXX 15154 48376 31950 00000 10240 20217 39988 40135 52021 71000 333 58008
1:00 AM +07 on January 16,2017,2017,1,16,1,0,Asia/Bangkok,22,72,21,69,89,0,0,,,,,5,3,1013,29.92,-999,-999,-9999,-9999,,,Mist,hazy,0,0,0,0,0,0,AAXX 15184 48376 31950 20000 10223 20208 39983 40130 56006 71000 80005 333 59002
4:00 AM +07 on January 16,2017,2017,1,16,4,0,Asia/Bangkok,21,70,19,67,87,0,0,,,,,5,3,1012,29.89,-999,-999,-9999,-9999,,,Mist,hazy,0,0,0,0,0,0,AAXX 15214 48376 31950 00000 10210 20194 39974 40121 56009 71000 333 59002
7:00 AM +07 on January 16,2017,2017,1,16,7,0,Asia/Bangkok,20,68,19,66,90,0,0,,,,,4,2,1014,29.93,-999,-999,-9999,-9999,,,Mist,hazy,0,0,0,0,0,0,AAXX 16004 48376 31940 20000 10198 20188 39987 40135 52013 71000 80005 333 20194 59001
10:00 AM +07 on January 16,2017,2017,1,16,10,0,Asia/Bangkok,26,79,20,69,63,9.3,5.8,,,290,WNW,7,4,1014,29.96,-999,-999,-9999,-9999,,,Mist,hazy,0,0,0,0,0,0,AAXX 16034 48376 31957 02905 10259 20204 39999 40145 52012 71000 333 58002
1:00 PM +07 on January 16,2017,2017,1,16,13,0,Asia/Bangkok,31,88,20,69,43,5.6,3.5,,,40,NE,7,4,1012,29.87,-999,-999,-9999,-9999,,,Haze,hazy,0,0,0,0,0,0,AAXX 16064 48376 31557 20403 10313 20203 39973 40115 57026 70500 82305 333 59009
4:00 PM +07 on January 16,2017,2017,1,16,16,0,Asia/Bangkok,33,91,21,70,41,3.7,2.3,,,90,East,7,4,1009,29.81,-999,-999,-9999,-9999,,,Haze,hazy,0,0,0,0,0,0,AAXX 16094 48376 31557 20902 10330 20211 39951 40092 57022 70500 81305 333 59008
10:00 PM +07 on January 16,2017,2017,1,16,22,0,Asia/Bangkok,24,76,21,71,78,0,0,,,,,5,3,1013,29.91,-999,-999,-9999,-9999,,,Mist,hazy,0,0,0,0,0,0,AAXX 16154 48376 31950 00000 10243 20214 39981 40126 52018 71000 333 59008
1:00 AM +07 on January 17,2017,2017,1,17,1,0,Asia/Bangkok,23,74,21,70,82,0,0,,,,,10,6,1012,29.89,-999,-999,-9999,-9999,,,,,0,0,0,0,0,0,AAXX 16184 48380 32960 00000 10232 20209 30025 40120 57003 333 59007
4:00 AM +07 on January 17,2017,2017,1,17,4,0,Asia/Bangkok,22,72,20,68,83,0,0,,,,,10,6,1012,29.87,-999,-999,-9999,-9999,,,,,0,0,0,0,0,0,AAXX 16214 48380 32960 00000 10220 20200 30020 40115 57005 333 59003
7:00 AM +07 on January 17,2017,2017,1,17,7,0,Asia/Bangkok,21,70,20,68,91,0,0,,,,,8,5,1013,29.91,-999,-999,-9999,-9999,,,Mist,hazy,0,0,0,0,0,0,AAXX 17004 48380 31958 10000 10213 20199 30031 40127 52011 71000 80001 333 20206 59001
10:00 AM +07 on January 17,2017,2017,1,17,10,0,Asia/Bangkok,27,80,21,69,62,5.6,3.5,,,10,North,10,6,1015,29.98,-999,-999,-9999,-9999,,,Scattered Clouds,partlycloudy,0,0,0,0,0,0,AAXX 17034 48380 32560 30103 10267 20206 30057 40151 52026 81105 333 58010
1:00 PM +07 on January 17,2017,2017,1,17,13,0,Asia/Bangkok,32,89,20,69,42,9.3,5.8,,,100,East,10,6,1012,29.88,-999,-999,-9999,-9999,,,Scattered Clouds,partlycloudy,0,0,0,0,0,0,AAXX 17064 48380 32560 21005 10318 20204 30027 40119 57030 82102 333 58003
4:00 PM +07 on January 17,2017,2017,1,17,16,0,Asia/Bangkok,33,91,20,68,37,5.6,3.5,,,90,East,10,6,1010,29.84,-999,-999,-9999,-9999,,,Scattered Clouds,partlycloudy,0,0,0,0,0,0,AAXX 17094 48380 32560 20903 10328 20200 30011 40103 57016 81105 333 58008
7:00 PM +07 on January 17,2017,2017,1,17,19,0,Asia/Bangkok,29,85,22,72,58,0,0,,,,,10,6,1012,29.89,-999,-999,-9999,-9999,,,Scattered Clouds,partlycloudy,0,0,0,0,0,0,AAXX 17124 48380 32560 30000 10293 20224 30028 40121 52017 81145 333 10331 58015
10:00 PM +07 on January 17,2017,2017,1,17,22,0,Asia/Bangkok,28,82,23,73,67,0,0,,,,,10,6,1014,29.95,-999,-999,-9999,-9999,,,Scattered Clouds,partlycloudy,0,0,0,0,0,0,AAXX 17154 48380 32560 30000 10278 20226 30049 40142 52021 82545 333 58020
1:00 AM +07 on January 18,2017,2017,1,18,1,0,Asia/Bangkok,24,75,22,72,89,0,0,,,,,4,2,1015,29.96,-999,-999,-9999,-9999,,,Mist,hazy,0,0,0,0,0,0,AAXX 17184 48376 31540 50000 10240 20224 39999 40146 56001 71020 82506 333 58021
4:00 AM +07 on January 18,2017,2017,1,18,4,0,Asia/Bangkok,23,74,21,71,86,0,0,,,,,4,2,1014,29.94,-999,-999,-9999,-9999,,,Mist,hazy,0,0,0,0,0,0,AAXX 17214 48376 31540 60000 10232 20214 39991 40138 56008 71022 82536 333 58022
7:00 AM +07 on January 18,2017,2017,1,18,7,0,Asia/Bangkok,23,73,21,70,88,0,0,,,,,4,2,1015,29.98,-999,-999,-9999,-9999,,,Mist,hazy,0,0,0,0,0,0,AAXX 18004 48376 31540 80000 10230 20212 30003 40150 52012 71022 8552/ 333 20227 58016
10:00 AM +07 on January 18,2017,2017,1,18,10,0,Asia/Bangkok,25,77,21,70,74,3.7,2.3,,,270,West,4,2,1018,30.05,-999,-999,-9999,-9999,,,Mist,hazy,0,0,0,0,0,0,AAXX 18034 48376 31540 82702 10251 20212 30029 40176 52026 71022 8552/ 333 58021
1:00 PM +07 on January 18,2017,2017,1,18,13,0,Asia/Bangkok,30,86,22,71,53,5.6,3.5,,,310,NW,6,4,1015,29.97,-999,-999,-9999,-9999,,,Haze,hazy,0,0,0,0,0,0,AAXX 18064 48376 31556 63103 10302 20218 30006 40149 57023 70522 82536 333 58023
4:00 PM +07 on January 18,2017,2017,1,18,16,0,Asia/Bangkok,31,88,22,72,50,0,0,,,,,5,3,1013,29.91,-999,-999,-9999,-9999,,,Haze,hazy,0,0,0,0,0,0,AAXX 18094 48376 31550 60000 10312 20221 39983 40126 57022 70522 82236 333 58023
7:00 PM +07 on January 18,2017,2017,1,18,19,0,Asia/Bangkok,29,85,23,74,62,0,0,,,,,5,3,1014,29.94,-999,-999,-9999,-9999,,,Mist,hazy,0,0,0,0,0,0,AAXX 18124 48376 31550 60000 10293 20232 39995 40139 52012 71022 82536 333 10321 58018
10:00 PM +07 on January 18,2017,2017,1,18,22,0,Asia/Bangkok,26,80,23,74,76,0,0,,,,,4,2,1016,30.01,-999,-999,-9999,-9999,,,Mist,hazy,0,0,0,0,0,0,AAXX 18154 48376 31540 60000 10264 20232 30015 40161 52020 71022 82536 333 58015
1:00 AM +07 on January 19,2017,2017,1,19,1,0,Asia/Bangkok,25,77,22,72,80,3.7,2.3,,,290,WNW,10,6,1016,29.99,-999,-999,-9999,-9999,,,Clear,clear,0,0,0,0,0,0,AAXX 18184 48380 32960 12902 10252 20222 30062 40156 57003 80001 333 58015
4:00 AM +07 on January 19,2017,2017,1,19,4,0,Asia/Bangkok,24,76,22,72,83,3.7,2.3,,,310,NW,8,5,1014,29.96,-999,-999,-9999,-9999,,,Mist,hazy,0,0,0,0,0,0,AAXX 18214 48380 31958 03102 10242 20221 30049 40144 57013 71000 333 58011
7:00 AM +07 on January 19,2017,2017,1,19,7,0,Asia/Bangkok,23,73,22,71,90,0,0,,,,,8,5,1015,29.98,-999,-999,-9999,-9999,,,Mist,hazy,0,0,0,0,0,0,AAXX 19004 48380 31558 60000 10230 20215 30055 40150 52006 71010 81536 333 20230 58003
10:00 AM +07 on January 19,2017,2017,1,19,10,0,Asia/Bangkok,27,81,22,72,66,5.6,3.5,,,240,WSW,9,6,1016,30.02,-999,-999,-9999,-9999,,,Mist,hazy,0,0,0,0,0,0,AAXX 19034 48380 31559 22403 10272 20220 30071 40165 52016 71000 81531 333 59007
1:00 PM +07 on January 19,2017,2017,1,19,13,0,Asia/Bangkok,32,90,20,69,40,11.1,6.9,,,20,NNE,10,6,1013,29.92,-999,-999,-9999,-9999,,,Scattered Clouds,partlycloudy,0,0,0,0,0,0,AAXX 19064 48380 32560 20206 10325 20205 30039 40131 57032 82201 333 59016
4:00 PM +07 on January 19,2017,2017,1,19,16,0,Asia/Bangkok,34,93,21,69,37,5.6,3.5,,,60,ENE,12,7,1012,29.88,-999,-999,-9999,-9999,,,Scattered Clouds,partlycloudy,0,0,0,0,0,0,AAXX 19094 48380 32562 20603 10337 20208 30024 40116 57015 81201 333 59009
7:00 PM +07 on January 19,2017,2017,1,19,19,0,Asia/Bangkok,30,87,21,69,47,0,0,,,,,10,6,1013,29.91,-999,-999,-9999,-9999,,,Scattered Clouds,partlycloudy,0,0,0,0,0,0,AAXX 19124 48380 32560 20000 10304 20208 30034 40127 52010 81231 333 10338 59015
10:00 PM +07 on January 19,2017,2017,1,19,22,0,Asia/Bangkok,27,81,24,76,80,1.9,1.2,,,320,NW,10,6,1014,29.95,-999,-999,-9999,-9999,,,,,0,0,0,0,0,0,AAXX 19154 48380 32960 03201 10270 20243 30046 40140 52012 333 59019
1:00 AM +07 on January 20,2017,2017,1,20,1,0,Asia/Bangkok,24,76,23,73,88,0,0,,,,,4,2,1016,30,-999,-999,-9999,-9999,,,Mist,hazy,0,0,0,0,0,0,AAXX 19184 48376 31940 20000 10245 20229 30013 40159 52011 71000 80005 333 58001
4:00 AM +07 on January 20,2017,2017,1,20,4,0,Asia/Bangkok,23,74,22,71,88,0,0,,,,,4,2,1013,29.92,-999,-999,-9999,-9999,,,Mist,hazy,0,0,0,0,0,0,AAXX 19214 48376 31540 60000 10234 20217 39986 40132 57027 71020 82536 333 59014
7:00 AM +07 on January 20,2017,2017,1,20,7,0,Asia/Bangkok,23,73,21,70,87,0,0,,,,,4,2,1014,29.96,-999,-999,-9999,-9999,,,Mist,hazy,0,0,0,0,0,0,AAXX 20004 48376 31940 20000 10227 20210 39996 40143 52010 71020 80005 333 20218 59011
10:00 AM +07 on January 20,2017,2017,1,20,10,0,Asia/Bangkok,26,78,23,73,79,0,0,,,,,5,3,1017,30.03,-999,-999,-9999,-9999,,,Mist,hazy,0,0,0,0,0,0,AAXX 20034 48376 31550 30000 10256 20226 30021 40167 52026 71000 82305 333 58006
1:00 PM +07 on January 20,2017,2017,1,20,13,0,Asia/Bangkok,30,87,22,72,51,0,0,,,,,5,3,1014,29.95,-999,-999,-9999,-9999,,,Haze,hazy,0,0,0,0,0,0,AAXX 20064 48376 31550 30000 10303 20220 39998 40141 57024 70500 82305 333 58010
4:00 PM +07 on January 20,2017,2017,1,20,16,0,Asia/Bangkok,32,90,21,69,41,3.7,2.3,,,90,East,6,4,1011,29.86,-999,-999,-9999,-9999,,,Haze,hazy,0,0,0,0,0,0,AAXX 20094 48376 31556 20902 10324 20208 39970 40112 57027 70500 82305 333 58001
7:00 PM +07 on January 20,2017,2017,1,20,19,0,Asia/Bangkok,28,82,22,72,66,0,0,,,,,5,3,1013,29.91,-999,-999,-9999,-9999,,,Mist,hazy,0,0,0,0,0,0,AAXX 20124 48376 31950 20000 10280 20224 39982 40126 52011 71000 80005 333 10338 59004
10:00 PM +07 on January 20,2017,2017,1,20,22,0,Asia/Bangkok,24,76,22,72,85,0,0,,,,,5,3,1015,29.98,-999,-999,-9999,-9999,,,Mist,hazy,0,0,0,0,0,0,AAXX 20154 48376 31950 00000 10243 20224 30003 40150 52022 71000 333 58002
1:00 AM +07 on January 21,2017,2017,1,21,1,0,Asia/Bangkok,24,75,22,71,84,0,0,,,,,10,6,1015,29.97,-999,-999,-9999,-9999,,,Scattered Clouds,partlycloudy,0,0,0,0,0,0,AAXX 20184 48380 32960 20000 10240 20217 30053 40148 57004 81031 333 58013
4:00 AM +07 on January 21,2017,2017,1,21,4,0,Asia/Bangkok,23,73,21,69,84,0,0,,,,,10,6,1015,29.96,-999,-999,-9999,-9999,,,Scattered Clouds,partlycloudy,0,0,0,0,0,0,AAXX 20214 48380 32960 20000 10230 20207 30051 40146 57003 81031 333 58023
7:00 AM +07 on January 21,2017,2017,1,21,7,0,Asia/Bangkok,23,73,21,69,85,0,0,,,,,8,5,1016,30.01,-999,-999,-9999,-9999,,,Mist,hazy,0,0,0,0,0,0,AAXX 21004 48380 31558 30000 10226 20208 30068 40163 52017 71000 81545 333 20218 58015
10:00 AM +07 on January 21,2017,2017,1,21,10,0,Asia/Bangkok,29,84,19,66,46,3.7,2.3,,,140,SE,10,6,1019,30.09,-999,-999,-9999,-9999,,,Scattered Clouds,partlycloudy,0,0,0,0,0,0,AAXX 21034 48380 32560 21402 10287 20190 30093 40187 52026 82101 333 58023
1:00 PM +07 on January 21,2017,2017,1,21,13,0,Asia/Bangkok,31,88,19,66,38,7.4,4.6,,,330,NNW,10,6,1016,30.01,-999,-999,-9999,-9999,,,Scattered Clouds,partlycloudy,0,0,0,0,0,0,AAXX 21064 48380 32560 23304 10312 20189 30067 40160 57026 82101 333 58025
7:00 PM +07 on January 21,2017,2017,1,21,19,0,Asia/Bangkok,28,83,21,69,54,0,0,,,,,10,6,1015,29.98,-999,-999,-9999,-9999,,,Scattered Clouds,partlycloudy,0,0,0,0,0,0,AAXX 21124 48380 32560 20000 10285 20206 30056 40150 52014 81105 333 10333 58018
10:00 PM +07 on January 21,2017,2017,1,21,22,0,Asia/Bangkok,25,77,21,70,72,0,0,,,,,10,6,1017,30.05,-999,-999,-9999,-9999,,,Scattered Clouds,partlycloudy,0,0,0,0,0,0,AAXX 21154 48380 32560 10000 10252 20209 30079 40174 52023 81141 333 58022
1:00 AM +07 on January 22,2017,2017,1,22,1,0,Asia/Bangkok,23,73,21,69,84,0,0,,,,,4,2,1018,30.06,-999,-999,-9999,-9999,,,Mist,hazy,0,0,0,0,0,0,AAXX 21184 48376 31940 20000 10230 20207 30029 40177 54000 71000 80005 333 58026
4:00 AM +07 on January 22,2017,2017,1,22,4,0,Asia/Bangkok,22,71,21,69,92,0,0,,,,,4,2,1017,30.04,-999,-999,-9999,-9999,,,Mist,hazy,0,0,0,0,0,0,AAXX 21214 48376 31940 20000 10218 20206 30025 40173 56004 71000 80005 333 58028
7:00 AM +07 on January 22,2017,2017,1,22,7,0,Asia/Bangkok,22,71,20,69,90,0,0,,,,,4,2,1019,30.09,-999,-999,-9999,-9999,,,Mist,hazy,0,0,0,0,0,0,AAXX 22004 48376 31540 70000 10216 20204 30041 40189 52016 71020 83576 333 20212 58024
10:00 AM +07 on January 22,2017,2017,1,22,10,0,Asia/Bangkok,26,79,20,69,63,0,0,,,,,6,4,1021,30.15,-999,-999,-9999,-9999,,,Mist,hazy,0,0,0,0,0,0,AAXX 22034 48376 31556 30000 10263 20203 30063 40209 52022 71010 82235 333 58021
1:00 PM +07 on January 22,2017,2017,1,22,13,0,Asia/Bangkok,30,85,19,66,44,0,0,,,,,6,4,1017,30.05,-999,-999,-9999,-9999,,,Haze,hazy,0,0,0,0,0,0,AAXX 22064 48376 31556 30000 10297 20191 30030 40174 57033 70510 82305 333 58012
4:00 PM +07 on January 22,2017,2017,1,22,16,0,Asia/Bangkok,31,88,18,64,35,7.4,4.6,,,60,ENE,5,3,1014,29.95,-999,-999,-9999,-9999,,,Haze,hazy,0,0,0,0,0,0,AAXX 22094 48376 31550 30604 10309 20180 39997 40140 57033 70500 82205 333 58005
7:00 PM +07 on January 22,2017,2017,1,22,19,0,Asia/Bangkok,26,80,19,67,56,0,0,,,,,5,3,1015,29.98,-999,-999,-9999,-9999,,,Mist,hazy,0,0,0,0,0,0,AAXX 22124 48376 31950 00000 10264 20194 30004 40150 51008 71000 333 10317 59002
10:00 PM +07 on January 22,2017,2017,1,22,22,0,Asia/Bangkok,23,73,20,67,77,0,0,,,,,5,3,1017,30.04,-999,-999,-9999,-9999,,,Mist,hazy,0,0,0,0,0,0,AAXX 22154 48376 31950 00000 10230 20196 30024 40171 52020 71000 333 59005
1:00 AM +07 on January 23,2017,2017,1,23,1,0,Asia/Bangkok,24,75,20,68,73,0,0,,,,,10,6,1017,30.05,-999,-999,-9999,-9999,,,Scattered Clouds,partlycloudy,0,0,0,0,0,0,AAXX 22184 48380 32560 20000 10240 20200 30079 40174 52005 82545 333 59005
4:00 AM +07 on January 23,2017,2017,1,23,4,0,Asia/Bangkok,23,73,20,68,78,0,0,,,,,10,6,1016,30.01,-999,-999,-9999,-9999,,,,,0,0,0,0,0,0,AAXX 22214 48380 32960 00000 10226 20198 30066 40162 57012 333 59009
7:00 AM +07 on January 23,2017,2017,1,23,7,0,Asia/Bangkok,21,69,19,66,88,0,0,,,,,10,6,1018,30.07,-999,-999,-9999,-9999,,,Overcast,cloudy,0,0,0,0,0,0,AAXX 23004 48380 32560 80000 10206 20190 30085 40181 52018 81107 333 20202 59007
10:00 AM +07 on January 23,2017,2017,1,23,10,0,Asia/Bangkok,26,79,16,62,45,3.7,2.3,,,150,SSE,10,6,1020,30.13,-999,-999,-9999,-9999,,,Scattered Clouds,partlycloudy,0,0,0,0,0,0,AAXX 23034 48380 32560 61502 10261 20164 30108 40203 51023 81101 333 59006
1:00 PM +07 on January 23,2017,2017,1,23,13,0,Asia/Bangkok,29,85,16,61,34,5.6,3.5,,,320,NW,10,6,1018,30.05,-999,-999,-9999,-9999,,,Scattered Clouds,partlycloudy,0,0,0,0,0,0,AAXX 23064 48380 32560 63203 10293 20159 30082 40175 57026 82101 333 58001
4:00 PM +07 on January 23,2017,2017,1,23,16,0,Asia/Bangkok,30,86,16,62,34,3.7,2.3,,,50,NE,10,6,1015,29.99,-999,-999,-9999,-9999,,,Scattered Clouds,partlycloudy,0,0,0,0,0,0,AAXX 23094 48380 32560 50502 10300 20164 30060 40153 57022 82101 333 58010
7:00 PM +07 on January 23,2017,2017,1,23,19,0,Asia/Bangkok,26,78,19,66,59,0,0,,,,,10,6,1016,30.01,-999,-999,-9999,-9999,,,,,0,0,0,0,0,0,AAXX 23124 48380 32960 00000 10257 20190 30067 40161 52007 333 10301 58012
10:00 PM +07 on January 23,2017,2017,1,23,22,0,Asia/Bangkok,23,73,19,66,72,0,0,,,,,10,6,1018,30.05,-999,-999,-9999,-9999,,,,,0,0,0,0,0,0,AAXX 23154 48380 32960 00000 10228 20188 30081 40176 52014 333 58008
1:00 AM +07 on January 25,2017,2017,1,25,1,0,Asia/Bangkok,19,67,17,63,83,0,0,,,,,5,3,1019,30.09,-999,-999,-9999,-9999,,,Mist,hazy,0,0,0,0,0,0,AAXX 24184 48376 31950 20000 10192 20172 30040 40189 56003 71000 80005 333 58009
4:00 AM +07 on January 25,2017,2017,1,25,4,0,Asia/Bangkok,18,64,17,62,91,0,0,,,,,5,3,1018,30.06,-999,-999,-9999,-9999,,,Mist,hazy,0,0,0,0,0,0,AAXX 24214 48376 31950 00000 10180 20167 30031 40180 56009 71000 333 58015
7:00 AM +07 on January 25,2017,2017,1,25,7,0,Asia/Bangkok,17,62,16,60,92,0,0,,,,,4,2,1019,30.1,-999,-999,-9999,-9999,,,Mist,hazy,0,0,0,0,0,0,AAXX 25004 48376 31940 20000 10169 20157 30043 40193 52012 71000 80005 333 20165 58013
10:00 AM +07 on January 25,2017,2017,1,25,10,0,Asia/Bangkok,25,77,18,64,56,7.4,4.6,,,270,West,7,4,1021,30.15,-999,-999,-9999,-9999,,,Mist,hazy,0,0,0,0,0,0,AAXX 25034 48376 31957 22704 10248 20178 30063 40210 52020 71000 80002 333 58004
1:00 PM +07 on January 25,2017,2017,1,25,13,0,Asia/Bangkok,30,86,16,61,32,7.4,4.6,,,80,East,6,4,1018,30.06,-999,-999,-9999,-9999,,,Haze,hazy,0,0,0,0,0,0,AAXX 25064 48376 31556 20804 10298 20160 30034 40178 57029 70500 81305 333 58005
4:00 PM +07 on January 25,2017,2017,1,25,16,0,Asia/Bangkok,31,88,16,61,30,5.6,3.5,,,90,East,7,4,1015,29.97,-999,-999,-9999,-9999,,,Haze,hazy,0,0,0,0,0,0,AAXX 25094 48376 31957 20903 10313 20159 30004 40147 57030 70500 80005 333 58002
7:00 PM +07 on January 25,2017,2017,1,25,19,0,Asia/Bangkok,26,79,19,66,55,0,0,,,,,6,4,1016,30.01,-999,-999,-9999,-9999,,,Mist,hazy,0,0,0,0,0,0,AAXX 25124 48376 31956 00000 10260 20188 30014 40160 52010 71000 333 10316 58000
10:00 PM +07 on January 25,2017,2017,1,25,22,0,Asia/Bangkok,22,72,19,65,74,0,0,,,,,5,3,1018,30.07,-999,-999,-9999,-9999,,,Mist,hazy,0,0,0,0,0,0,AAXX 25154 48376 31950 00000 10223 20186 30034 40181 52020 71000 333 59009
1:00 AM +07 on January 26,2017,2017,1,26,1,0,Asia/Bangkok,21,69,18,64,79,0,0,,,,,5,3,1018,30.08,-999,-999,-9999,-9999,,,Mist,hazy,0,0,0,0,0,0,AAXX 25184 48376 31950 30000 10207 20178 30035 40184 51001 71000 82035 333 59006
4:00 AM +07 on January 26,2017,2017,1,26,4,0,Asia/Bangkok,19,67,17,63,83,0,0,,,,,5,3,1017,30.04,-999,-999,-9999,-9999,,,Mist,hazy,0,0,0,0,0,0,AAXX 25214 48376 31950 00000 10193 20173 30022 40171 57013 71000 333 59010
7:00 AM +07 on January 26,2017,2017,1,26,7,0,Asia/Bangkok,19,66,17,63,87,3.7,2.3,,,200,SSW,5,3,1018,30.08,-999,-999,-9999,-9999,,,Mist,hazy,0,0,0,0,0,0,AAXX 26004 48376 31550 62002 10190 20172 30035 40184 52014 71020 83236 333 20184 59009
10:00 AM +07 on January 26,2017,2017,1,26,10,0,Asia/Bangkok,24,76,19,66,63,3.7,2.3,,,300,WNW,6,4,1020,30.14,-999,-999,-9999,-9999,,,Mist,hazy,0,0,0,0,0,0,AAXX 26034 48376 31556 63002 10242 20187 30058 40205 52023 71022 82236 333 59005
1:00 PM +07 on January 26,2017,2017,1,26,13,0,Asia/Bangkok,30,87,18,64,37,5.6,3.5,,,120,ESE,7,4,1017,30.04,-999,-999,-9999,-9999,,,Haze,hazy,0,0,0,0,0,0,AAXX 26064 48376 31557 51203 10305 20180 30027 40171 57030 70522 83206 333 59006
4:00 PM +07 on January 26,2017,2017,1,26,16,0,Asia/Bangkok,31,88,18,65,36,0,0,,,,,7,4,1014,29.94,-999,-999,-9999,-9999,,,Haze,hazy,0,0,0,0,0,0,AAXX 26094 48376 31557 50000 10310 20181 39996 40138 57032 70522 83206 333 59008
7:00 PM +07 on January 26,2017,2017,1,26,19,0,Asia/Bangkok,27,80,21,69,62,0,0,,,,,6,4,1014,29.96,-999,-999,-9999,-9999,,,Mist,hazy,0,0,0,0,0,0,AAXX 26124 48376 31956 20000 10268 20206 30000 40145 51005 71020 80005 333 10317 59015
10:00 PM +07 on January 26,2017,2017,1,26,22,0,Asia/Bangkok,23,74,19,66,71,0,0,,,,,5,3,1016,30.02,-999,-999,-9999,-9999,,,Mist,hazy,0,0,0,0,0,0,AAXX 26154 48376 31950 00000 10232 20191 30018 40165 52018 71000 333 59017
1:00 AM +07 on January 27,2017,2017,1,27,1,0,Asia/Bangkok,23,73,20,67,77,0,0,,,,,10,6,1016,30,-999,-999,-9999,-9999,,,Scattered Clouds,partlycloudy,0,0,0,0,0,0,AAXX 26184 48380 32960 20000 10227 20196 30062 40157 57004 82031 333 59022
4:00 AM +07 on January 27,2017,2017,1,27,4,0,Asia/Bangkok,22,71,19,67,82,0,0,,,,,10,6,1014,29.96,-999,-999,-9999,-9999,,,Scattered Clouds,partlycloudy,0,0,0,0,0,0,AAXX 26214 48380 32960 20000 10218 20193 30049 40145 57012 81031 333 59022
7:00 AM +07 on January 27,2017,2017,1,27,7,0,Asia/Bangkok,21,70,19,67,87,0,0,,,,,10,6,1016,30,-999,-999,-9999,-9999,,,Scattered Clouds,partlycloudy,0,0,0,0,0,0,AAXX 27004 48380 32560 60000 10213 20194 30063 40159 52014 82546 333 20208 59024
10:00 AM +07 on January 27,2017,2017,1,27,10,0,Asia/Bangkok,27,80,17,63,46,9.3,5.8,,,110,ESE,10,6,1018,30.06,-999,-999,-9999,-9999,,,Scattered Clouds,partlycloudy,0,0,0,0,0,0,AAXX 27034 48380 32560 11105 10268 20172 30084 40179 52022 81140 333 59022
1:00 PM +07 on January 27,2017,2017,1,27,13,0,Asia/Bangkok,30,86,18,64,39,7.4,4.6,,,180,South,12,7,1015,29.97,-999,-999,-9999,-9999,,,Scattered Clouds,partlycloudy,0,0,0,0,0,0,AAXX 27064 48380 32562 21804 10302 20180 30055 40148 57030 82145 333 59015
4:00 PM +07 on January 27,2017,2017,1,27,16,0,Asia/Bangkok,32,89,18,64,33,9.3,5.8,,,80,East,12,7,1012,29.89,-999,-999,-9999,-9999,,,Scattered Clouds,partlycloudy,0,0,0,0,0,0,AAXX 27094 48380 32562 20805 10318 20178 30030 40122 57025 82101 333 59018
7:00 PM +07 on January 27,2017,2017,1,27,19,0,Asia/Bangkok,28,83,20,67,50,3.7,2.3,,,10,North,10,6,1013,29.91,-999,-999,-9999,-9999,,,Scattered Clouds,partlycloudy,0,0,0,0,0,0,AAXX 27124 48380 32560 20102 10283 20196 30034 40128 52005 81145 333 10321 59020
10:00 PM +07 on January 27,2017,2017,1,27,22,0,Asia/Bangkok,24,76,20,68,71,0,0,,,,,10,6,1015,29.97,-999,-999,-9999,-9999,,,Scattered Clouds,partlycloudy,0,0,0,0,0,0,AAXX 27154 48380 32560 20000 10242 20202 30053 40148 52018 81545 333 59013
1:00 AM +07 on January 28,2017,2017,1,28,1,0,Asia/Bangkok,23,74,19,67,71,0,0,,,,,10,6,1015,29.98,-999,-999,-9999,-9999,,,Scattered Clouds,partlycloudy,0,0,0,0,0,0,AAXX 27184 48380 32560 20000 10233 20192 30055 40150 52002 81532 333 59007
4:00 AM +07 on January 28,2017,2017,1,28,4,0,Asia/Bangkok,22,71,18,65,76,1.9,1.2,,,210,SSW,10,6,1014,29.94,-999,-999,-9999,-9999,,,Scattered Clouds,partlycloudy,0,0,0,0,0,0,AAXX 27214 48380 32960 12101 10218 20184 30044 40139 57011 81041 333 59006
7:00 AM +07 on January 28,2017,2017,1,28,7,0,Asia/Bangkok,20,67,18,65,89,0,0,,,,,8,5,1014,29.96,-999,-999,-9999,-9999,,,Mist,hazy,0,0,0,0,0,0,AAXX 28004 48380 31958 10000 10197 20181 30047 40144 52004 71000 81041 333 20191 59015
10:00 AM +07 on January 28,2017,2017,1,28,10,0,Asia/Bangkok,27,81,17,63,44,7.4,4.6,,,130,SE,10,6,1017,30.03,-999,-999,-9999,-9999,,,,,0,0,0,0,0,0,AAXX 28034 48380 32960 01304 10271 20170 30073 40167 52025 333 59012
1:00 PM +07 on January 28,2017,2017,1,28,13,0,Asia/Bangkok,30,86,15,59,29,11.1,6.9,,,80,East,10,6,1014,29.94,-999,-999,-9999,-9999,,,,,0,0,0,0,0,0,AAXX 28064 48380 32960 00806 10302 20148 30043 40136 57030 333 59012
4:00 PM +07 on January 28,2017,2017,1,28,16,0,Asia/Bangkok,31,88,15,59,27,9.3,5.8,,,90,East,10,6,1011,29.85,-999,-999,-9999,-9999,,,,,0,0,0,0,0,0,AAXX 28094 48380 32960 00905 10312 20149 30013 40106 57029 333 59016
7:00 PM +07 on January 28,2017,2017,1,28,19,0,Asia/Bangkok,27,81,18,64,47,0,0,,,,,10,6,1011,29.87,-999,-999,-9999,-9999,,,,,0,0,0,0,0,0,AAXX 28124 48380 32960 00000 10274 20179 30021 40114 52007 333 10315 59013
10:00 PM +07 on January 28,2017,2017,1,28,22,0,Asia/Bangkok,23,74,18,65,66,0,0,,,,,10,6,1013,29.92,-999,-999,-9999,-9999,,,,,0,0,0,0,0,0,AAXX 28154 48380 32960 00000 10232 20183 30035 40130 52015 333 59018
1:00 AM +07 on January 29,2017,2017,1,29,1,0,Asia/Bangkok,21,69,19,65,85,0,0,,,,,4,2,1013,29.91,-999,-999,-9999,-9999,,,Mist,hazy,0,0,0,0,0,0,AAXX 28184 48376 31940 00000 10208 20186 39982 40129 56005 71000 333 59022
4:00 AM +07 on January 29,2017,2017,1,29,4,0,Asia/Bangkok,19,66,18,64,89,0,0,,,,,4,2,1012,29.9,-999,-999,-9999,-9999,,,Mist,hazy,0,0,0,0,0,0,AAXX 28214 48376 31940 00000 10191 20175 39974 40123 56007 71000 333 59028
7:00 AM +07 on January 29,2017,2017,1,29,7,0,Asia/Bangkok,18,65,17,62,89,0,0,,,,,4,2,1014,29.95,-999,-999,-9999,-9999,,,Mist,hazy,0,0,0,0,0,0,AAXX 29004 48376 31940 00000 10181 20169 39991 40140 52016 71000 333 20177 59012
10:00 AM +07 on January 29,2017,2017,1,29,10,0,Asia/Bangkok,24,76,18,65,60,0,0,,,,,5,3,1016,29.99,-999,-999,-9999,-9999,,,Mist,hazy,0,0,0,0,0,0,AAXX 29034 48376 31950 00000 10242 20182 30008 40155 52018 71000 333 59012
1:00 PM +07 on January 29,2017,2017,1,29,13,0,Asia/Bangkok,32,89,18,65,35,5.6,3.5,,,180,South,6,4,1012,29.9,-999,-999,-9999,-9999,,,Haze,hazy,0,0,0,0,0,0,AAXX 29064 48376 31556 21803 10316 20183 39981 40123 57028 70500 81205 333 59006
4:00 PM +07 on January 29,2017,2017,1,29,16,0,Asia/Bangkok,33,92,17,63,28,0,0,,,,,7,4,1010,29.81,-999,-999,-9999,-9999,,,Haze,hazy,0,0,0,0,0,0,AAXX 29094 48376 31557 20000 10331 20173 39953 40095 57027 70500 82205 333 59004
7:00 PM +07 on January 29,2017,2017,1,29,19,0,Asia/Bangkok,29,84,19,66,45,0,0,,,,,6,4,1011,29.86,-999,-999,-9999,-9999,,,Haze,hazy,0,0,0,0,0,0,AAXX 29124 48376 31556 60000 10287 20188 39967 40110 52013 70520 82536 333 10335 59001
10:00 PM +07 on January 29,2017,2017,1,29,22,0,Asia/Bangkok,25,76,19,66,65,0,0,,,,,6,4,1013,29.91,-999,-999,-9999,-9999,,,Mist,hazy,0,0,0,0,0,0,AAXX 29154 48376 31556 50000 10247 20191 39980 40126 52013 71022 82536 333 59008
1:00 AM +07 on January 30,2017,2017,1,30,1,0,Asia/Bangkok,22,72,19,66,75,0,0,,,,,5,3,1013,29.91,-999,-999,-9999,-9999,,,Mist,hazy,0,0,0,0,0,0,AAXX 29184 48376 31550 50000 10223 20188 39980 40127 54000 71022 81536 333 59002
4:00 AM +07 on January 30,2017,2017,1,30,4,0,Asia/Bangkok,20,68,18,65,87,0,0,,,,,4,2,1012,29.9,-999,-999,-9999,-9999,,,Mist,hazy,0,0,0,0,0,0,AAXX 29214 48376 31540 60000 10200 20184 39977 40125 56004 71022 82536 333 58002
7:00 AM +07 on January 30,2017,2017,1,30,7,0,Asia/Bangkok,19,66,18,64,89,0,0,,,,,4,2,1014,29.94,-999,-999,-9999,-9999,,,Mist,hazy,0,0,0,0,0,0,AAXX 30004 48376 31540 60000 10190 20175 39988 40137 52012 71022 82536 333 20186 59003
10:00 AM +07 on January 30,2017,2017,1,30,10,0,Asia/Bangkok,26,79,19,66,56,0,0,,,,,5,3,1016,30,-999,-999,-9999,-9999,,,Mist,hazy,0,0,0,0,0,0,AAXX 30034 48376 31950 00000 10260 20190 30012 40157 52023 71000 333 58002
1:00 PM +07 on January 30,2017,2017,1,30,13,0,Asia/Bangkok,32,89,19,66,37,5.6,3.5,,,90,East,5,3,1012,29.88,-999,-999,-9999,-9999,,,Haze,hazy,0,0,0,0,0,0,AAXX 30064 48376 31550 20903 10317 20190 39976 40118 57036 70500 82205 333 59005
4:00 PM +07 on January 30,2017,2017,1,30,16,0,Asia/Bangkok,32,90,18,64,32,3.7,2.3,,,200,SSW,6,4,1009,29.81,-999,-999,-9999,-9999,,,Haze,hazy,0,0,0,0,0,0,AAXX 30094 48376 31556 32002 10325 20177 39952 40093 57024 70500 82205 333 59001
7:00 PM +07 on January 30,2017,2017,1,30,19,0,Asia/Bangkok,28,82,20,68,53,0,0,,,,,5,3,1011,29.85,-999,-999,-9999,-9999,,,Haze,hazy,0,0,0,0,0,0,AAXX 30124 48376 31950 20000 10276 20198 39962 40107 52011 70500 80005 333 10328 59004
10:00 PM +07 on January 30,2017,2017,1,30,22,0,Asia/Bangkok,24,74,18,65,67,0,0,,,,,5,3,1012,29.9,-999,-999,-9999,-9999,,,Mist,hazy,0,0,0,0,0,0,AAXX 30154 48376 31950 20000 10235 20184 39978 40124 52015 71000 80005 333 59002
4:00 AM +07 on January 31,2017,2017,1,31,4,0,Asia/Bangkok,21,70,18,64,75,0,0,,,,,6,4,1011,29.87,-999,-999,-9999,-9999,,,Mist,hazy,0,0,0,0,0,0,AAXX 30214 48380 31956 00000 10213 20176 30018 40113 57008 71000 333 59007
7:00 AM +07 on January 31,2017,2017,1,31,7,0,Asia/Bangkok,19,67,17,63,84,0,0,,,,,6,4,1014,29.94,-999,-999,-9999,-9999,,,Mist,hazy,0,0,0,0,0,0,AAXX 31004 48380 31556 20000 10192 20174 30041 40137 52023 71000 81530 333 20192 59002
10:00 AM +07 on January 31,2017,2017,1,31,10,0,Asia/Bangkok,27,81,16,61,40,7.4,4.6,,,220,SW,8,5,1016,30,-999,-999,-9999,-9999,,,Haze,hazy,0,0,0,0,0,0,AAXX 31034 48380 31558 22204 10272 20160 30064 40158 52023 70500 81530 333 58001
1:00 PM +07 on January 31,2017,2017,1,31,13,0,Asia/Bangkok,30,87,15,59,29,9.3,5.8,,,90,East,8,5,1013,29.93,-999,-999,-9999,-9999,,,Haze,hazy,0,0,0,0,0,0,AAXX 31064 48380 31558 10905 10305 20150 30041 40134 57022 70500 81200 333 58012
4:00 PM +07 on January 31,2017,2017,1,31,16,0,Asia/Bangkok,31,88,14,58,26,11.1,6.9,,,110,ESE,9,6,1011,29.86,-999,-999,-9999,-9999,,,Haze,hazy,0,0,0,0,0,0,AAXX 31094 48380 31559 21106 10312 20145 30019 40112 57022 70500 82200 333 58016
7:00 PM +07 on January 31,2017,2017,1,31,19,0,Asia/Bangkok,26,80,18,64,50,0,0,,,,,8,5,1013,29.91,-999,-999,-9999,-9999,,,Haze,hazy,0,0,0,0,0,0,AAXX 31124 48380 31558 10000 10265 20180 30033 40126 52013 70500 81230 333 10322 58017
10:00 PM +07 on January 31,2017,2017,1,31,22,0,Asia/Bangkok,23,74,19,66,69,0,0,,,,,8,5,1014,29.95,-999,-999,-9999,-9999,,,Mist,hazy,0,0,0,0,0,0,AAXX 31154 48380 31958 00000 10232 20188 30045 40141 52013 71000 333 58021
1:00 AM +07 on February 02,2017,2017,2,2,1,0,Asia/Bangkok,20,69,18,64,80,0,0,,,,,5,3,1015,29.98,-999,-999,-9999,-9999,,,Mist,hazy,0,0,0,0,0,0,AAXX 01184 48376 31950 00000 10205 20179 30004 40152 56001 71000 333 58012
7:00 AM +07 on February 02,2017,2017,2,2,7,0,Asia/Bangkok,17,63,16,61,91,0,0,,,,,4,2,1016,30.01,-999,-999,-9999,-9999,,,Mist,hazy,0,0,0,0,0,0,AAXX 02004 48376 31940 20000 10171 20161 30011 40161 52015 71000 80005 333 20169 58005
10:00 AM +07 on February 02,2017,2017,2,2,10,0,Asia/Bangkok,25,77,18,64,55,5.6,3.5,,,270,West,6,4,1018,30.06,-999,-999,-9999,-9999,,,Haze,hazy,0,0,0,0,0,0,AAXX 02034 48376 31956 22703 10252 20177 30033 40179 52022 70500 81035 333 58008
1:00 PM +07 on February 02,2017,2017,2,2,13,0,Asia/Bangkok,32,89,17,62,31,5.6,3.5,,,50,NE,6,4,1014,29.96,-999,-999,-9999,-9999,,,Haze,hazy,0,0,0,0,0,0,AAXX 02064 48376 31556 20503 10315 20168 30001 40144 57032 70500 81205 333 58002
4:00 PM +07 on February 02,2017,2017,2,2,16,0,Asia/Bangkok,32,90,16,60,27,9.3,5.8,,,60,ENE,6,4,1012,29.87,-999,-999,-9999,-9999,,,Haze,hazy,0,0,0,0,0,0,AAXX 02094 48376 31556 10605 10325 20157 39973 40115 57028 70500 81200 333 59005
7:00 PM +07 on February 02,2017,2017,2,2,19,0,Asia/Bangkok,28,82,19,66,49,0,0,,,,,5,3,1013,29.91,-999,-999,-9999,-9999,,,Haze,hazy,0,0,0,0,0,0,AAXX 02124 48376 31950 20000 10280 20188 39982 40126 51009 70500 81035 333 10330 59024
10:00 PM +07 on February 02,2017,2017,2,2,22,0,Asia/Bangkok,24,76,20,68,69,0,0,,,,,5,3,1015,29.96,-999,-999,-9999,-9999,,,Mist,hazy,0,0,0,0,0,0,AAXX 02154 48376 31950 20000 10244 20198 30000 40146 52018 71000 82035 333 59006
1:00 AM +07 on February 01,2017,2017,2,1,1,0,Asia/Bangkok,21,69,18,64,79,0,0,,,,,6,4,1013,29.92,-999,-999,-9999,-9999,,,Mist,hazy,0,0,0,0,0,0,AAXX 31184 48380 31956 00000 10207 20178 30036 40132 57009 71000 333 58011
4:00 AM +07 on February 01,2017,2017,2,1,4,0,Asia/Bangkok,20,69,18,64,78,1.9,1.2,,,240,WSW,6,4,1013,29.93,-999,-999,-9999,-9999,,,Mist,hazy,0,0,0,0,0,0,AAXX 31214 48380 31956 02401 10205 20176 30038 40134 53002 71000 333 58021
7:00 AM +07 on February 01,2017,2017,2,1,7,0,Asia/Bangkok,19,66,17,63,86,1.9,1.2,,,320,NW,6,4,1015,29.98,-999,-999,-9999,-9999,,,Mist,hazy,0,0,0,0,0,0,AAXX 01004 48380 31956 13201 10188 20171 30055 40151 52017 71000 80001 333 20188 58014
10:00 AM +07 on February 01,2017,2017,2,1,10,0,Asia/Bangkok,27,80,18,64,48,5.6,3.5,,,330,NNW,6,4,1017,30.03,-999,-999,-9999,-9999,,,Haze,hazy,0,0,0,0,0,0,AAXX 01034 48380 31956 03303 10267 20177 30075 40169 52020 70500 333 58011
1:00 PM +07 on February 01,2017,2017,2,1,13,0,Asia/Bangkok,31,87,15,60,30,3.7,2.3,,,30,NNE,8,5,1014,29.96,-999,-999,-9999,-9999,,,Haze,hazy,0,0,0,0,0,0,AAXX 01064 48380 31558 10302 10308 20154 30051 40144 57024 70500 81200 333 58010
4:00 PM +07 on February 01,2017,2017,2,1,16,0,Asia/Bangkok,33,91,15,60,25,5.6,3.5,,,70,ENE,9,6,1012,29.9,-999,-999,-9999,-9999,,,Haze,hazy,0,0,0,0,0,0,AAXX 01094 48380 31559 10703 10330 20153 30033 40124 57019 70500 81200 333 58013
7:00 PM +07 on February 01,2017,2017,2,1,19,0,Asia/Bangkok,28,83,18,64,44,0,0,,,,,6,4,1013,29.93,-999,-999,-9999,-9999,,,Haze,hazy,0,0,0,0,0,0,AAXX 01124 48380 31956 10000 10282 20180 30040 40134 52008 70500 80001 333 10332 58007
10:00 PM +07 on February 01,2017,2017,2,1,22,0,Asia/Bangkok,24,75,18,64,62,0,0,,,,,6,4,1015,29.97,-999,-999,-9999,-9999,,,Mist,hazy,0,0,0,0,0,0,AAXX 01154 48380 31956 00000 10237 20180 30054 40149 52014 71000 333 58009
1:00 AM +07 on February 03,2017,2017,2,3,1,0,Asia/Bangkok,22,72,19,66,77,0,0,,,,,5,3,1014,29.95,-999,-999,-9999,-9999,,,Mist,hazy,0,0,0,0,0,0,AAXX 02184 48376 31950 20000 10222 20190 39995 40142 56005 71000 81035 333 59010
4:00 AM +07 on February 03,2017,2017,2,3,4,0,Asia/Bangkok,21,70,19,66,83,0,0,,,,,4,2,1014,29.95,-999,-999,-9999,-9999,,,Mist,hazy,0,0,0,0,0,0,AAXX 02214 48376 31940 20000 10213 20189 39993 40141 56001 71000 80005 333 59004
7:00 AM +07 on February 03,2017,2017,2,3,7,0,Asia/Bangkok,20,69,18,65,84,0,0,,,,,4,2,1015,29.98,-999,-999,-9999,-9999,,,Mist,hazy,0,0,0,0,0,0,AAXX 03004 48376 31940 00000 10205 20184 30003 40151 52010 71000 333 20202 59010
10:00 AM +07 on February 03,2017,2017,2,3,10,0,Asia/Bangkok,27,80,19,65,52,0,0,,,,,6,4,1016,30.01,-999,-999,-9999,-9999,,,Haze,hazy,0,0,0,0,0,0,AAXX 03034 48376 31956 00000 10267 20186 30017 40162 52014 70500 333 59017
1:00 PM +07 on February 03,2017,2017,2,3,13,0,Asia/Bangkok,32,90,19,67,36,5.6,3.5,,,200,SSW,6,4,1012,29.9,-999,-999,-9999,-9999,,,Haze,hazy,0,0,0,0,0,0,AAXX 03064 48376 31556 22003 10324 20193 39982 40124 57035 70500 82205 333 59020
4:00 PM +07 on February 03,2017,2017,2,3,16,0,Asia/Bangkok,32,90,18,65,34,9.3,5.8,,,90,East,6,4,1010,29.81,-999,-999,-9999,-9999,,,Haze,hazy,0,0,0,0,0,0,AAXX 03094 48376 31556 20905 10324 20184 39954 40095 57028 70500 82205 333 59020
7:00 PM +07 on February 03,2017,2017,2,3,19,0,Asia/Bangkok,29,84,20,69,51,0,0,,,,,6,4,1011,29.86,-999,-999,-9999,-9999,,,Haze,hazy,0,0,0,0,0,0,AAXX 03124 48376 31956 00000 10288 20203 39966 40109 52012 70500 333 10334 59017
10:00 PM +07 on February 03,2017,2017,2,3,22,0,Asia/Bangkok,25,77,20,69,68,0,0,,,,,5,3,1013,29.92,-999,-999,-9999,-9999,,,Mist,hazy,0,0,0,0,0,0,AAXX 03154 48376 31950 00000 10252 20203 39987 40132 52021 71000 333 59014
1:00 AM +07 on February 04,2017,2017,2,4,1,0,Asia/Bangkok,24,75,20,69,75,0,0,,,,,6,4,1013,29.91,-999,-999,-9999,-9999,,,Mist,hazy,0,0,0,0,0,0,AAXX 03184 48380 31956 00000 10240 20203 30032 40127 57002 71000 333 59014
4:00 AM +07 on February 04,2017,2017,2,4,4,0,Asia/Bangkok,22,72,21,69,88,0,0,,,,,6,4,1012,29.89,-999,-999,-9999,-9999,,,Mist,hazy,0,0,0,0,0,0,AAXX 03214 48380 31956 00000 10223 20206 30025 40121 57007 71000 333 59016
7:00 AM +07 on February 04,2017,2017,2,4,7,0,Asia/Bangkok,21,70,20,67,88,0,0,,,,,6,4,1014,29.94,-999,-999,-9999,-9999,,,Mist,hazy,0,0,0,0,0,0,AAXX 04004 48380 31956 00000 10209 20195 30040 40136 52015 71000 333 20204 59013
10:00 AM +07 on February 04,2017,2017,2,4,10,0,Asia/Bangkok,28,82,20,68,55,3.7,2.3,,,30,NNE,7,4,1015,29.98,-999,-999,-9999,-9999,,,Haze,hazy,0,0,0,0,0,0,AAXX 04034 48380 31957 00302 10277 20202 30058 40151 51017 70500 333 59008
1:00 PM +07 on February 04,2017,2017,2,4,13,0,Asia/Bangkok,32,90,19,67,36,3.7,2.3,,,20,NNE,7,4,1012,29.88,-999,-999,-9999,-9999,,,Haze,hazy,0,0,0,0,0,0,AAXX 04064 48380 31557 20202 10322 20193 30025 40118 57032 70500 82100 333 59010
4:00 PM +07 on February 04,2017,2017,2,4,16,0,Asia/Bangkok,34,93,16,60,23,3.7,2.3,,,300,WNW,7,4,1009,29.8,-999,-999,-9999,-9999,,,Haze,hazy,0,0,0,0,0,0,AAXX 04094 48380 31557 23002 10340 20155 39998 40089 57027 70500 82100 333 59013
7:00 PM +07 on February 04,2017,2017,2,4,19,0,Asia/Bangkok,29,85,20,67,46,0,0,,,,,6,4,1010,29.84,-999,-999,-9999,-9999,,,Haze,hazy,0,0,0,0,0,0,AAXX 04124 48380 31956 00000 10293 20195 30011 40104 52013 70500 333 10343 59009
10:00 PM +07 on February 04,2017,2017,2,4,22,0,Asia/Bangkok,25,77,20,67,64,0,0,,,,,6,4,1012,29.88,-999,-999,-9999,-9999,,,Mist,hazy,0,0,0,0,0,0,AAXX 04154 48380 31956 00000 10248 20195 30022 40116 52010 71000 333 59013
1:00 AM +07 on February 05,2017,2017,2,5,1,0,Asia/Bangkok,22,72,20,68,84,0,0,,,,,4,2,1012,29.89,-999,-999,-9999,-9999,,,Mist,hazy,0,0,0,0,0,0,AAXX 04184 48376 31940 20000 10221 20201 39975 40122 56003 71000 80005 333 59008
4:00 AM +07 on February 05,2017,2017,2,5,4,0,Asia/Bangkok,21,70,16,61,65,5.6,3.5,,,270,West,4,2,1011,29.86,-999,-999,-9999,-9999,,,Mist,hazy,0,0,0,0,0,0,AAXX 04214 48376 31940 02703 10210 20160 39963 40111 57012 71000 333 59013
7:00 AM +07 on February 05,2017,2017,2,5,7,0,Asia/Bangkok,19,66,16,61,78,0,0,,,,,4,2,1013,29.92,-999,-999,-9999,-9999,,,Mist,hazy,0,0,0,0,0,0,AAXX 05004 48376 31940 00000 10190 20160 39984 40132 52021 71000 333 20186 59008
10:00 AM +07 on February 05,2017,2017,2,5,10,0,Asia/Bangkok,27,80,15,60,40,7.4,4.6,,,300,WNW,6,4,1015,29.97,-999,-999,-9999,-9999,,,Haze,hazy,0,0,0,0,0,0,AAXX 05034 48376 31956 03004 10267 20154 30003 40148 52019 70500 333 59006
1:00 PM +07 on February 05,2017,2017,2,5,13,0,Asia/Bangkok,33,91,14,56,21,5.6,3.5,,,110,ESE,6,4,1011,29.86,-999,-999,-9999,-9999,,,Haze,hazy,0,0,0,0,0,0,AAXX 05064 48376 31956 01103 10330 20135 39970 40112 57033 70500 333 59008
4:00 PM +07 on February 05,2017,2017,2,5,16,0,Asia/Bangkok,34,94,14,58,21,5.6,3.5,,,220,SW,6,4,1010,29.84,-999,-999,-9999,-9999,,,Haze,hazy,0,0,0,0,0,0,AAXX 05094 48376 31956 02203 10344 20145 39963 40104 57007 70500 333 58017
7:00 PM +07 on February 05,2017,2017,2,5,19,0,Asia/Bangkok,28,83,19,65,46,0,0,,,,,5,3,1009,29.81,-999,-999,-9999,-9999,,,Haze,hazy,0,0,0,0,0,0,AAXX 05124 48376 31950 00000 10281 20186 39950 40094 51007 70500 333 10346 59007
10:00 PM +07 on February 05,2017,2017,2,5,22,0,Asia/Bangkok,23,74,17,63,61,0,0,,,,,5,3,1011,29.86,-999,-999,-9999,-9999,,,Mist,hazy,0,0,0,0,0,0,AAXX 05154 48376 31950 00000 10233 20173 39965 40112 52015 71000 333 59012
1:00 AM +07 on February 06,2017,2017,2,6,1,0,Asia/Bangkok,21,69,17,63,76,0,0,,,,,5,3,1011,29.86,-999,-999,-9999,-9999,,,Mist,hazy,0,0,0,0,0,0,AAXX 05184 48376 31950 00000 10208 20172 39964 40111 56002 71000 333 59011
4:00 AM +07 on February 06,2017,2017,2,6,4,0,Asia/Bangkok,18,65,17,62,86,0,0,,,,,4,2,1010,29.83,-999,-999,-9999,-9999,,,Mist,hazy,0,0,0,0,0,0,AAXX 05214 48376 31940 00000 10183 20166 39950 40099 57014 71000 333 59012
7:00 AM +07 on February 06,2017,2017,2,6,7,0,Asia/Bangkok,17,63,15,60,85,0,0,,,,,4,2,1012,29.88,-999,-999,-9999,-9999,,,Mist,hazy,0,0,0,0,0,0,AAXX 06004 48376 31940 00000 10171 20154 39967 40117 52017 71000 333 20166 59016
10:00 AM +07 on February 06,2017,2017,2,6,10,0,Asia/Bangkok,26,79,16,62,45,5.6,3.5,,,280,West,7,4,1013,29.93,-999,-999,-9999,-9999,,,Haze,hazy,0,0,0,0,0,0,AAXX 06034 48376 31957 02803 10260 20164 39988 40133 52021 70500 333 59015
1:00 PM +07 on February 06,2017,2017,2,6,13,0,Asia/Bangkok,34,92,13,55,20,13,8.1,,,260,West,6,4,1010,29.83,-999,-999,-9999,-9999,,,Haze,hazy,0,0,0,0,0,0,AAXX 06064 48376 31956 02607 10336 20130 39960 40101 57028 70500 333 59010
4:00 PM +07 on February 06,2017,2017,2,6,16,0,Asia/Bangkok,34,93,14,57,20,7.4,4.6,,,240,WSW,5,3,1007,29.75,-999,-999,-9999,-9999,,,Haze,hazy,0,0,0,0,0,0,AAXX 06094 48376 31950 02404 10340 20139 39933 40074 57027 70500 333 59010
7:00 PM +07 on February 06,2017,2017,2,6,19,0,Asia/Bangkok,30,86,13,56,25,14.8,9.2,,,260,West,5,3,1008,29.78,-999,-999,-9999,-9999,,,Haze,hazy,0,0,0,0,0,0,AAXX 06124 48376 31950 02608 10300 20132 39940 40082 51007 70500 333 10344 59011
10:00 PM +07 on February 06,2017,2017,2,6,22,0,Asia/Bangkok,28,82,15,59,35,9.3,5.8,,,270,West,5,3,1010,29.84,-999,-999,-9999,-9999,,,Haze,hazy,0,0,0,0,0,0,AAXX 06154 48376 31950 02705 10278 20149 39960 40104 52020 70500 333 59008
1:00 AM +07 on February 07,2017,2017,2,7,1,0,Asia/Bangkok,26,80,13,56,32,9.3,5.8,,,290,WNW,5,3,1011,29.85,-999,-999,-9999,-9999,,,Haze,hazy,0,0,0,0,0,0,AAXX 06184 48376 31950 02905 10264 20131 39964 40108 51004 70500 333 59003
4:00 AM +07 on February 07,2017,2017,2,7,4,0,Asia/Bangkok,25,78,12,54,33,11.1,6.9,,,270,West,5,3,1009,29.81,-999,-999,-9999,-9999,,,Haze,hazy,0,0,0,0,0,0,AAXX 06214 48376 31950 02706 10253 20122 39947 40092 57017 70500 333 59007
7:00 AM +07 on February 07,2017,2017,2,7,7,0,Asia/Bangkok,21,69,15,59,62,0,0,,,,,6,4,1011,29.86,-999,-999,-9999,-9999,,,Mist,hazy,0,0,0,0,0,0,AAXX 07004 48376 31956 00000 10207 20149 39961 40109 52014 71000 333 20206 59008
10:00 AM +07 on February 07,2017,2017,2,7,10,0,Asia/Bangkok,28,82,16,60,37,9.3,5.8,,,310,NW,8,5,1012,29.9,-999,-999,-9999,-9999,,,Haze,hazy,0,0,0,0,0,0,AAXX 07034 48376 31958 03105 10279 20157 39981 40125 52020 70500 333 59008
1:00 PM +07 on February 07,2017,2017,2,7,13,0,Asia/Bangkok,32,90,10,51,17,11.1,6.9,,,260,West,8,5,1010,29.83,-999,-999,-9999,-9999,,,Haze,hazy,0,0,0,0,0,0,AAXX 07064 48376 31958 02606 10323 20104 39957 40099 57024 70500 333 59003
4:00 PM +07 on February 07,2017,2017,2,7,16,0,Asia/Bangkok,33,92,12,54,18,14.8,9.2,,,270,West,6,4,1008,29.76,-999,-999,-9999,-9999,,,Haze,hazy,0,0,0,0,0,0,AAXX 07094 48376 31956 02708 10333 20121 39936 40077 57021 70500 333 58003
7:00 PM +07 on February 07,2017,2017,2,7,19,0,Asia/Bangkok,29,84,12,54,25,13,8.1,,,270,West,6,4,1009,29.8,-999,-999,-9999,-9999,,,Haze,hazy,0,0,0,0,0,0,AAXX 07124 48376 31956 02707 10290 20122 39948 40091 52012 70500 333 10343 58009
10:00 PM +07 on February 07,2017,2017,2,7,22,0,Asia/Bangkok,27,80,13,55,32,14.8,9.2,,,260,West,5,3,1011,29.85,-999,-999,-9999,-9999,,,Haze,hazy,0,0,0,0,0,0,AAXX 07154 48376 31950 02608 10268 20130 39963 40108 52016 70500 333 58004
1:00 AM +07 on February 08,2017,2017,2,8,1,0,Asia/Bangkok,25,77,12,53,33,9.3,5.8,,,270,West,5,3,1010,29.83,-999,-999,-9999,-9999,,,Haze,hazy,0,0,0,0,0,0,AAXX 07184 48376 31950 02705 10252 20117 39956 40101 56007 70500 333 59007
4:00 AM +07 on February 08,2017,2017,2,8,4,0,Asia/Bangkok,22,71,14,57,52,0,0,,,,,5,3,1010,29.83,-999,-999,-9999,-9999,,,Haze,hazy,0,0,0,0,0,0,AAXX 07214 48376 31950 00000 10218 20139 39953 40100 56003 70500 333 58008
7:00 AM +07 on February 08,2017,2017,2,8,7,0,Asia/Bangkok,17,63,13,56,70,0,0,,,,,6,4,1012,29.89,-999,-999,-9999,-9999,,,Mist,hazy,0,0,0,0,0,0,AAXX 08004 48376 31956 00000 10173 20132 39971 40121 52018 71000 333 20171 58012
10:00 AM +07 on February 08,2017,2017,2,8,10,0,Asia/Bangkok,27,80,13,55,32,9.3,5.8,,,330,NNW,8,5,1014,29.95,-999,-999,-9999,-9999,,,Haze,hazy,0,0,0,0,0,0,AAXX 08034 48376 31958 03305 10268 20130 39995 40140 52024 70500 333 58015
1:00 PM +07 on February 08,2017,2017,2,8,13,0,Asia/Bangkok,32,90,12,53,19,5.6,3.5,,,50,NE,8,5,1011,29.86,-999,-999,-9999,-9999,,,Haze,hazy,0,0,0,0,0,0,AAXX 08064 48376 31958 00503 10323 20117 39969 40111 57026 70500 333 58013
4:00 PM +07 on February 08,2017,2017,2,8,16,0,Asia/Bangkok,35,95,11,52,15,5.6,3.5,,,350,North,7,4,1008,29.76,-999,-999,-9999,-9999,,,Haze,hazy,0,0,0,0,0,0,AAXX 08094 48376 31957 03503 10348 20112 39938 40078 57032 70500 333 58002
7:00 PM +07 on February 08,2017,2017,2,8,19,0,Asia/Bangkok,30,85,13,55,25,7.4,4.6,,,260,West,7,4,1009,29.8,-999,-999,-9999,-9999,,,Haze,hazy,0,0,0,0,0,0,AAXX 08124 48376 31957 02604 10295 20127 39947 40090 51009 70500 333 10351 59002
10:00 PM +07 on February 08,2017,2017,2,8,22,0,Asia/Bangkok,23,74,15,58,49,3.7,2.3,,,150,SSE,6,4,1012,29.88,-999,-999,-9999,-9999,,,Haze,hazy,0,0,0,0,0,0,AAXX 08154 48376 31956 01502 10233 20147 39970 40117 52024 70500 333 58009
1:00 AM +07 on February 09,2017,2017,2,9,1,0,Asia/Bangkok,21,70,16,61,66,0,0,,,,,5,3,1011,29.86,-999,-999,-9999,-9999,,,Mist,hazy,0,0,0,0,0,0,AAXX 08184 48376 31950 00000 10209 20161 39964 40111 56007 71000 333 58010
4:00 AM +07 on February 09,2017,2017,2,9,4,0,Asia/Bangkok,18,64,16,61,86,0,0,,,,,5,3,1011,29.85,-999,-999,-9999,-9999,,,Mist,hazy,0,0,0,0,0,0,AAXX 08214 48376 31950 00000 10177 20160 39958 40107 56006 71000 333 58007
7:00 AM +07 on February 09,2017,2017,2,9,7,0,Asia/Bangkok,17,63,14,57,74,0,0,,,,,6,4,1012,29.88,-999,-999,-9999,-9999,,,Mist,hazy,0,0,0,0,0,0,AAXX 09004 48376 31956 00000 10172 20138 39970 40119 52013 71000 333 20168 59001
10:00 AM +07 on February 09,2017,2017,2,9,10,0,Asia/Bangkok,25,78,16,60,45,5.6,3.5,,,300,WNW,7,4,1014,29.94,-999,-999,-9999,-9999,,,Haze,hazy,0,0,0,0,0,0,AAXX 09034 48376 31957 03003 10253 20158 39993 40139 52023 70500 333 59001
1:00 PM +07 on February 09,2017,2017,2,9,13,0,Asia/Bangkok,32,90,15,59,25,7.4,4.6,,,280,West,6,4,1011,29.86,-999,-999,-9999,-9999,,,Haze,hazy,0,0,0,0,0,0,AAXX 09064 48376 31956 02804 10323 20148 39968 40110 57025 70500 333 59001
4:00 PM +07 on February 09,2017,2017,2,9,16,0,Asia/Bangkok,34,93,14,57,21,5.6,3.5,,,120,ESE,6,4,1008,29.76,-999,-999,-9999,-9999,,,Haze,hazy,0,0,0,0,0,0,AAXX 09094 48376 31956 01203 10341 20140 39938 40078 57031 70500 333 58000
7:00 PM +07 on February 09,2017,2017,2,9,19,0,Asia/Bangkok,28,83,18,65,45,0,0,,,,,6,4,1009,29.81,-999,-999,-9999,-9999,,,Haze,hazy,0,0,0,0,0,0,AAXX 09124 48376 31956 00000 10285 20184 39948 40092 52011 70500 333 10344 58002
10:00 PM +07 on February 09,2017,2017,2,9,22,0,Asia/Bangkok,24,76,18,64,59,0,0,,,,,5,3,1012,29.88,-999,-999,-9999,-9999,,,Mist,hazy,0,0,0,0,0,0,AAXX 09154 48376 31950 00000 10242 20180 39970 40116 52022 71000 333 58000
1:00 AM +07 on February 10,2017,2017,2,10,1,0,Asia/Bangkok,22,71,17,63,70,0,0,,,,,5,3,1012,29.88,-999,-999,-9999,-9999,,,Mist,hazy,0,0,0,0,0,0,AAXX 09184 48376 31950 20000 10216 20174 39970 40117 54000 71000 82035 333 58006
4:00 AM +07 on February 10,2017,2017,2,10,4,0,Asia/Bangkok,20,69,17,62,74,0,0,,,,,5,3,1011,29.86,-999,-999,-9999,-9999,,,Mist,hazy,0,0,0,0,0,0,AAXX 09214 48376 31550 20000 10205 20169 39964 40111 56006 71000 82505 333 58005
7:00 AM +07 on February 10,2017,2017,2,10,7,0,Asia/Bangkok,20,67,17,63,84,0,0,,,,,5,3,1013,29.92,-999,-999,-9999,-9999,,,Mist,hazy,0,0,0,0,0,0,AAXX 10004 48376 31550 20000 10197 20174 39982 40130 52018 71000 82205 333 20195 58011
10:00 AM +07 on February 10,2017,2017,2,10,10,0,Asia/Bangkok,26,79,17,62,47,0,0,,,,,5,3,1015,29.98,-999,-999,-9999,-9999,,,Haze,hazy,0,0,0,0,0,0,AAXX 10034 48376 31550 20000 10260 20168 30004 40150 52022 70500 81105 333 58011
1:00 PM +07 on February 10,2017,2017,2,10,13,0,Asia/Bangkok,32,90,18,65,34,9.3,5.8,,,190,South,5,3,1012,29.88,-999,-999,-9999,-9999,,,Haze,hazy,0,0,0,0,0,0,AAXX 10064 48376 31550 21905 10325 20185 39977 40119 57028 70500 81205 333 58009
4:00 PM +07 on February 10,2017,2017,2,10,16,0,Asia/Bangkok,34,94,17,63,26,5.6,3.5,,,200,SSW,5,3,1009,29.8,-999,-999,-9999,-9999,,,Haze,hazy,0,0,0,0,0,0,AAXX 10094 48376 31550 22003 10342 20174 39949 40090 57028 70500 82205 333 58011
7:00 PM +07 on February 10,2017,2017,2,10,19,0,Asia/Bangkok,29,85,20,68,47,0,0,,,,,5,3,1010,29.84,-999,-999,-9999,-9999,,,Haze,hazy,0,0,0,0,0,0,AAXX 10124 48376 31950 00000 10293 20200 39961 40104 52012 70500 333 10345 58013
10:00 PM +07 on February 10,2017,2017,2,10,22,0,Asia/Bangkok,26,78,21,69,68,0,0,,,,,4,2,1013,29.92,-999,-999,-9999,-9999,,,Mist,hazy,0,0,0,0,0,0,AAXX 10154 48376 31940 00000 10257 20207 39986 40131 52025 71000 333 58015
1:00 AM +07 on February 11,2017,2017,2,11,1,0,Asia/Bangkok,23,74,20,67,74,0,0,,,,,4,2,1013,29.93,-999,-999,-9999,-9999,,,Mist,hazy,0,0,0,0,0,0,AAXX 10184 48380 31940 00000 10232 20196 30039 40134 52003 71000 333 58020
4:00 AM +07 on February 11,2017,2017,2,11,4,0,Asia/Bangkok,22,71,19,66,81,0,0,,,,,4,2,1014,29.93,-999,-999,-9999,-9999,,,Mist,hazy,0,0,0,0,0,0,AAXX 10214 48380 31940 00000 10215 20191 30040 40135 54000 71000 333 58025
7:00 AM +07 on February 11,2017,2017,2,11,7,0,Asia/Bangkok,21,69,18,65,84,0,0,,,,,3,2,1016,29.99,-999,-999,-9999,-9999,,,Mist,hazy,0,0,0,0,0,0,AAXX 11004 48380 31930 00000 10208 20184 30060 40156 52021 71000 333 20202 58027
10:00 AM +07 on February 11,2017,2017,2,11,10,0,Asia/Bangkok,29,84,16,61,36,9.3,5.8,,,60,ENE,6,4,1018,30.06,-999,-999,-9999,-9999,,,Haze,hazy,0,0,0,0,0,0,AAXX 11034 48380 31956 00605 10288 20163 30085 40179 52025 70500 333 58028
1:00 PM +07 on February 11,2017,2017,2,11,13,0,Asia/Bangkok,30,86,17,62,35,3.7,2.3,,,130,SE,6,4,1016,30.01,-999,-999,-9999,-9999,,,Haze,hazy,0,0,0,0,0,0,AAXX 11064 48380 31956 01302 10301 20169 30068 40161 57017 70500 333 58038
4:00 PM +07 on February 11,2017,2017,2,11,16,0,Asia/Bangkok,31,88,17,62,32,3.7,2.3,,,170,South,6,4,1014,29.93,-999,-999,-9999,-9999,,,Haze,hazy,0,0,0,0,0,0,AAXX 11094 48380 31956 01702 10312 20166 30042 40135 57026 70500 333 58036
7:00 PM +07 on February 11,2017,2017,2,11,19,0,Asia/Bangkok,27,81,18,64,46,0,0,,,,,4,2,1015,29.97,-999,-999,-9999,-9999,,,Haze,hazy,0,0,0,0,0,0,AAXX 11124 48380 31940 00000 10270 20175 30055 40149 52013 70500 333 10317 58043
10:00 PM +07 on February 11,2017,2017,2,11,22,0,Asia/Bangkok,24,75,18,64,61,3.7,2.3,,,240,WSW,4,2,1016,30.02,-999,-999,-9999,-9999,,,Mist,hazy,0,0,0,0,0,0,AAXX 11154 48380 31940 02402 10240 20179 30069 40164 52014 71000 333 58034
1:00 AM +07 on February 12,2017,2017,2,12,1,0,Asia/Bangkok,21,70,18,64,77,0,0,,,,,4,2,1017,30.04,-999,-999,-9999,-9999,,,Mist,hazy,0,0,0,0,0,0,AAXX 11184 48376 31940 00000 10211 20180 30022 40171 51004 71000 333 58035
4:00 AM +07 on February 12,2017,2017,2,12,4,0,Asia/Bangkok,20,68,17,62,76,0,0,,,,,4,2,1017,30.04,-999,-999,-9999,-9999,,,Mist,hazy,0,0,0,0,0,0,AAXX 11214 48376 31940 00000 10199 20168 30022 40171 54000 71000 333 58035
7:00 AM +07 on February 12,2017,2017,2,12,7,0,Asia/Bangkok,19,66,16,62,81,0,0,,,,,4,2,1019,30.09,-999,-999,-9999,-9999,,,Mist,hazy,0,0,0,0,0,0,AAXX 12004 48376 31940 00000 10187 20164 30040 40190 52018 71000 333 20184 58032
10:00 AM +07 on February 12,2017,2017,2,12,10,0,Asia/Bangkok,26,78,16,61,46,7.4,4.6,,,180,South,5,3,1021,30.15,-999,-999,-9999,-9999,,,Haze,hazy,0,0,0,0,0,0,AAXX 12034 48376 31950 01804 10257 20161 30063 40210 52024 70500 333 58035
1:00 PM +07 on February 12,2017,2017,2,12,13,0,Asia/Bangkok,29,84,15,59,33,9.3,5.8,,,50,NE,5,3,1018,30.07,-999,-999,-9999,-9999,,,Haze,hazy,0,0,0,0,0,0,AAXX 12064 48376 31950 00505 10289 20152 30036 40181 57027 70500 333 58030
4:00 PM +07 on February 12,2017,2017,2,12,16,0,Asia/Bangkok,30,86,16,61,32,5.6,3.5,,,160,SSE,5,3,1015,29.99,-999,-999,-9999,-9999,,,Haze,hazy,0,0,0,0,0,0,AAXX 12094 48376 31950 01603 10302 20159 30010 40153 57026 70500 333 58028
7:00 PM +07 on February 12,2017,2017,2,12,19,0,Asia/Bangkok,26,78,17,63,51,0,0,,,,,5,3,1017,30.03,-999,-999,-9999,-9999,,,Haze,hazy,0,0,0,0,0,0,AAXX 12124 48376 31950 00000 10257 20174 30021 40167 52011 70500 333 10307 58024
10:00 PM +07 on February 12,2017,2017,2,12,22,0,Asia/Bangkok,22,72,17,63,65,0,0,,,,,4,2,1018,30.08,-999,-999,-9999,-9999,,,Mist,hazy,0,0,0,0,0,0,AAXX 12154 48376 31940 00000 10222 20170 30038 40185 52016 71000 333 58020
1:00 AM +07 on February 13,2017,2017,2,13,1,0,Asia/Bangkok,22,72,16,61,60,7.4,4.6,,,160,SSE,8,5,1019,30.1,-999,-999,-9999,-9999,,,Mist,hazy,0,0,0,0,0,0,AAXX 12184 48380 31958 01604 10225 20162 30097 40193 53007 71000 333 58022
4:00 AM +07 on February 13,2017,2017,2,13,4,0,Asia/Bangkok,19,65,16,62,85,1.9,1.2,,,320,NW,6,4,1019,30.1,-999,-999,-9999,-9999,,,Mist,hazy,0,0,0,0,0,0,AAXX 12214 48380 31956 03201 10186 20164 30096 40193 56001 71000 333 58023
7:00 AM +07 on February 13,2017,2017,2,13,7,0,Asia/Bangkok,18,64,16,61,85,0,0,,,,,3,2,1020,30.14,-999,-999,-9999,-9999,,,Mist,hazy,0,0,0,0,0,0,AAXX 13004 48380 31930 00000 10176 20159 30108 40205 52011 71000 333 20176 58015
10:00 AM +07 on February 13,2017,2017,2,13,10,0,Asia/Bangkok,26,78,14,56,37,7.4,4.6,,,130,SE,6,4,1022,30.19,-999,-999,-9999,-9999,,,Haze,hazy,0,0,0,0,0,0,AAXX 13034 48380 31956 01304 10258 20136 30126 40221 52019 70500 333 58007
1:00 PM +07 on February 13,2017,2017,2,13,13,0,Asia/Bangkok,29,84,15,58,32,9.3,5.8,,,50,NE,8,5,1020,30.11,-999,-999,-9999,-9999,,,Haze,hazy,0,0,0,0,0,0,AAXX 13064 48380 31958 00505 10287 20147 30102 40196 57024 70500 333 58012
4:00 PM +07 on February 13,2017,2017,2,13,16,0,Asia/Bangkok,30,86,15,58,29,3.7,2.3,,,310,NW,8,5,1016,30.02,-999,-999,-9999,-9999,,,Haze,hazy,0,0,0,0,0,0,AAXX 13094 48380 31958 03102 10302 20146 30072 40165 57031 70500 333 58006
7:00 PM +07 on February 13,2017,2017,2,13,19,0,Asia/Bangkok,27,80,16,62,44,0,0,,,,,8,5,1017,30.04,-999,-999,-9999,-9999,,,Haze,hazy,0,0,0,0,0,0,AAXX 13124 48380 31958 00000 10267 20165 30079 40173 52007 70500 333 10307 58002
10:00 PM +07 on February 13,2017,2017,2,13,22,0,Asia/Bangkok,22,72,18,64,69,0,0,,,,,6,4,1020,30.12,-999,-999,-9999,-9999,,,Mist,hazy,0,0,0,0,0,0,AAXX 13154 48380 31956 00000 10225 20177 30102 40197 52023 71000 333 58011
1:00 AM +07 on February 14,2017,2017,2,14,1,0,Asia/Bangkok,20,67,17,63,81,0,0,,,,,4,2,1020,30.12,-999,-999,-9999,-9999,,,Mist,hazy,0,0,0,0,0,0,AAXX 13184 48376 31940 00000 10195 20170 30048 40197 54000 71000 333 58008
4:00 AM +07 on February 14,2017,2017,2,14,4,0,Asia/Bangkok,18,64,16,61,88,0,0,,,,,4,2,1019,30.1,-999,-999,-9999,-9999,,,Mist,hazy,0,0,0,0,0,0,AAXX 13214 48376 31940 00000 10180 20163 30043 40193 56005 71000 333 58002
7:00 AM +07 on February 14,2017,2017,2,14,7,0,Asia/Bangkok,17,62,16,60,91,0,0,,,,,4,2,1021,30.16,-999,-999,-9999,-9999,,,Mist,hazy,0,0,0,0,0,0,AAXX 14004 48376 31940 20000 10166 20156 30061 40212 52018 71000 82035 333 20163 58009
10:00 AM +07 on February 14,2017,2017,2,14,10,0,Asia/Bangkok,23,74,17,62,58,0,0,,,,,4,2,1023,30.2,-999,-999,-9999,-9999,,,Mist,hazy,0,0,0,0,0,0,AAXX 14034 48376 31940 00000 10234 20167 30079 40226 52018 71000 333 58009
1:00 PM +07 on February 14,2017,2017,2,14,13,0,Asia/Bangkok,30,85,14,58,30,0,0,,,,,6,4,1020,30.11,-999,-999,-9999,-9999,,,Haze,hazy,0,0,0,0,0,0,AAXX 14064 48376 31956 00000 10295 20145 30052 40196 57027 70500 333 58004
4:00 PM +07 on February 14,2017,2017,2,14,16,0,Asia/Bangkok,31,87,14,57,26,7.4,4.6,,,120,ESE,6,4,1017,30.02,-999,-999,-9999,-9999,,,Haze,hazy,0,0,0,0,0,0,AAXX 14094 48376 31956 21204 10307 20138 30023 40166 57029 70500 80005 333 58009
7:00 PM +07 on February 14,2017,2017,2,14,19,0,Asia/Bangkok,26,79,17,62,47,0,0,,,,,5,3,1018,30.06,-999,-999,-9999,-9999,,,Haze,hazy,0,0,0,0,0,0,AAXX 14124 48376 31950 00000 10262 20169 30031 40177 51008 70500 333 10312 58008
10:00 PM +07 on February 14,2017,2017,2,14,22,0,Asia/Bangkok,22,72,17,62,64,0,0,,,,,5,3,1020,30.12,-999,-999,-9999,-9999,,,Mist,hazy,0,0,0,0,0,0,AAXX 14154 48376 31950 00000 10223 20169 30051 40199 52020 71000 333 58004
1:00 AM +07 on February 15,2017,2017,2,15,1,0,Asia/Bangkok,20,68,17,62,76,0,0,,,,,4,2,1020,30.12,-999,-999,-9999,-9999,,,Mist,hazy,0,0,0,0,0,0,AAXX 14184 48376 31940 20000 10199 20168 30049 40198 56002 71000 80005 333 58001
4:00 AM +07 on February 15,2017,2017,2,15,4,0,Asia/Bangkok,18,64,16,61,86,0,0,,,,,4,2,1019,30.1,-999,-999,-9999,-9999,,,Mist,hazy,0,0,0,0,0,0,AAXX 14214 48376 31940 00000 10177 20160 30041 40192 56008 71000 333 59001
7:00 AM +07 on February 15,2017,2017,2,15,7,0,Asia/Bangkok,17,62,16,60,91,0,0,,,,,4,2,1020,30.14,-999,-999,-9999,-9999,,,Mist,hazy,0,0,0,0,0,0,AAXX 15004 48376 31940 00000 10166 20156 30054 40205 52013 71000 333 20162 59007
10:00 AM +07 on February 15,2017,2017,2,15,10,0,Asia/Bangkok,24,76,16,60,48,0,0,,,,,5,3,1022,30.19,-999,-999,-9999,-9999,,,Haze,hazy,0,0,0,0,0,0,AAXX 15034 48376 31950 00000 10244 20156 30075 40222 52020 70500 333 59005
1:00 PM +07 on February 15,2017,2017,2,15,13,0,Asia/Bangkok,30,85,14,56,27,9.3,5.8,,,180,South,5,3,1019,30.09,-999,-999,-9999,-9999,,,Haze,hazy,0,0,0,0,0,0,AAXX 15064 48376 31550 11805 10297 20135 30045 40189 57030 70500 81100 333 59007
4:00 PM +07 on February 15,2017,2017,2,15,16,0,Asia/Bangkok,31,87,15,58,28,3.7,2.3,,,90,East,5,3,1016,30,-999,-999,-9999,-9999,,,Haze,hazy,0,0,0,0,0,0,AAXX 15094 48376 31950 00902 10308 20146 30013 40157 57031 70500 333 59010
7:00 PM +07 on February 15,2017,2017,2,15,19,0,Asia/Bangkok,27,80,16,61,43,0,0,,,,,5,3,1017,30.02,-999,-999,-9999,-9999,,,Haze,hazy,0,0,0,0,0,0,AAXX 15124 48376 31950 00000 10267 20163 30020 40166 51007 70500 333 10313 59011
10:00 PM +07 on February 15,2017,2017,2,15,22,0,Asia/Bangkok,22,72,16,61,60,0,0,,,,,5,3,1018,30.07,-999,-999,-9999,-9999,,,Mist,hazy,0,0,0,0,0,0,AAXX 15154 48376 31950 00000 10220 20162 30035 40183 52015 71000 333 59016
1:00 AM +07 on February 16,2017,2017,2,16,1,0,Asia/Bangkok,19,67,16,61,76,0,0,,,,,4,2,1018,30.07,-999,-999,-9999,-9999,,,Mist,hazy,0,0,0,0,0,0,AAXX 15184 48376 31940 00000 10192 20162 30033 40182 56002 71000 333 59016
4:00 AM +07 on February 16,2017,2017,2,16,4,0,Asia/Bangkok,18,64,16,60,84,0,0,,,,,4,2,1018,30.06,-999,-999,-9999,-9999,,,Mist,hazy,0,0,0,0,0,0,AAXX 15214 48376 31540 30000 10180 20158 30029 40179 56004 71000 82235 333 59013
7:00 AM +07 on February 16,2017,2017,2,16,7,0,Asia/Bangkok,17,63,15,60,85,0,0,,,,,4,2,1019,30.09,-999,-999,-9999,-9999,,,Mist,hazy,0,0,0,0,0,0,AAXX 16004 48376 31540 20000 10170 20153 30037 40188 51009 71000 81205 333 20167 59017
10:00 AM +07 on February 16,2017,2017,2,16,10,0,Asia/Bangkok,25,76,16,61,50,0,0,,,,,5,3,1020,30.11,-999,-999,-9999,-9999,,,Haze,hazy,0,0,0,0,0,0,AAXX 16034 48376 31950 00000 10246 20161 30049 40196 52012 70500 333 59026
1:00 PM +07 on February 16,2017,2017,2,16,13,0,Asia/Bangkok,31,88,16,61,31,0,0,,,,,5,3,1016,30.01,-999,-999,-9999,-9999,,,Haze,hazy,0,0,0,0,0,0,AAXX 16064 48376 31550 20000 10310 20163 30019 40162 57030 70500 81205 333 59027
4:00 PM +07 on February 16,2017,2017,2,16,16,0,Asia/Bangkok,33,91,16,60,26,0,0,,,,,7,4,1012,29.9,-999,-999,-9999,-9999,,,Haze,hazy,0,0,0,0,0,0,AAXX 16094 48376 31557 20000 10326 20156 39982 40124 57037 70500 81205 333 59033
7:00 PM +07 on February 16,2017,2017,2,16,19,0,Asia/Bangkok,28,82,18,64,45,0,0,,,,,5,3,1013,29.93,-999,-999,-9999,-9999,,,Haze,hazy,0,0,0,0,0,0,AAXX 16124 48376 31950 00000 10280 20179 39989 40133 51007 70500 333 10330 59033
10:00 PM +07 on February 16,2017,2017,2,16,22,0,Asia/Bangkok,23,74,18,64,65,0,0,,,,,4,2,1015,29.99,-999,-999,-9999,-9999,,,Mist,hazy,0,0,0,0,0,0,AAXX 16154 48376 31940 00000 10233 20180 30008 40154 52019 71000 333 59029
1:00 AM +07 on February 17,2017,2017,2,17,1,0,Asia/Bangkok,21,70,16,62,67,0,0,,,,,5,3,1015,29.98,-999,-999,-9999,-9999,,,Mist,hazy,0,0,0,0,0,0,AAXX 16184 48380 31950 00000 10212 20164 30056 40151 57003 71000 333 59026
4:00 AM +07 on February 17,2017,2017,2,17,4,0,Asia/Bangkok,20,67,16,61,75,0,0,,,,,5,3,1015,29.96,-999,-999,-9999,-9999,,,Mist,hazy,0,0,0,0,0,0,AAXX 16214 48380 31950 00000 10196 20161 30049 40146 57006 71000 333 59026
7:00 AM +07 on February 17,2017,2017,2,17,7,0,Asia/Bangkok,18,65,16,61,82,0,0,,,,,3,2,1017,30.02,-999,-999,-9999,-9999,,,Mist,hazy,0,0,0,0,0,0,AAXX 17004 48380 31930 00000 10185 20160 30069 40166 52020 71000 333 20180 59017
10:00 AM +07 on February 17,2017,2017,2,17,10,0,Asia/Bangkok,27,80,16,60,40,3.7,2.3,,,10,North,4,2,1018,30.06,-999,-999,-9999,-9999,,,Haze,hazy,0,0,0,0,0,0,AAXX 17034 48380 31940 00102 10269 20156 30084 40178 51015 70500 333 59015
1:00 PM +07 on February 17,2017,2017,2,17,13,0,Asia/Bangkok,32,90,16,60,27,5.6,3.5,,,60,ENE,5,3,1015,29.99,-999,-999,-9999,-9999,,,Haze,hazy,0,0,0,0,0,0,AAXX 17064 48380 31550 10603 10320 20156 30062 40154 57022 70500 81100 333 59008
4:00 PM +07 on February 17,2017,2017,2,17,16,0,Asia/Bangkok,33,91,15,59,24,1.9,1.2,,,320,NW,5,3,1012,29.9,-999,-999,-9999,-9999,,,Haze,hazy,0,0,0,0,0,0,AAXX 17094 48380 31550 13201 10330 20149 30032 40124 57030 70500 81100 333 59006
1:00 AM +07 on February 18,2017,2017,2,18,1,0,Asia/Bangkok,21,70,18,64,76,0,0,,,,,4,2,1015,29.99,-999,-999,-9999,-9999,,,Mist,hazy,0,0,0,0,0,0,AAXX 17184 48376 31940 00000 10210 20178 30005 40153 56002 71000 333 58000
4:00 AM +07 on February 18,2017,2017,2,18,4,0,Asia/Bangkok,19,66,16,62,82,0,0,,,,,4,2,1015,29.99,-999,-999,-9999,-9999,,,Mist,hazy,0,0,0,0,0,0,AAXX 17214 48376 31940 00000 10190 20165 30005 40154 56001 71000 333 58004
7:00 AM +07 on February 18,2017,2017,2,18,7,0,Asia/Bangkok,18,65,16,61,83,0,0,,,,,4,2,1017,30.03,-999,-999,-9999,-9999,,,Mist,hazy,0,0,0,0,0,0,AAXX 18004 48376 31940 20000 10181 20162 30019 40169 52014 71000 80005 333 20176 58001
10:00 AM +07 on February 18,2017,2017,2,18,10,0,Asia/Bangkok,25,77,17,63,52,5.6,3.5,,,280,West,5,3,1018,30.07,-999,-999,-9999,-9999,,,Haze,hazy,0,0,0,0,0,0,AAXX 18034 48376 31950 02803 10249 20170 30035 40182 52016 70500 333 58001
1:00 PM +07 on February 18,2017,2017,2,18,13,0,Asia/Bangkok,33,91,15,59,24,9.3,5.8,,,180,South,5,3,1015,29.98,-999,-999,-9999,-9999,,,Haze,hazy,0,0,0,0,0,0,AAXX 18064 48376 31550 21805 10328 20148 30009 40152 57026 70500 81205 333 59002
4:00 PM +07 on February 18,2017,2017,2,18,16,0,Asia/Bangkok,34,93,15,59,22,7.4,4.6,,,50,NE,5,3,1012,29.9,-999,-999,-9999,-9999,,,Haze,hazy,0,0,0,0,0,0,AAXX 18094 48376 31550 20504 10340 20148 39982 40123 57028 70500 81205 333 58005
7:00 PM +07 on February 18,2017,2017,2,18,19,0,Asia/Bangkok,29,85,18,64,40,0,0,,,,,5,3,1013,29.93,-999,-999,-9999,-9999,,,Haze,hazy,0,0,0,0,0,0,AAXX 18124 48376 31950 00000 10292 20179 39991 40134 51009 70500 333 10342 58000
10:00 PM +07 on February 18,2017,2017,2,18,22,0,Asia/Bangkok,25,76,17,63,54,0,0,,,,,5,3,1015,29.98,-999,-999,-9999,-9999,,,Haze,hazy,0,0,0,0,0,0,AAXX 18154 48376 31950 00000 10246 20170 30005 40151 52014 70500 333 59003
1:00 AM +07 on February 22,2017,2017,2,22,1,0,Asia/Bangkok,23,74,17,63,60,0,0,,,,,5,3,1011,29.86,-999,-999,-9999,-9999,,,Mist,hazy,0,0,0,0,0,0,AAXX 21184 48380 31950 00000 10233 20171 30016 40111 52001 71000 333 58008
4:00 AM +07 on February 22,2017,2017,2,22,4,0,Asia/Bangkok,22,72,16,60,57,0,0,,,,,5,3,1011,29.85,-999,-999,-9999,-9999,,,Mist,hazy,0,0,0,0,0,0,AAXX 21214 48380 31950 00000 10222 20155 30011 40106 57005 71000 333 58009
7:00 AM +07 on February 22,2017,2017,2,22,7,0,Asia/Bangkok,20,68,17,62,76,0,0,,,,,4,2,1012,29.88,-999,-999,-9999,-9999,,,Mist,hazy,0,0,0,0,0,0,AAXX 22004 48380 31940 20000 10200 20167 30024 40119 52013 71000 80005 333 20195 58000
10:00 AM +07 on February 22,2017,2017,2,22,10,0,Asia/Bangkok,30,85,17,62,36,0,0,,,,,4,2,1013,29.92,-999,-999,-9999,-9999,,,Haze,hazy,0,0,0,0,0,0,AAXX 22034 48380 31940 00000 10295 20166 30039 40132 50016 70500 333 59004
1:00 PM +07 on February 22,2017,2017,2,22,13,0,Asia/Bangkok,35,95,17,62,24,3.7,2.3,,,30,NNE,4,2,1011,29.86,-999,-999,-9999,-9999,,,Haze,hazy,0,0,0,0,0,0,AAXX 22064 48380 31940 00302 10350 20167 30018 40109 57021 70500 333 59006
4:00 PM +07 on February 22,2017,2017,2,22,16,0,Asia/Bangkok,36,96,15,59,20,5.6,3.5,,,80,East,4,2,1008,29.78,-999,-999,-9999,-9999,,,Haze,hazy,0,0,0,0,0,0,AAXX 22094 48380 31940 20803 10358 20148 39992 40083 57026 70500 80001 333 58000
7:00 PM +07 on February 22,2017,2017,2,22,19,0,Asia/Bangkok,31,87,19,66,40,0,0,,,,,4,2,1009,29.81,-999,-999,-9999,-9999,,,Haze,hazy,0,0,0,0,0,0,AAXX 22124 48380 31940 00000 10307 20190 30000 40092 52007 70500 333 10364 58006
10:00 PM +07 on February 22,2017,2017,2,22,22,0,Asia/Bangkok,28,82,20,68,53,0,0,,,,,4,2,1012,29.88,-999,-999,-9999,-9999,,,Haze,hazy,0,0,0,0,0,0,AAXX 22154 48380 31940 00000 10280 20199 30022 40116 52023 70500 333 58006
1:00 AM +07 on February 23,2017,2017,2,23,1,0,Asia/Bangkok,26,78,17,62,48,0,0,,,,,4,2,1011,29.86,-999,-999,-9999,-9999,,,Haze,hazy,0,0,0,0,0,0,AAXX 22184 48380 31940 00000 10255 20166 30017 40111 57005 70500 333 58000
4:00 AM +07 on February 23,2017,2017,2,23,4,0,Asia/Bangkok,23,74,16,61,55,1.9,1.2,,,300,WNW,4,2,1010,29.84,-999,-999,-9999,-9999,,,Haze,hazy,0,0,0,0,0,0,AAXX 22214 48380 31940 03001 10234 20162 30008 40103 57009 70500 333 59003
7:00 AM +07 on February 23,2017,2017,2,23,7,0,Asia/Bangkok,21,70,17,62,69,1.9,1.2,,,190,South,4,2,1012,29.89,-999,-999,-9999,-9999,,,Mist,hazy,0,0,0,0,0,0,AAXX 23004 48380 31940 21901 10212 20166 30025 40120 52016 71000 80001 333 20207 58001
10:00 AM +07 on February 23,2017,2017,2,23,10,0,Asia/Bangkok,30,87,16,62,32,5.6,3.5,,,330,NNW,4,2,1014,29.95,-999,-999,-9999,-9999,,,Haze,hazy,0,0,0,0,0,0,AAXX 23034 48380 31940 03303 10303 20164 30047 40140 50022 70500 333 58008
1:00 PM +07 on February 23,2017,2017,2,23,13,0,Asia/Bangkok,36,96,16,61,22,3.7,2.3,,,30,NNE,4,2,1011,29.87,-999,-999,-9999,-9999,,,Haze,hazy,0,0,0,0,0,0,AAXX 23064 48380 31940 00302 10358 20159 30022 40113 57025 70500 333 58003
4:00 PM +07 on February 23,2017,2017,2,23,16,0,Asia/Bangkok,37,99,16,61,19,3.7,2.3,,,110,ESE,4,2,1008,29.77,-999,-999,-9999,-9999,,,Haze,hazy,0,0,0,0,0,0,AAXX 23094 48380 31940 01102 10372 20160 39991 40081 57031 70500 333 59002
7:00 PM +07 on February 23,2017,2017,2,23,19,0,Asia/Bangkok,32,90,16,62,29,3.7,2.3,,,250,WSW,4,2,1009,29.8,-999,-999,-9999,-9999,,,Haze,hazy,0,0,0,0,0,0,AAXX 23124 48380 31940 02502 10323 20165 30000 40091 52009 70500 333 10376 58000
10:00 PM +07 on February 23,2017,2017,2,23,22,0,Asia/Bangkok,28,82,17,63,43,0,0,,,,,4,2,1012,29.88,-999,-999,-9999,-9999,,,Haze,hazy,0,0,0,0,0,0,AAXX 23154 48380 31940 00000 10279 20172 30023 40116 52023 70500 333 58001
1:00 AM +07 on February 24,2017,2017,2,24,1,0,Asia/Bangkok,25,78,18,64,54,0,0,,,,,4,2,1012,29.89,-999,-999,-9999,-9999,,,Haze,hazy,0,0,0,0,0,0,AAXX 23184 48380 31940 00000 10253 20180 30028 40122 52005 70500 333 58011
4:00 AM +07 on February 24,2017,2017,2,24,4,0,Asia/Bangkok,24,76,18,65,61,0,0,,,,,4,2,1011,29.86,-999,-999,-9999,-9999,,,Mist,hazy,0,0,0,0,0,0,AAXX 23214 48380 31940 00000 10242 20183 30017 40111 57011 71000 333 58009
7:00 AM +07 on February 24,2017,2017,2,24,7,0,Asia/Bangkok,23,73,18,65,70,0,0,,,,,4,2,1013,29.92,-999,-999,-9999,-9999,,,Mist,hazy,0,0,0,0,0,0,AAXX 24004 48380 31940 00000 10227 20184 30037 40132 52020 71000 333 20227 58011
10:00 AM +07 on February 24,2017,2017,2,24,10,0,Asia/Bangkok,31,88,17,63,33,3.7,2.3,,,50,NE,4,2,1014,29.96,-999,-999,-9999,-9999,,,Haze,hazy,0,0,0,0,0,0,AAXX 24034 48380 31940 00502 10312 20172 30052 40144 52015 70500 333 58004
1:00 PM +07 on February 24,2017,2017,2,24,13,0,Asia/Bangkok,36,97,18,64,24,13,8.1,,,120,ESE,6,4,1012,29.88,-999,-999,-9999,-9999,,,Haze,hazy,0,0,0,0,0,0,AAXX 24064 48380 31956 01207 10360 20175 30027 40118 57025 70500 333 58005
4:00 PM +07 on February 24,2017,2017,2,24,16,0,Asia/Bangkok,37,99,19,65,24,13,8.1,,,140,SE,8,5,1008,29.78,-999,-999,-9999,-9999,,,Haze,hazy,0,0,0,0,0,0,AAXX 24094 48380 31958 01407 10371 20186 39994 40084 57032 70500 333 58003
10:00 PM +07 on February 24,2017,2017,2,24,22,0,Asia/Bangkok,30,87,22,72,53,1.9,1.2,,,90,East,4,2,1012,29.88,-999,-999,-9999,-9999,,,Haze,hazy,0,0,0,0,0,0,AAXX 24154 48380 31940 00901 10305 20224 30024 40117 52025 70500 333 58000
1:00 AM +07 on February 19,2017,2017,2,19,1,0,Asia/Bangkok,21,70,18,64,74,0,0,,,,,4,2,1015,29.98,-999,-999,-9999,-9999,,,Mist,hazy,0,0,0,0,0,0,AAXX 18184 48376 31940 00000 10211 20175 30002 40150 56003 71000 333 59004
4:00 AM +07 on February 19,2017,2017,2,19,4,0,Asia/Bangkok,19,66,16,61,78,3.7,2.3,,,70,ENE,3,2,1014,29.95,-999,-999,-9999,-9999,,,Mist,hazy,0,0,0,0,0,0,AAXX 18214 48376 31930 00702 10189 20159 39992 40141 57010 71000 333 59013
7:00 AM +07 on February 19,2017,2017,2,19,7,0,Asia/Bangkok,18,64,16,60,84,0,0,,,,,4,2,1015,29.99,-999,-999,-9999,-9999,,,Mist,hazy,0,0,0,0,0,0,AAXX 19004 48376 31940 00000 10177 20157 30004 40154 52012 71000 333 20174 59015
10:00 AM +07 on February 19,2017,2017,2,19,10,0,Asia/Bangkok,25,77,17,62,51,0,0,,,,,5,3,1017,30.03,-999,-999,-9999,-9999,,,Haze,hazy,0,0,0,0,0,0,AAXX 19034 48376 31950 00000 10252 20168 30022 40168 52018 70500 333 59014
1:00 PM +07 on February 19,2017,2017,2,19,13,0,Asia/Bangkok,34,92,16,60,25,3.7,2.3,,,70,ENE,6,4,1013,29.91,-999,-999,-9999,-9999,,,Haze,hazy,0,0,0,0,0,0,AAXX 19064 48376 31956 00702 10335 20156 39987 40128 57035 70500 333 59023
4:00 PM +07 on February 19,2017,2017,2,19,16,0,Asia/Bangkok,35,95,15,59,21,0,0,,,,,6,4,1009,29.79,-999,-999,-9999,-9999,,,Haze,hazy,0,0,0,0,0,0,AAXX 19094 48376 31956 00000 10348 20151 39946 40086 57041 70500 333 59037
7:00 PM +07 on February 19,2017,2017,2,19,19,0,Asia/Bangkok,30,85,18,65,41,3.7,2.3,,,170,South,5,3,1009,29.8,-999,-999,-9999,-9999,,,Haze,hazy,0,0,0,0,0,0,AAXX 19124 48376 31950 01702 10295 20181 39947 40090 51001 70500 333 10353 59044
10:00 PM +07 on February 19,2017,2017,2,19,22,0,Asia/Bangkok,25,77,20,67,65,0,0,,,,,4,2,1011,29.86,-999,-999,-9999,-9999,,,Mist,hazy,0,0,0,0,0,0,AAXX 19154 48376 31940 00000 10250 20196 39965 40110 52018 71000 333 59041
1:00 AM +07 on February 20,2017,2017,2,20,1,0,Asia/Bangkok,20,69,18,64,79,0,0,,,,,4,2,1011,29.85,-999,-999,-9999,-9999,,,Mist,hazy,0,0,0,0,0,0,AAXX 19184 48376 31940 00000 10205 20177 39961 40108 56004 71000 333 59041
4:00 AM +07 on February 20,2017,2017,2,20,4,0,Asia/Bangkok,20,68,17,63,79,0,0,,,,,4,2,1010,29.83,-999,-999,-9999,-9999,,,Mist,hazy,0,0,0,0,0,0,AAXX 19214 48376 31940 00000 10200 20172 39952 40100 56008 71000 333 59040
7:00 AM +07 on February 20,2017,2017,2,20,7,0,Asia/Bangkok,20,67,17,62,81,0,0,,,,,4,2,1011,29.86,-999,-999,-9999,-9999,,,Mist,hazy,0,0,0,0,0,0,AAXX 20004 48376 31940 00000 10195 20169 39964 40112 52011 71000 333 20193 59042
10:00 AM +07 on February 20,2017,2017,2,20,10,0,Asia/Bangkok,29,84,16,61,36,7.4,4.6,,,250,WSW,4,2,1012,29.89,-999,-999,-9999,-9999,,,Haze,hazy,0,0,0,0,0,0,AAXX 20034 48376 31940 02504 10291 20162 39978 40122 52015 70500 333 59046
1:00 PM +07 on February 20,2017,2017,2,20,13,0,Asia/Bangkok,33,91,13,56,21,11.1,6.9,,,240,WSW,7,4,1009,29.81,-999,-999,-9999,-9999,,,Haze,hazy,0,0,0,0,0,0,AAXX 20064 48376 31957 02406 10330 20131 39952 40094 57026 70500 333 59035
4:00 PM +07 on February 20,2017,2017,2,20,16,0,Asia/Bangkok,34,94,14,57,19,16.7,10.4,,,270,West,7,4,1006,29.72,-999,-999,-9999,-9999,,,Haze,hazy,0,0,0,0,0,0,AAXX 20094 48376 31957 02709 10345 20137 39923 40063 57029 70500 333 59023
7:00 PM +07 on February 20,2017,2017,2,20,19,0,Asia/Bangkok,30,87,15,59,28,9.3,5.8,,,280,West,5,3,1007,29.75,-999,-999,-9999,-9999,,,Haze,hazy,0,0,0,0,0,0,AAXX 20124 48376 31950 02805 10305 20148 39930 40072 51007 70500 333 10351 59018
10:00 PM +07 on February 20,2017,2017,2,20,22,0,Asia/Bangkok,27,81,19,66,51,0,0,,,,,5,3,1010,29.82,-999,-999,-9999,-9999,,,Haze,hazy,0,0,0,0,0,0,AAXX 20154 48376 31950 00000 10270 20189 39954 40098 52024 70500 333 59012
1:00 AM +07 on February 21,2017,2017,2,21,1,0,Asia/Bangkok,24,74,16,60,53,3.7,2.3,,,260,West,4,2,1010,29.84,-999,-999,-9999,-9999,,,Haze,hazy,0,0,0,0,0,0,AAXX 20184 48376 31940 02602 10236 20158 39958 40104 51005 70500 333 59004
4:00 AM +07 on February 21,2017,2017,2,21,4,0,Asia/Bangkok,20,69,16,61,70,0,0,,,,,4,2,1011,29.85,-999,-999,-9999,-9999,,,Mist,hazy,0,0,0,0,0,0,AAXX 20214 48376 31940 00000 10205 20163 39958 40106 54000 71000 333 58006
7:00 AM +07 on February 21,2017,2017,2,21,7,0,Asia/Bangkok,20,68,15,59,65,0,0,,,,,4,2,1012,29.89,-999,-999,-9999,-9999,,,Mist,hazy,0,0,0,0,0,0,AAXX 21004 48376 31940 00000 10200 20149 39974 40122 52015 71000 333 20193 58010
10:00 AM +07 on February 21,2017,2017,2,21,10,0,Asia/Bangkok,30,86,16,61,32,7.4,4.6,,,240,WSW,4,2,1014,29.93,-999,-999,-9999,-9999,,,Haze,hazy,0,0,0,0,0,0,AAXX 21034 48376 31940 02404 10298 20160 39992 40135 52018 70500 333 58013
1:00 PM +07 on February 21,2017,2017,2,21,13,0,Asia/Bangkok,34,94,15,59,22,11.1,6.9,,,160,SSE,7,4,1011,29.86,-999,-999,-9999,-9999,,,Haze,hazy,0,0,0,0,0,0,AAXX 21064 48376 31957 01606 10345 20151 39970 40111 57022 70500 333 58017
4:00 PM +07 on February 21,2017,2017,2,21,16,0,Asia/Bangkok,36,96,14,57,18,9.3,5.8,,,220,SW,7,4,1008,29.77,-999,-999,-9999,-9999,,,Haze,hazy,0,0,0,0,0,0,AAXX 21094 48376 31957 02205 10357 20137 39940 40080 57030 70500 333 58016
7:00 PM +07 on February 21,2017,2017,2,21,19,0,Asia/Bangkok,31,89,13,56,22,18.5,11.5,,,240,WSW,5,3,1009,29.8,-999,-999,-9999,-9999,,,Haze,hazy,0,0,0,0,0,0,AAXX 21124 48376 31950 02410 10314 20132 39947 40089 52007 70500 333 10362 58017
10:00 PM +07 on February 21,2017,2017,2,21,22,0,Asia/Bangkok,28,82,16,62,40,0,0,,,,,5,3,1011,29.86,-999,-999,-9999,-9999,,,Haze,hazy,0,0,0,0,0,0,AAXX 21154 48376 31950 00000 10280 20164 39968 40112 52021 70500 333 58014
1:00 AM +07 on February 25,2017,2017,2,25,1,0,Asia/Bangkok,28,83,23,74,67,0,0,,,,,6,4,1012,29.88,-999,-999,-9999,-9999,,,Mist,hazy,0,0,0,0,0,0,AAXX 24184 48380 31956 00000 10283 20232 30025 40119 52001 71000 333 59003
4:00 AM +07 on February 25,2017,2017,2,25,4,0,Asia/Bangkok,27,80,23,74,76,1.9,1.2,,,100,East,4,2,1010,29.84,-999,-999,-9999,-9999,,,Mist,hazy,0,0,0,0,0,0,AAXX 24214 48380 31940 01001 10268 20231 30010 40104 57015 71000 333 59008
7:00 AM +07 on February 25,2017,2017,2,25,7,0,Asia/Bangkok,25,77,23,73,84,0,0,,,,,2,1,1012,29.89,-999,-999,-9999,-9999,,,Mist,hazy,0,0,0,0,0,0,AAXX 25004 48380 31520 20000 10250 20228 30027 40121 52017 71000 82201 333 20249 59010
10:00 AM +07 on February 25,2017,2017,2,25,10,0,Asia/Bangkok,30,85,22,72,58,3.7,2.3,,,280,West,4,2,1014,29.93,-999,-999,-9999,-9999,,,Mist,hazy,0,0,0,0,0,0,AAXX 25034 48380 31540 12802 10295 20224 30042 40135 52015 71000 81201 333 59009
1:00 PM +07 on February 25,2017,2017,2,25,13,0,Asia/Bangkok,34,94,21,70,36,5.6,3.5,,,90,East,6,4,1011,29.85,-999,-999,-9999,-9999,,,Haze,hazy,0,0,0,0,0,0,AAXX 25064 48380 31556 20903 10343 20210 30016 40107 57026 70500 81231 333 59010
4:00 PM +07 on February 25,2017,2017,2,25,16,0,Asia/Bangkok,36,97,17,63,23,11.1,6.9,,,140,SE,6,4,1007,29.74,-999,-999,-9999,-9999,,,Haze,hazy,0,0,0,0,0,0,AAXX 25094 48380 31556 11406 10363 20173 39978 40069 57038 70500 81200 333 59016
7:00 PM +07 on February 25,2017,2017,2,25,19,0,Asia/Bangkok,33,91,23,74,48,5.6,3.5,,,130,SE,6,4,1008,29.77,-999,-999,-9999,-9999,,,Scattered Clouds,partlycloudy,0,0,0,0,0,0,AAXX 25124 48380 31456 51303 10330 20232 39989 40080 52010 71310 82935 333 10366 59010
10:00 PM +07 on February 25,2017,2017,2,25,22,0,Asia/Bangkok,27,80,25,76,85,0,0,,,,,8,5,1011,29.85,-999,-999,-9999,-9999,,,Light Rain,rain,0,1,0,0,0,0,AAXX 25154 48380 21558 60000 10266 20246 30014 40107 52025 79192 83576 333 59009 60056
1:00 AM +07 on February 26,2017,2017,2,26,1,0,Asia/Bangkok,26,79,19,66,55,5.6,3.5,,,200,SSW,4,2,1011,29.85,-999,-999,-9999,-9999,,,Haze,hazy,0,0,0,0,0,0,AAXX 25184 48376 31940 02003 10263 20188 39961 40106 54000 70500 333 59011
4:00 AM +07 on February 26,2017,2017,2,26,4,0,Asia/Bangkok,24,74,19,66,69,0,0,,,,,4,2,1010,29.82,-999,-999,-9999,-9999,,,Mist,hazy,0,0,0,0,0,0,AAXX 25214 48376 31940 00000 10235 20188 39952 40098 56009 71000 333 59006
7:00 AM +07 on February 26,2017,2017,2,26,7,0,Asia/Bangkok,21,70,17,63,73,0,0,,,,,4,2,1012,29.87,-999,-999,-9999,-9999,,,Mist,hazy,0,0,0,0,0,0,AAXX 26004 48376 31540 20000 10210 20174 39968 40115 52016 71000 81205 333 20206 59007
10:00 AM +07 on February 26,2017,2017,2,26,10,0,Asia/Bangkok,29,84,20,69,52,3.7,2.3,,,160,SSE,5,3,1014,29.94,-999,-999,-9999,-9999,,,Haze,hazy,0,0,0,0,0,0,AAXX 26034 48376 31950 01602 10287 20205 39992 40136 52024 70500 333 58001
1:00 PM +07 on February 26,2017,2017,2,26,13,0,Asia/Bangkok,34,93,21,70,38,9.3,5.8,,,50,NE,5,3,1010,29.83,-999,-999,-9999,-9999,,,Haze,hazy,0,0,0,0,0,0,AAXX 26064 48376 31550 20505 10338 20212 39960 40101 57032 70500 82205 333 58002
4:00 PM +07 on February 26,2017,2017,2,26,16,0,Asia/Bangkok,35,95,20,69,33,9.3,5.8,,,180,South,6,4,1007,29.74,-999,-999,-9999,-9999,,,Haze,hazy,0,0,0,0,0,0,AAXX 26094 48376 31556 21805 10351 20204 39929 40069 57031 70500 82205 333 58002
7:00 PM +07 on February 26,2017,2017,2,26,19,0,Asia/Bangkok,31,88,22,71,49,0,0,,,,,5,3,1008,29.77,-999,-999,-9999,-9999,,,Haze,hazy,0,0,0,0,0,0,AAXX 26124 48376 31550 20000 10310 20219 39939 40081 52010 70500 81205 333 10357 58004
10:00 PM +07 on February 26,2017,2017,2,26,22,0,Asia/Bangkok,28,83,22,71,60,3.7,2.3,,,180,South,5,3,1011,29.86,-999,-999,-9999,-9999,,,Mist,hazy,0,0,0,0,0,0,AAXX 26154 48376 31950 01802 10285 20218 39966 40110 52027 71000 333 58005
4:00 AM +07 on February 27,2017,2017,2,27,4,0,Asia/Bangkok,25,77,22,71,76,0,0,,,,,5,3,1011,29.86,-999,-999,-9999,-9999,,,Mist,hazy,0,0,0,0,0,0,AAXX 26214 48376 31950 20000 10252 20216 39965 40110 56006 71000 80005 333 58012
7:00 AM +07 on February 27,2017,2017,2,27,7,0,Asia/Bangkok,24,75,21,70,79,0,0,,,,,5,3,1014,29.93,-999,-999,-9999,-9999,,,Mist,hazy,0,0,0,0,0,0,AAXX 27004 48376 31550 30000 10239 20210 39988 40135 52023 71000 82235 333 20236 58019
10:00 AM +07 on February 27,2017,2017,2,27,10,0,Asia/Bangkok,29,85,20,67,46,0,0,,,,,6,4,1015,29.98,-999,-999,-9999,-9999,,,Haze,hazy,0,0,0,0,0,0,AAXX 27034 48376 31956 20000 10292 20197 30008 40152 52020 70500 80005 333 58016
1:00 PM +07 on February 27,2017,2017,2,27,13,0,Asia/Bangkok,34,92,21,70,38,0,0,,,,,7,4,1012,29.9,-999,-999,-9999,-9999,,,Haze,hazy,0,0,0,0,0,0,AAXX 27064 48376 31557 20000 10335 20209 39981 40123 57027 70500 82205 333 58021
4:00 PM +07 on February 27,2017,2017,2,27,16,0,Asia/Bangkok,35,95,21,70,35,0,0,,,,,6,4,1009,29.8,-999,-999,-9999,-9999,,,Haze,hazy,0,0,0,0,0,0,AAXX 27094 48376 31556 20000 10350 20211 39949 40090 57032 70500 82205 333 58020
7:00 PM +07 on February 27,2017,2017,2,27,19,0,Asia/Bangkok,30,87,21,69,47,3.7,2.3,,,140,SE,5,3,1010,29.83,-999,-999,-9999,-9999,,,Haze,hazy,0,0,0,0,0,0,AAXX 27124 48376 31950 21402 10305 20208 39957 40099 51008 70500 80005 333 10357 58018
10:00 PM +07 on February 27,2017,2017,2,27,22,0,Asia/Bangkok,29,84,21,70,53,0,0,,,,,6,4,1013,29.91,-999,-999,-9999,-9999,,,Haze,hazy,0,0,0,0,0,0,AAXX 27154 48376 31956 20000 10287 20209 39984 40128 52027 70500 80005 333 58018
1:00 AM +07 on February 28,2017,2017,2,28,1,0,Asia/Bangkok,26,78,20,69,67,0,0,,,,,5,3,1012,29.9,-999,-999,-9999,-9999,,,Mist,hazy,0,0,0,0,0,0,AAXX 27184 48376 31950 00000 10257 20205 39980 40125 56004 71000 333 58010
4:00 AM +07 on February 28,2017,2017,2,28,4,0,Asia/Bangkok,24,75,21,69,77,0,0,,,,,5,3,1012,29.89,-999,-999,-9999,-9999,,,Mist,hazy,0,0,0,0,0,0,AAXX 27214 48376 31950 20000 10240 20206 39975 40121 56005 71000 80005 333 58011
7:00 AM +07 on February 28,2017,2017,2,28,7,0,Asia/Bangkok,23,73,21,69,84,0,0,,,,,5,3,1014,29.95,-999,-999,-9999,-9999,,,Mist,hazy,0,0,0,0,0,0,AAXX 28004 48376 31550 30000 10230 20207 39993 40140 52018 71000 82535 333 20227 58005
10:00 AM +07 on February 28,2017,2017,2,28,10,0,Asia/Bangkok,29,85,20,68,47,3.7,2.3,,,40,NE,6,4,1015,29.98,-999,-999,-9999,-9999,,,Haze,hazy,0,0,0,0,0,0,AAXX 28034 48376 31556 20402 10294 20198 30008 40151 52015 70500 81205 333 59001
1:00 PM +07 on February 28,2017,2017,2,28,13,0,Asia/Bangkok,34,93,19,67,32,7.4,4.6,,,220,SW,6,4,1012,29.88,-999,-999,-9999,-9999,,,Haze,hazy,0,0,0,0,0,0,AAXX 28064 48376 31556 22204 10340 20193 39976 40117 57032 70500 82205 333 59006
4:00 PM +07 on February 28,2017,2017,2,28,16,0,Asia/Bangkok,36,96,18,65,26,11.1,6.9,,,220,SW,6,4,1008,29.77,-999,-999,-9999,-9999,,,Haze,hazy,0,0,0,0,0,0,AAXX 28094 48376 31556 22206 10356 20183 39940 40080 57036 70500 81205 333 59009
7:00 PM +07 on February 28,2017,2017,2,28,19,0,Asia/Bangkok,32,89,20,68,40,7.4,4.6,,,130,SE,6,4,1009,29.8,-999,-999,-9999,-9999,,,Haze,hazy,0,0,0,0,0,0,AAXX 28124 48376 31556 21304 10317 20199 39948 40090 51008 70500 81205 333 10362 59009
10:00 PM +07 on February 28,2017,2017,2,28,22,0,Asia/Bangkok,28,83,22,71,58,0,0,,,,,6,4,1011,29.86,-999,-999,-9999,-9999,,,Mist,hazy,0,0,0,0,0,0,AAXX 28154 48376 31556 20000 10284 20215 39968 40112 52020 71000 81235 333 59015
1:00 AM +07 on March 01,2017,2017,3,1,1,0,Asia/Bangkok,26,79,20,69,64,0,0,,,,,4,2,1011,29.86,-999,-999,-9999,-9999,,,Mist,hazy,0,0,0,0,0,0,AAXX 28184 48380 31540 50000 10263 20205 30017 40111 57001 71000 83106 333 59016
4:00 AM +07 on March 01,2017,2017,3,1,4,0,Asia/Bangkok,25,77,21,70,73,0,0,,,,,4,2,1011,29.86,-999,-999,-9999,-9999,,,Mist,hazy,0,0,0,0,0,0,AAXX 28214 48380 31940 00000 10249 20211 30015 40109 57002 71010 333 59013
7:00 AM +07 on March 01,2017,2017,3,1,7,0,Asia/Bangkok,24,74,21,70,85,0,0,,,,,3,2,1013,29.92,-999,-999,-9999,-9999,,,Mist,hazy,0,0,0,0,0,0,AAXX 01004 48380 31530 50000 10236 20213 30035 40130 52020 71000 84102 333 20230 59009
10:00 AM +07 on March 01,2017,2017,3,1,10,0,Asia/Bangkok,31,88,19,67,40,11.1,6.9,,,100,East,4,2,1014,29.96,-999,-999,-9999,-9999,,,Haze,hazy,0,0,0,0,0,0,AAXX 01034 48380 31940 01006 10313 20194 30050 40143 50016 70510 333 59007
1:00 PM +07 on March 01,2017,2017,3,1,13,0,Asia/Bangkok,34,93,19,66,31,5.6,3.5,,,40,NE,4,2,1012,29.88,-999,-999,-9999,-9999,,,Haze,hazy,0,0,0,0,0,0,AAXX 01064 48380 31940 00403 10340 20187 30025 40116 57026 70500 333 59006
4:00 PM +07 on March 01,2017,2017,3,1,16,0,Asia/Bangkok,35,96,17,62,23,5.6,3.5,,,100,East,4,2,1009,29.8,-999,-999,-9999,-9999,,,Haze,hazy,0,0,0,0,0,0,AAXX 01094 48380 31940 01003 10353 20169 39999 40090 57026 70500 333 59002
7:00 PM +07 on March 01,2017,2017,3,1,19,0,Asia/Bangkok,32,90,20,67,38,1.9,1.2,,,110,ESE,4,2,1010,29.81,-999,-999,-9999,-9999,,,Haze,hazy,0,0,0,0,0,0,AAXX 01124 48380 31540 61101 10323 20197 30004 40095 52005 70500 84105 333 10357 59001
10:00 PM +07 on March 01,2017,2017,3,1,22,0,Asia/Bangkok,29,85,20,67,46,0,0,,,,,4,2,1011,29.86,-999,-999,-9999,-9999,,,Haze,hazy,0,0,0,0,0,0,AAXX 01154 48380 31940 00000 10293 20195 30017 40110 50014 70520 333 59001
1:00 AM +07 on March 02,2017,2017,3,2,1,0,Asia/Bangkok,26,78,20,68,65,0,0,,,,,3,2,1011,29.86,-999,-999,-9999,-9999,,,Mist,hazy,0,0,0,0,0,0,AAXX 01184 48376 31530 20000 10255 20201 39967 40112 56001 71000 82505 333 58002
4:00 AM +07 on March 02,2017,2017,3,2,4,0,Asia/Bangkok,23,74,19,66,70,0,0,,,,,3,2,1011,29.85,-999,-999,-9999,-9999,,,Mist,hazy,0,0,0,0,0,0,AAXX 01214 48376 31930 20000 10232 20189 39962 40108 56005 71000 80005 333 59001
7:00 AM +07 on March 02,2017,2017,3,2,7,0,Asia/Bangkok,23,73,19,66,72,0,0,,,,,3,2,1013,29.92,-999,-999,-9999,-9999,,,Mist,hazy,0,0,0,0,0,0,AAXX 02004 48376 31530 30000 10230 20187 39984 40131 52022 71000 82535 333 20228 58000
10:00 AM +07 on March 02,2017,2017,3,2,10,0,Asia/Bangkok,29,85,16,61,35,7.4,4.6,,,160,SSE,4,2,1015,29.98,-999,-999,-9999,-9999,,,Haze,hazy,0,0,0,0,0,0,AAXX 02034 48376 31540 21604 10293 20163 30007 40150 52023 70500 81535 333 58004
1:00 PM +07 on March 02,2017,2017,3,2,13,0,Asia/Bangkok,33,92,16,60,25,9.3,5.8,,,150,SSE,5,3,1012,29.88,-999,-999,-9999,-9999,,,Haze,hazy,0,0,0,0,0,0,AAXX 02064 48376 31950 21505 10331 20157 39977 40119 57029 70500 80005 333 58006
4:00 PM +07 on March 02,2017,2017,3,2,16,0,Asia/Bangkok,34,93,15,59,23,9.3,5.8,,,130,SE,6,4,1009,29.79,-999,-999,-9999,-9999,,,Haze,hazy,0,0,0,0,0,0,AAXX 02094 48376 31956 01305 10338 20152 39947 40088 57031 70500 333 58006
7:00 PM +07 on March 02,2017,2017,3,2,19,0,Asia/Bangkok,30,86,16,62,34,5.6,3.5,,,110,ESE,4,2,1010,29.81,-999,-999,-9999,-9999,,,Haze,hazy,0,0,0,0,0,0,AAXX 02124 48376 31940 01103 10300 20164 39952 40095 51005 70500 333 10345 58002
10:00 PM +07 on March 02,2017,2017,3,2,22,0,Asia/Bangkok,26,79,18,65,53,0,0,,,,,4,2,1013,29.91,-999,-999,-9999,-9999,,,Haze,hazy,0,0,0,0,0,0,AAXX 02154 48376 31940 00000 10262 20183 39982 40127 52029 70500 333 58015
1:00 AM +07 on March 03,2017,2017,3,3,1,0,Asia/Bangkok,24,75,18,65,62,0,0,,,,,4,2,1011,29.87,-999,-999,-9999,-9999,,,Mist,hazy,0,0,0,0,0,0,AAXX 02184 48376 31940 00000 10238 20181 39967 40113 57014 71000 333 58001
4:00 AM +07 on March 03,2017,2017,3,3,4,0,Asia/Bangkok,22,71,18,64,71,0,0,,,,,4,2,1010,29.84,-999,-999,-9999,-9999,,,Mist,hazy,0,0,0,0,0,0,AAXX 02214 48376 31940 00000 10218 20176 39956 40103 57011 71000 333 59005
7:00 AM +07 on March 03,2017,2017,3,3,7,0,Asia/Bangkok,20,68,18,64,81,0,0,,,,,3,2,1012,29.88,-999,-999,-9999,-9999,,,Mist,hazy,0,0,0,0,0,0,AAXX 03004 48376 31930 00000 10201 20175 39969 40117 52013 71000 333 20200 59013
10:00 AM +07 on March 03,2017,2017,3,3,10,0,Asia/Bangkok,28,83,17,63,41,0,0,,,,,6,4,1012,29.9,-999,-999,-9999,-9999,,,Haze,hazy,0,0,0,0,0,0,AAXX 03034 48376 31956 00000 10282 20172 39979 40123 51009 70500 333 59028
1:00 PM +07 on March 03,2017,2017,3,3,13,0,Asia/Bangkok,34,94,16,60,23,5.6,3.5,,,40,NE,6,4,1009,29.79,-999,-999,-9999,-9999,,,Haze,hazy,0,0,0,0,0,0,AAXX 03064 48376 31956 00403 10345 20158 39946 40086 57033 70500 333 59033
4:00 PM +07 on March 03,2017,2017,3,3,16,0,Asia/Bangkok,36,97,18,64,24,5.6,3.5,,,190,South,6,4,1005,29.69,-999,-999,-9999,-9999,,,Haze,hazy,0,0,0,0,0,0,AAXX 03094 48376 31556 21903 10360 20177 39913 40052 57033 70500 82205 333 59035
7:00 PM +07 on March 03,2017,2017,3,3,19,0,Asia/Bangkok,31,88,18,65,37,3.7,2.3,,,180,South,6,4,1006,29.72,-999,-999,-9999,-9999,,,Haze,hazy,0,0,0,0,0,0,AAXX 03124 48376 31956 01802 10312 20185 39920 40062 51007 70500 333 10365 59033
10:00 PM +07 on March 03,2017,2017,3,3,22,0,Asia/Bangkok,27,81,18,64,48,0,0,,,,,5,3,1009,29.8,-999,-999,-9999,-9999,,,Haze,hazy,0,0,0,0,0,0,AAXX 03154 48376 31950 00000 10271 20180 39946 40090 52026 70500 333 59037
1:00 AM +07 on March 04,2017,2017,3,4,1,0,Asia/Bangkok,25,77,18,64,56,3.7,2.3,,,210,SSW,5,3,1009,29.8,-999,-999,-9999,-9999,,,Mist,hazy,0,0,0,0,0,0,AAXX 03184 48376 31950 02102 10248 20178 39943 40089 56002 71000 333 59024
4:00 AM +07 on March 04,2017,2017,3,4,4,0,Asia/Bangkok,22,72,17,63,65,0,0,,,,,4,2,1008,29.77,-999,-999,-9999,-9999,,,Mist,hazy,0,0,0,0,0,0,AAXX 03214 48376 31940 00000 10225 20171 39935 40081 56008 71000 333 59022
7:00 AM +07 on March 04,2017,2017,3,4,7,0,Asia/Bangkok,21,70,18,64,77,0,0,,,,,4,2,1010,29.82,-999,-999,-9999,-9999,,,Mist,hazy,0,0,0,0,0,0,AAXX 04004 48376 31940 00000 10209 20180 39950 40097 52015 71000 333 20206 59020
10:00 AM +07 on March 04,2017,2017,3,4,10,0,Asia/Bangkok,30,86,17,62,35,5.6,3.5,,,80,East,5,3,1011,29.86,-999,-999,-9999,-9999,,,Haze,hazy,0,0,0,0,0,0,AAXX 04034 48376 31950 00803 10302 20169 39966 40109 52016 70500 333 59014
1:00 PM +07 on March 04,2017,2017,3,4,13,0,Asia/Bangkok,36,97,15,60,20,7.4,4.6,,,150,SSE,6,4,1008,29.78,-999,-999,-9999,-9999,,,Haze,hazy,0,0,0,0,0,0,AAXX 04064 48376 31556 21504 10360 20153 39942 40082 57024 70500 82205 333 59004
4:00 PM +07 on March 04,2017,2017,3,4,16,0,Asia/Bangkok,37,99,17,62,20,5.6,3.5,,,220,SW,5,3,1005,29.68,-999,-999,-9999,-9999,,,Haze,hazy,0,0,0,0,0,0,AAXX 04094 48376 31550 22203 10370 20166 39910 40049 57032 70500 81205 333 59003
7:00 PM +07 on March 04,2017,2017,3,4,19,0,Asia/Bangkok,32,90,16,60,27,11.1,6.9,,,250,WSW,5,3,1006,29.71,-999,-999,-9999,-9999,,,Haze,hazy,0,0,0,0,0,0,AAXX 04124 48376 31950 02506 10325 20157 39918 40059 51008 70500 333 10375 59002
10:00 PM +07 on March 04,2017,2017,3,4,22,0,Asia/Bangkok,29,85,18,65,42,3.7,2.3,,,270,West,5,3,1008,29.78,-999,-999,-9999,-9999,,,Haze,hazy,0,0,0,0,0,0,AAXX 04154 48376 31950 02702 10294 20184 39941 40084 52023 70500 333 59006
1:00 AM +07 on March 05,2017,2017,3,5,1,0,Asia/Bangkok,28,82,18,65,47,5.6,3.5,,,270,West,5,3,1008,29.78,-999,-999,-9999,-9999,,,Haze,hazy,0,0,0,0,0,0,AAXX 04184 48376 31950 02703 10280 20183 39940 40084 56001 70500 333 59005
4:00 AM +07 on March 05,2017,2017,3,5,4,0,Asia/Bangkok,26,80,16,60,40,7.4,4.6,,,270,West,5,3,1008,29.77,-999,-999,-9999,-9999,,,Haze,hazy,0,0,0,0,0,0,AAXX 04214 48376 31950 02704 10265 20155 39934 40079 56006 70500 333 59003
7:00 AM +07 on March 05,2017,2017,3,5,7,0,Asia/Bangkok,27,80,18,64,48,5.6,3.5,,,270,West,5,3,1009,29.8,-999,-999,-9999,-9999,,,Haze,hazy,0,0,0,0,0,0,AAXX 05004 48376 31950 02703 10269 20175 39947 40091 52012 70500 333 20257 59006
10:00 AM +07 on March 05,2017,2017,3,5,10,0,Asia/Bangkok,31,88,18,65,36,0,0,,,,,6,4,1011,29.86,-999,-999,-9999,-9999,,,Haze,hazy,0,0,0,0,0,0,AAXX 05034 48376 31956 00000 10313 20183 39969 40111 52022 70500 333 58002
1:00 PM +07 on March 05,2017,2017,3,5,13,0,Asia/Bangkok,36,96,16,60,21,9.3,5.8,,,230,SW,6,4,1008,29.77,-999,-999,-9999,-9999,,,Haze,hazy,0,0,0,0,0,0,AAXX 05064 48376 31956 02305 10356 20156 39940 40080 57029 70500 333 59002
4:00 PM +07 on March 05,2017,2017,3,5,16,0,Asia/Bangkok,37,98,16,60,20,11.1,6.9,,,260,West,7,4,1005,29.68,-999,-999,-9999,-9999,,,Haze,hazy,0,0,0,0,0,0,AAXX 05094 48376 31957 02606 10366 20158 39911 40050 57029 70500 333 58001
7:00 PM +07 on March 05,2017,2017,3,5,19,0,Asia/Bangkok,32,90,16,62,29,5.6,3.5,,,250,WSW,5,3,1006,29.71,-999,-999,-9999,-9999,,,Haze,hazy,0,0,0,0,0,0,AAXX 05124 48376 31950 02503 10325 20165 39918 40059 51007 70500 333 10371 59001
10:00 PM +07 on March 05,2017,2017,3,5,22,0,Asia/Bangkok,30,87,15,59,29,9.3,5.8,,,250,WSW,5,3,1008,29.77,-999,-999,-9999,-9999,,,Haze,hazy,0,0,0,0,0,0,AAXX 05154 48376 31950 02505 10303 20152 39937 40079 52019 70500 333 59005
1:00 AM +07 on March 06,2017,2017,3,6,1,0,Asia/Bangkok,27,80,21,70,65,0,0,,,,,5,3,1008,29.77,-999,-999,-9999,-9999,,,Mist,hazy,0,0,0,0,0,0,AAXX 05184 48380 31950 00000 10267 20213 39988 40081 52001 71000 333 58001
4:00 AM +07 on March 06,2017,2017,3,6,4,0,Asia/Bangkok,24,76,18,64,57,0,0,,,,,4,2,1007,29.75,-999,-999,-9999,-9999,,,Mist,hazy,0,0,0,0,0,0,AAXX 05214 48380 31940 00000 10245 20176 39980 40074 57008 71000 333 59001
7:00 AM +07 on March 06,2017,2017,3,6,7,0,Asia/Bangkok,23,73,18,65,69,0,0,,,,,4,2,1010,29.82,-999,-999,-9999,-9999,,,Mist,hazy,0,0,0,0,0,0,AAXX 06004 48380 31940 00000 10227 20182 30001 40096 52021 71000 333 20223 59002
10:00 AM +07 on March 06,2017,2017,3,6,10,0,Asia/Bangkok,30,87,18,64,35,1.9,1.2,,,350,North,4,2,1011,29.87,-999,-999,-9999,-9999,,,Haze,hazy,0,0,0,0,0,0,AAXX 06034 48380 31940 03501 10305 20175 30020 40113 51019 70500 333 59003
1:00 PM +07 on March 06,2017,2017,3,6,13,0,Asia/Bangkok,35,94,15,59,22,7.4,4.6,,,170,South,4,2,1008,29.78,-999,-999,-9999,-9999,,,Haze,hazy,0,0,0,0,0,0,AAXX 06064 48380 31940 01704 10347 20152 39992 40083 57028 70500 333 59003
4:00 PM +07 on March 06,2017,2017,3,6,16,0,Asia/Bangkok,36,97,18,65,25,3.7,2.3,,,100,East,4,2,1005,29.69,-999,-999,-9999,-9999,,,Haze,hazy,0,0,0,0,0,0,AAXX 06094 48380 31940 01002 10363 20181 39961 40052 57031 70500 333 59005
7:00 PM +07 on March 06,2017,2017,3,6,19,0,Asia/Bangkok,32,90,20,68,38,0,0,,,,,4,2,1006,29.7,-999,-999,-9999,-9999,,,Haze,hazy,0,0,0,0,0,0,AAXX 06124 48380 31940 00000 10322 20198 39966 40057 52004 70500 333 10367 58000
10:00 PM +07 on March 06,2017,2017,3,6,22,0,Asia/Bangkok,29,84,21,69,52,0,0,,,,,4,2,1007,29.75,-999,-999,-9999,-9999,,,Haze,hazy,0,0,0,0,0,0,AAXX 06154 48380 31940 00000 10290 20207 39981 40074 52016 70500 333 59006
1:00 AM +07 on March 07,2017,2017,3,7,1,0,Asia/Bangkok,26,79,21,70,68,0,0,,,,,4,2,1007,29.74,-999,-999,-9999,-9999,,,Mist,hazy,0,0,0,0,0,0,AAXX 06184 48380 31940 00000 10263 20212 39977 40071 57004 71000 333 59010
4:00 AM +07 on March 07,2017,2017,3,7,4,0,Asia/Bangkok,24,76,18,65,60,0,0,,,,,4,2,1006,29.73,-999,-999,-9999,-9999,,,Mist,hazy,0,0,0,0,0,0,AAXX 06214 48380 31940 00000 10245 20182 39971 40065 57006 71000 333 59009
7:00 AM +07 on March 07,2017,2017,3,7,7,0,Asia/Bangkok,23,73,18,65,69,0,0,,,,,4,2,1009,29.8,-999,-999,-9999,-9999,,,Mist,hazy,0,0,0,0,0,0,AAXX 07004 48380 31940 00000 10228 20182 39995 40090 52024 71000 333 20224 59006
10:00 AM +07 on March 07,2017,2017,3,7,10,0,Asia/Bangkok,30,87,16,61,31,3.7,2.3,,,290,WNW,4,2,1011,29.86,-999,-999,-9999,-9999,,,Haze,hazy,0,0,0,0,0,0,AAXX 07034 48380 31940 02902 10305 20161 30016 40109 51021 70500 333 59004
1:00 PM +07 on March 07,2017,2017,3,7,13,0,Asia/Bangkok,36,97,18,64,24,3.7,2.3,,,110,ESE,4,2,1008,29.78,-999,-999,-9999,-9999,,,Haze,hazy,0,0,0,0,0,0,AAXX 07064 48380 31940 21102 10359 20176 39992 40083 57024 70500 80005 333 59001
4:00 PM +07 on March 07,2017,2017,3,7,16,0,Asia/Bangkok,37,98,16,61,20,5.6,3.5,,,140,SE,4,2,1006,29.7,-999,-999,-9999,-9999,,,Haze,hazy,0,0,0,0,0,0,AAXX 07094 48380 31940 01403 10367 20159 39966 40056 57027 70500 333 58004
7:00 PM +07 on March 07,2017,2017,3,7,19,0,Asia/Bangkok,33,91,21,69,40,0,0,,,,,4,2,1006,29.71,-999,-999,-9999,-9999,,,Haze,hazy,0,0,0,0,0,0,AAXX 07124 48380 31540 20000 10327 20208 39968 40060 52003 70500 81205 333 10372 58003
10:00 PM +07 on March 07,2017,2017,3,7,22,0,Asia/Bangkok,30,85,21,69,50,0,0,,,,,4,2,1008,29.78,-999,-999,-9999,-9999,,,Haze,hazy,0,0,0,0,0,0,AAXX 07154 48380 31940 00000 10297 20207 39992 40085 52024 70500 333 58011
1:00 AM +07 on March 08,2017,2017,3,8,1,0,Asia/Bangkok,27,81,20,69,58,0,0,,,,,4,2,1008,29.78,-999,-999,-9999,-9999,,,Mist,hazy,0,0,0,0,0,0,AAXX 07184 48380 31940 00000 10272 20203 39991 40085 57001 71000 333 58014
4:00 AM +07 on March 08,2017,2017,3,8,4,0,Asia/Bangkok,25,78,21,71,72,0,0,,,,,4,2,1007,29.75,-999,-999,-9999,-9999,,,Mist,hazy,0,0,0,0,0,0,AAXX 07214 48380 31940 00000 10253 20214 39981 40074 57011 71000 333 58009
7:00 AM +07 on March 08,2017,2017,3,8,7,0,Asia/Bangkok,24,76,22,72,85,0,0,,,,,2,1,1010,29.82,-999,-999,-9999,-9999,,,Mist,hazy,0,0,0,0,0,0,AAXX 08004 48380 31920 20000 10243 20224 30003 40097 52022 71000 80005 333 20240 58007
10:00 AM +07 on March 08,2017,2017,3,8,10,0,Asia/Bangkok,30,87,24,75,60,3.7,2.3,,,100,East,3,2,1012,29.88,-999,-999,-9999,-9999,,,Mist,hazy,0,0,0,0,0,0,AAXX 08034 48380 31930 01002 10303 20238 30024 40116 52021 71000 333 58008
1:00 PM +07 on March 08,2017,2017,3,8,13,0,Asia/Bangkok,34,94,23,73,41,5.6,3.5,,,60,ENE,3,2,1008,29.78,-999,-999,-9999,-9999,,,Haze,hazy,0,0,0,0,0,0,AAXX 08064 48380 31530 10603 10343 20226 39994 40085 57030 70500 81200 333 58002
4:00 PM +07 on March 08,2017,2017,3,8,16,0,Asia/Bangkok,36,96,21,69,32,7.4,4.6,,,100,East,3,2,1005,29.69,-999,-999,-9999,-9999,,,Haze,hazy,0,0,0,0,0,0,AAXX 08094 48380 31430 21004 10355 20207 39962 40053 57032 70500 81903 333 59003
7:00 PM +07 on March 08,2017,2017,3,8,19,0,Asia/Bangkok,33,91,20,69,38,7.4,4.6,,,150,SSE,3,2,1006,29.7,-999,-999,-9999,-9999,,,Haze,hazy,0,0,0,0,0,0,AAXX 08124 48380 31530 21504 10330 20203 39964 40055 52002 70500 81505 333 10357 59004
10:00 PM +07 on March 08,2017,2017,3,8,22,0,Asia/Bangkok,30,86,21,70,49,0,0,,,,,3,2,1008,29.78,-999,-999,-9999,-9999,,,Scattered Clouds,partlycloudy,0,0,0,0,0,0,AAXX 08154 48380 31430 60000 10300 20210 39991 40084 52027 71311 82976 333 59001
1:00 AM +07 on March 09,2017,2017,3,9,1,0,Asia/Bangkok,29,83,22,71,60,1.9,1.2,,,80,East,3,2,1009,29.79,-999,-999,-9999,-9999,,,Mist,hazy,0,0,0,0,0,0,AAXX 08184 48380 31530 20801 10286 20218 39993 40086 51002 71011 81503 333 58001
4:00 AM +07 on March 09,2017,2017,3,9,4,0,Asia/Bangkok,27,80,23,73,75,5.6,3.5,,,110,ESE,3,2,1008,29.76,-999,-999,-9999,-9999,,,Mist,hazy,0,0,0,0,0,0,AAXX 08214 48380 31530 51103 10267 20230 39983 40077 57010 71011 81536 333 58002
7:00 AM +07 on March 09,2017,2017,3,9,7,0,Asia/Bangkok,26,78,24,74,86,1.9,1.2,,,170,South,2,1,1010,29.82,-999,-999,-9999,-9999,,,Mist,hazy,0,0,0,0,0,0,AAXX 09004 48380 31520 81701 10255 20236 30004 40098 52021 71021 8657/ 333 20251 58001
10:00 AM +07 on March 09,2017,2017,3,9,10,0,Asia/Bangkok,29,84,23,74,65,9.3,5.8,,,150,SSE,3,2,1011,29.86,-999,-999,-9999,-9999,,,Mist,hazy,0,0,0,0,0,0,AAXX 09034 48380 31530 61505 10288 20233 30019 40112 52015 71022 85535 333 59004
1:00 PM +07 on March 09,2017,2017,3,9,13,0,Asia/Bangkok,34,93,23,73,44,9.3,5.8,,,100,East,4,2,1008,29.76,-999,-999,-9999,-9999,,,Haze,hazy,0,0,0,0,0,0,AAXX 09064 48380 31540 21005 10340 20230 39987 40078 57032 70511 82500 333 59006
4:00 PM +07 on March 09,2017,2017,3,9,16,0,Asia/Bangkok,28,82,22,72,65,11.1,6.9,,,100,East,8,5,1006,29.71,-999,-999,-9999,-9999,,,Thunderstorm,tstorms,0,0,0,0,1,0,AAXX 09094 48380 21458 31006 10275 20223 39967 40060 57020 71796 81973 333 58008 60116
7:00 PM +07 on March 09,2017,2017,3,9,19,0,Asia/Bangkok,28,82,22,71,62,5.6,3.5,,,230,SW,5,3,1007,29.74,-999,-999,-9999,-9999,,,Mist,hazy,0,0,0,0,0,0,AAXX 09124 48380 11550 52303 10275 20218 39976 40069 52009 60112 71096 83535 333 10351 58014 70106
10:00 PM +07 on March 09,2017,2017,3,9,22,0,Asia/Bangkok,26,80,22,71,69,3.7,2.3,,,100,East,5,3,1009,29.8,-999,-999,-9999,-9999,,,Mist,hazy,0,0,0,0,0,0,AAXX 09154 48380 31550 21002 10265 20219 39997 40090 52021 71011 81231 333 58006
1:00 AM +07 on March 10,2017,2017,3,10,1,0,Asia/Bangkok,25,77,22,72,81,3.7,2.3,,,60,ENE,5,3,1009,29.8,-999,-999,-9999,-9999,,,Mist,hazy,0,0,0,0,0,0,AAXX 09184 48380 31950 10602 10251 20224 39996 40090 57001 71011 81030 333 58004 70106
4:00 AM +07 on March 10,2017,2017,3,10,4,0,Asia/Bangkok,24,74,22,71,86,0,0,,,,,3,2,1008,29.78,-999,-999,-9999,-9999,,,Mist,hazy,0,0,0,0,0,0,AAXX 09214 48380 31930 00000 10235 20215 39988 40083 57008 71000 333 58006
7:00 AM +07 on March 10,2017,2017,3,10,7,0,Asia/Bangkok,23,74,22,71,89,0,0,,,,,3,2,1010,29.84,-999,-999,-9999,-9999,,,Mist,hazy,0,0,0,0,0,0,AAXX 10004 48380 11930 10000 10231 20219 30009 40104 52021 60114 71000 80001 333 20226 58006 70106
10:00 AM +07 on March 10,2017,2017,3,10,10,0,Asia/Bangkok,28,83,23,74,66,3.7,2.3,,,210,SSW,4,2,1012,29.89,-999,-999,-9999,-9999,,,Mist,hazy,0,0,0,0,0,0,AAXX 10034 48380 31940 02102 10284 20231 30028 40122 52019 71000 333 58009
1:00 PM +07 on March 10,2017,2017,3,10,13,0,Asia/Bangkok,34,92,22,72,43,11.1,6.9,,,70,ENE,5,3,1010,29.82,-999,-999,-9999,-9999,,,Haze,hazy,0,0,0,0,0,0,AAXX 10064 48380 31550 10706 10336 20222 30005 40097 57023 70500 8110/ 333 58019 70106
4:00 PM +07 on March 10,2017,2017,3,10,16,0,Asia/Bangkok,35,95,21,70,34,9.3,5.8,,,110,ESE,6,4,1006,29.71,-999,-999,-9999,-9999,,,Haze,hazy,0,0,0,0,0,0,AAXX 10094 48380 31556 21105 10352 20210 39971 40061 57035 70500 81245 333 58001
7:00 PM +07 on March 10,2017,2017,3,10,19,0,Asia/Bangkok,33,92,23,74,47,0,0,,,,,6,4,1006,29.72,-999,-999,-9999,-9999,,,Haze,hazy,0,0,0,0,0,0,AAXX 10124 48380 31556 30000 10332 20233 39971 40063 54000 70500 81943 333 10355 59006
10:00 PM +07 on March 10,2017,2017,3,10,22,0,Asia/Bangkok,29,85,21,69,51,5.6,3.5,,,180,South,5,3,1009,29.79,-999,-999,-9999,-9999,,,Haze,hazy,0,0,0,0,0,0,AAXX 10154 48380 31550 21803 10294 20208 39995 40088 52024 70500 81505 333 59002
1:00 AM +07 on March 11,2017,2017,3,11,1,0,Asia/Bangkok,28,83,19,67,49,5.6,3.5,,,210,SSW,5,3,1009,29.79,-999,-999,-9999,-9999,,,Haze,hazy,0,0,0,0,0,0,AAXX 10184 48376 31950 02103 10285 20194 39945 40088 56006 70500 333 58002
4:00 AM +07 on March 11,2017,2017,3,11,4,0,Asia/Bangkok,27,81,21,70,61,9.3,5.8,,,270,West,5,3,1008,29.78,-999,-999,-9999,-9999,,,Mist,hazy,0,0,0,0,0,0,AAXX 10214 48376 31950 02705 10270 20210 39939 40083 56006 71000 333 58006
7:00 AM +07 on March 11,2017,2017,3,11,7,0,Asia/Bangkok,25,78,18,64,52,0,0,,,,,6,4,1010,29.83,-999,-999,-9999,-9999,,,Haze,hazy,0,0,0,0,0,0,AAXX 11004 48376 31956 00000 10253 20176 39956 40101 52017 70500 333 20250 58000
10:00 AM +07 on March 11,2017,2017,3,11,10,0,Asia/Bangkok,33,91,18,65,32,5.6,3.5,,,160,SSE,6,4,1012,29.89,-999,-999,-9999,-9999,,,Haze,hazy,0,0,0,0,0,0,AAXX 11034 48376 31956 01603 10326 20184 39978 40120 52021 70500 333 58003
1:00 PM +07 on March 11,2017,2017,3,11,13,0,Asia/Bangkok,37,99,16,60,19,7.4,4.6,,,90,East,6,4,1009,29.79,-999,-999,-9999,-9999,,,Haze,hazy,0,0,0,0,0,0,AAXX 11064 48376 31556 20904 10372 20156 39949 40088 57029 70500 81205 333 58002
4:00 PM +07 on March 11,2017,2017,3,11,16,0,Asia/Bangkok,38,101,16,60,17,9.3,5.8,,,240,WSW,6,4,1006,29.7,-999,-999,-9999,-9999,,,Haze,hazy,0,0,0,0,0,0,AAXX 11094 48376 31556 22405 10385 20156 39919 40058 57030 70500 81205 333 58002
7:00 PM +07 on March 11,2017,2017,3,11,19,0,Asia/Bangkok,34,94,17,62,25,14.8,9.2,,,260,West,6,4,1007,29.75,-999,-999,-9999,-9999,,,Haze,hazy,0,0,0,0,0,0,AAXX 11124 48376 31956 02608 10343 20167 39932 40072 52013 70500 333 10395 58006
10:00 PM +07 on March 11,2017,2017,3,11,22,0,Asia/Bangkok,31,88,22,71,48,13,8.1,,,260,West,6,4,1010,29.83,-999,-999,-9999,-9999,,,Haze,hazy,0,0,0,0,0,0,AAXX 11154 48376 31956 02607 10310 20217 39959 40101 52027 70500 333 58007
4:00 AM +07 on March 13,2017,2017,3,13,4,0,Asia/Bangkok,28,82,18,64,44,9.3,5.8,,,270,West,6,4,1008,29.77,-999,-999,-9999,-9999,,,Haze,hazy,0,0,0,0,0,0,AAXX 12214 48376 31956 02705 10275 20177 39936 40080 57018 70500 333 59008
7:00 AM +07 on March 13,2017,2017,3,13,7,0,Asia/Bangkok,24,76,20,67,68,0,0,,,,,6,4,1011,29.85,-999,-999,-9999,-9999,,,Mist,hazy,0,0,0,0,0,0,AAXX 13004 48376 31956 10000 10244 20196 39962 40108 52026 71000 80001 333 20239 58003
10:00 AM +07 on March 13,2017,2017,3,13,10,0,Asia/Bangkok,33,91,18,65,33,11.1,6.9,,,260,West,7,4,1012,29.89,-999,-999,-9999,-9999,,,Haze,hazy,0,0,0,0,0,0,AAXX 13034 48376 31957 22606 10328 20185 39979 40121 52017 70500 80005 333 59003
1:00 PM +07 on March 13,2017,2017,3,13,13,0,Asia/Bangkok,36,97,13,56,16,16.7,10.4,,,270,West,7,4,1010,29.82,-999,-999,-9999,-9999,,,Haze,hazy,0,0,0,0,0,0,AAXX 13064 48376 31957 12709 10363 20132 39958 40098 57021 70500 80005 333 58008
4:00 PM +07 on March 13,2017,2017,3,13,16,0,Asia/Bangkok,38,100,13,56,15,11.1,6.9,,,270,West,7,4,1006,29.72,-999,-999,-9999,-9999,,,Haze,hazy,0,0,0,0,0,0,AAXX 13094 48376 31957 22706 10378 20132 39924 40063 57034 70500 80005 333 59002
7:00 PM +07 on March 13,2017,2017,3,13,19,0,Asia/Bangkok,34,92,15,59,24,13,8.1,,,250,WSW,6,4,1007,29.75,-999,-999,-9999,-9999,,,Haze,hazy,0,0,0,0,0,0,AAXX 13124 48376 31956 22507 10336 20151 39932 40072 51007 70500 80005 333 10382 59003
10:00 PM +07 on March 13,2017,2017,3,13,22,0,Asia/Bangkok,32,89,14,58,25,7.4,4.6,,,270,West,5,3,1010,29.82,-999,-999,-9999,-9999,,,Haze,hazy,0,0,0,0,0,0,AAXX 13154 48376 31950 02704 10318 20145 39954 40096 52022 70500 333 59006
1:00 AM +07 on March 14,2017,2017,3,14,1,0,Asia/Bangkok,30,85,17,63,38,7.4,4.6,,,270,West,5,3,1009,29.8,-999,-999,-9999,-9999,,,Haze,hazy,0,0,0,0,0,0,AAXX 13184 48376 31950 02704 10295 20173 39948 40091 56006 70500 333 59006
4:00 AM +07 on March 14,2017,2017,3,14,4,0,Asia/Bangkok,29,84,18,65,42,7.4,4.6,,,260,West,5,3,1008,29.76,-999,-999,-9999,-9999,,,Haze,hazy,0,0,0,0,0,0,AAXX 13214 48376 31950 02604 10289 20181 39935 40078 57013 70500 333 59001
7:00 AM +07 on March 14,2017,2017,3,14,7,0,Asia/Bangkok,28,82,19,66,49,5.6,3.5,,,260,West,6,4,1010,29.81,-999,-999,-9999,-9999,,,Haze,hazy,0,0,0,0,0,0,AAXX 14004 48376 31956 02603 10277 20188 39951 40095 52016 70500 333 20272 59013
10:00 AM +07 on March 14,2017,2017,3,14,10,0,Asia/Bangkok,35,94,20,68,33,5.6,3.5,,,340,NNW,7,4,1012,29.88,-999,-999,-9999,-9999,,,Haze,hazy,0,0,0,0,0,0,AAXX 14034 48376 31957 03403 10347 20202 39975 40116 52024 70500 333 59005
1:00 PM +07 on March 14,2017,2017,3,14,13,0,Asia/Bangkok,38,101,14,57,15,5.6,3.5,,,240,WSW,6,4,1009,29.79,-999,-999,-9999,-9999,,,Haze,hazy,0,0,0,0,0,0,AAXX 14064 48376 31556 22403 10381 20140 39949 40088 57026 70500 82205 333 59010
4:00 PM +07 on March 14,2017,2017,3,14,16,0,Asia/Bangkok,38,100,14,57,15,18.5,11.5,,,280,West,7,4,1006,29.73,-999,-999,-9999,-9999,,,Haze,hazy,0,0,0,0,0,0,AAXX 14094 48376 31557 22810 10380 20138 39926 40065 57023 70500 81205 333 58002
7:00 PM +07 on March 14,2017,2017,3,14,19,0,Asia/Bangkok,34,93,16,60,24,9.3,5.8,,,290,WNW,6,4,1007,29.73,-999,-999,-9999,-9999,,,Haze,hazy,0,0,0,0,0,0,AAXX 14124 48376 31956 02905 10341 20158 39928 40068 51001 70500 333 10391 59004
10:00 PM +07 on March 14,2017,2017,3,14,22,0,Asia/Bangkok,31,88,14,56,24,9.3,5.8,,,270,West,5,3,1010,29.82,-999,-999,-9999,-9999,,,Haze,hazy,0,0,0,0,0,0,AAXX 14154 48376 31950 02705 10310 20135 39956 40098 52028 70500 333 58003
1:00 AM +07 on March 15,2017,2017,3,15,1,0,Asia/Bangkok,26,79,14,58,38,0,0,,,,,5,3,1009,29.81,-999,-999,-9999,-9999,,,Haze,hazy,0,0,0,0,0,0,AAXX 14184 48376 31950 00000 10260 20145 39949 40094 56006 70500 333 58003
4:00 AM +07 on March 15,2017,2017,3,15,4,0,Asia/Bangkok,26,79,14,58,38,0,0,,,,,5,3,1008,29.78,-999,-999,-9999,-9999,,,Haze,hazy,0,0,0,0,0,0,AAXX 14214 48376 31950 00000 10259 20145 39940 40084 57010 70500 333 58006
7:00 AM +07 on March 15,2017,2017,3,15,7,0,Asia/Bangkok,22,71,16,60,60,0,0,,,,,5,3,1010,29.83,-999,-999,-9999,-9999,,,Mist,hazy,0,0,0,0,0,0,AAXX 15004 48376 31950 20000 10216 20156 39952 40099 52013 71000 80005 333 20212 58004
10:00 AM +07 on March 15,2017,2017,3,15,10,0,Asia/Bangkok,33,91,14,57,22,5.6,3.5,,,270,West,5,3,1011,29.86,-999,-999,-9999,-9999,,,Haze,hazy,0,0,0,0,0,0,AAXX 15034 48376 31950 22703 10326 20139 39969 40111 52016 70500 80005 333 59005
1:00 PM +07 on March 15,2017,2017,3,15,13,0,Asia/Bangkok,38,100,8,47,9,14.8,9.2,,,260,West,5,3,1008,29.77,-999,-999,-9999,-9999,,,Haze,hazy,0,0,0,0,0,0,AAXX 15064 48376 31950 22608 10380 20083 39940 40079 57029 70500 80005 333 59009
4:00 PM +07 on March 15,2017,2017,3,15,16,0,Asia/Bangkok,38,100,11,52,12,13,8.1,,,270,West,7,4,1005,29.69,-999,-999,-9999,-9999,,,Haze,hazy,0,0,0,0,0,0,AAXX 15094 48376 31957 02707 10379 20113 39914 40053 57026 70500 333 59012
7:00 PM +07 on March 15,2017,2017,3,15,19,0,Asia/Bangkok,34,92,14,56,21,9.3,5.8,,,280,West,5,3,1007,29.73,-999,-999,-9999,-9999,,,Haze,hazy,0,0,0,0,0,0,AAXX 15124 48376 31950 22805 10335 20136 39925 40066 52011 70500 80005 333 10386 59002
10:00 PM +07 on March 15,2017,2017,3,15,22,0,Asia/Bangkok,30,86,15,60,31,5.6,3.5,,,260,West,5,3,1009,29.79,-999,-999,-9999,-9999,,,Haze,hazy,0,0,0,0,0,0,AAXX 15154 48376 31950 02603 10302 20153 39945 40088 52020 70500 333 59010
1:00 AM +07 on March 16,2017,2017,3,16,1,0,Asia/Bangkok,27,81,19,66,52,1.9,1.2,,,310,NW,3,2,1008,29.78,-999,-999,-9999,-9999,,,Haze,hazy,0,0,0,0,0,0,AAXX 15184 48380 31930 03101 10272 20191 39990 40083 57005 70500 333 59005
4:00 AM +07 on March 16,2017,2017,3,16,4,0,Asia/Bangkok,25,77,19,66,60,0,0,,,,,3,2,1007,29.75,-999,-999,-9999,-9999,,,Mist,hazy,0,0,0,0,0,0,AAXX 15214 48380 31930 00000 10250 20187 39978 40072 57011 71000 333 59012
7:00 AM +07 on March 16,2017,2017,3,16,7,0,Asia/Bangkok,25,78,23,73,81,0,0,,,,,3,2,1009,29.79,-999,-999,-9999,-9999,,,Mist,hazy,0,0,0,0,0,0,AAXX 16004 48380 31930 00000 10254 20229 39993 40087 52014 71000 333 20242 59016
10:00 AM +07 on March 16,2017,2017,3,16,10,0,Asia/Bangkok,30,86,24,75,63,5.6,3.5,,,160,SSE,3,2,1010,29.84,-999,-999,-9999,-9999,,,Mist,hazy,0,0,0,0,0,0,AAXX 16034 48380 31930 01603 10302 20240 30012 40104 52019 71000 333 59009
1:00 PM +07 on March 16,2017,2017,3,16,13,0,Asia/Bangkok,34,94,24,74,44,5.6,3.5,,,70,ENE,3,2,1008,29.78,-999,-999,-9999,-9999,,,Haze,hazy,0,0,0,0,0,0,AAXX 16064 48380 31530 10703 10342 20236 39991 40082 57020 70500 81140 333 59012
4:00 PM +07 on March 16,2017,2017,3,16,16,0,Asia/Bangkok,36,97,21,70,33,3.7,2.3,,,130,SE,3,2,1004,29.66,-999,-999,-9999,-9999,,,Haze,hazy,0,0,0,0,0,0,AAXX 16094 48380 31930 21302 10360 20213 39954 40044 57037 70500 80005 333 59012
7:00 PM +07 on March 16,2017,2017,3,16,19,0,Asia/Bangkok,34,93,22,72,41,0,0,,,,,3,2,1005,29.69,-999,-999,-9999,-9999,,,Haze,hazy,0,0,0,0,0,0,AAXX 16124 48380 31530 30000 10337 20222 39961 40052 52007 70500 81245 333 10365 59011
10:00 PM +07 on March 16,2017,2017,3,16,22,0,Asia/Bangkok,25,77,22,72,82,11.1,6.9,,,50,NE,7,4,1011,29.87,-999,-999,-9999,-9999,,,Thunderstorms and Rain,tstorms,0,1,0,0,1,0,AAXX 16154 48380 21557 80506 10252 20225 30019 40113 52058 79592 82976 333 58026 60105
1:00 AM +07 on March 17,2017,2017,3,17,1,0,Asia/Bangkok,27,81,21,70,62,3.7,2.3,,,210,SSW,5,3,1009,29.8,-999,-999,-9999,-9999,,,Mist,hazy,0,0,0,0,0,0,AAXX 16184 48376 31950 22102 10271 20212 39947 40091 51005 71000 80005 333 58007
4:00 AM +07 on March 17,2017,2017,3,17,4,0,Asia/Bangkok,25,77,20,69,69,0,0,,,,,5,3,1008,29.77,-999,-999,-9999,-9999,,,Mist,hazy,0,0,0,0,0,0,AAXX 16214 48376 31950 00000 10250 20204 39936 40081 57011 71000 333 58011
7:00 AM +07 on March 17,2017,2017,3,17,7,0,Asia/Bangkok,23,74,20,69,78,0,0,,,,,5,3,1009,29.81,-999,-999,-9999,-9999,,,Mist,hazy,0,0,0,0,0,0,AAXX 17004 48376 31950 20000 10232 20203 39948 40094 52012 71000 80005 333 20230 58006
10:00 AM +07 on March 17,2017,2017,3,17,10,0,Asia/Bangkok,29,85,22,72,58,0,0,,,,,5,3,1011,29.86,-999,-999,-9999,-9999,,,Mist,hazy,0,0,0,0,0,0,AAXX 17034 48376 31950 20000 10292 20224 39967 40110 52018 71000 82035 333 58008
1:00 PM +07 on March 17,2017,2017,3,17,13,0,Asia/Bangkok,33,91,22,72,46,7.4,4.6,,,200,SSW,5,3,1009,29.79,-999,-999,-9999,-9999,,,Haze,hazy,0,0,0,0,0,0,AAXX 17064 48376 31550 52004 10330 20225 39946 40087 57021 70520 82236 333 58016
4:00 PM +07 on March 17,2017,2017,3,17,16,0,Asia/Bangkok,36,97,22,72,35,5.6,3.5,,,190,South,6,4,1005,29.69,-999,-999,-9999,-9999,,,Haze,hazy,0,0,0,0,0,0,AAXX 17094 48376 31556 21903 10360 20222 39914 40053 57032 70510 82205 333 58017
7:00 PM +07 on March 17,2017,2017,3,17,19,0,Asia/Bangkok,32,89,22,72,49,0,0,,,,,5,3,1007,29.73,-999,-999,-9999,-9999,,,Haze,hazy,0,0,0,0,0,0,AAXX 17124 48376 31950 20000 10318 20224 39925 40066 52011 70510 82035 333 10364 58018
10:00 PM +07 on March 17,2017,2017,3,17,22,0,Asia/Bangkok,29,84,23,74,65,3.7,2.3,,,250,WSW,5,3,1009,29.81,-999,-999,-9999,-9999,,,Mist,hazy,0,0,0,0,0,0,AAXX 17154 48376 31950 02502 10291 20234 39950 40093 52026 71000 333 58010
1:00 AM +07 on March 18,2017,2017,3,18,1,0,Asia/Bangkok,28,82,24,74,72,0,0,,,,,10,6,1010,29.83,-999,-999,-9999,-9999,,,,,0,0,0,0,0,0,AAXX 17184 48380 32960 00000 10277 20235 30006 40099 52001 333 58004
4:00 AM +07 on March 18,2017,2017,3,18,4,0,Asia/Bangkok,26,78,24,75,87,0,0,,,,,10,6,1010,29.81,-999,-999,-9999,-9999,,,Scattered Clouds,partlycloudy,0,0,0,0,0,0,AAXX 17214 48380 32560 20000 10257 20238 30001 40095 57005 81545 333 58012
7:00 AM +07 on March 18,2017,2017,3,18,7,0,Asia/Bangkok,25,77,24,75,90,0,0,,,,,2,1,1011,29.87,-999,-999,-9999,-9999,,,Mist,hazy,0,0,0,0,0,0,AAXX 18004 48380 31520 10000 10250 20237 30019 40114 52018 71000 81100 333 20245 58016
10:00 AM +07 on March 18,2017,2017,3,18,10,0,Asia/Bangkok,29,83,25,76,75,3.7,2.3,,,110,ESE,3,2,1013,29.92,-999,-999,-9999,-9999,,,Mist,hazy,0,0,0,0,0,0,AAXX 18034 48380 31530 61102 10286 20247 30039 40132 52020 71000 85706 333 58019
1:00 PM +07 on March 18,2017,2017,3,18,13,0,Asia/Bangkok,33,91,24,76,53,3.7,2.3,,,10,North,4,2,1011,29.86,-999,-999,-9999,-9999,,,Haze,hazy,0,0,0,0,0,0,AAXX 18064 48380 31540 50102 10326 20243 30020 40112 57019 70521 84102 333 58012
4:00 PM +07 on March 18,2017,2017,3,18,16,0,Asia/Bangkok,27,81,23,74,74,0,0,,,,,8,5,1009,29.79,-999,-999,-9999,-9999,,,Thunderstorms and Rain,tstorms,0,1,0,0,1,0,AAXX 18094 48380 21558 60000 10270 20233 39992 40086 57027 79591 82906 333 58019 60127
7:00 PM +07 on March 18,2017,2017,3,18,19,0,Asia/Bangkok,27,81,23,73,71,0,0,,,,,8,5,1009,29.79,-999,-999,-9999,-9999,,,Mist,hazy,0,0,0,0,0,0,AAXX 18124 48380 11558 10000 10273 20229 39994 40087 52002 60122 71092 81100 333 10345 58019 70120
10:00 PM +07 on March 18,2017,2017,3,18,22,0,Asia/Bangkok,26,80,24,74,79,1.9,1.2,,,110,ESE,6,4,1011,29.85,-999,-999,-9999,-9999,,,Mist,hazy,0,0,0,0,0,0,AAXX 18154 48380 31556 21101 10264 20236 30012 40106 52018 71000 82100 333 58008
1:00 AM +07 on March 19,2017,2017,3,19,1,0,Asia/Bangkok,27,81,18,64,46,0,0,,,,,4,2,1011,29.86,-999,-999,-9999,-9999,,,Haze,hazy,0,0,0,0,0,0,AAXX 18184 48376 31940 00000 10271 20176 39965 40109 51006 70500 333 58010
4:00 AM +07 on March 19,2017,2017,3,19,4,0,Asia/Bangkok,26,79,12,54,31,5.6,3.5,,,280,West,4,2,1011,29.85,-999,-999,-9999,-9999,,,Haze,hazy,0,0,0,0,0,0,AAXX 18214 48376 31940 02803 10260 20121 39963 40108 56002 70500 333 58015
7:00 AM +07 on March 19,2017,2017,3,19,7,0,Asia/Bangkok,24,74,16,60,53,0,0,,,,,4,2,1012,29.9,-999,-999,-9999,-9999,,,Haze,hazy,0,0,0,0,0,0,AAXX 19004 48376 31940 20000 10236 20158 39978 40124 52015 70500 80005 333 20233 58009
10:00 AM +07 on March 19,2017,2017,3,19,10,0,Asia/Bangkok,33,91,15,59,24,11.1,6.9,,,250,WSW,5,3,1014,29.94,-999,-999,-9999,-9999,,,Haze,hazy,0,0,0,0,0,0,AAXX 19034 48376 31550 22506 10330 20149 39994 40136 52016 70500 81205 333 58007
1:00 PM +07 on March 19,2017,2017,3,19,13,0,Asia/Bangkok,37,99,16,60,19,11.1,6.9,,,250,WSW,5,3,1011,29.86,-999,-999,-9999,-9999,,,Haze,hazy,0,0,0,0,0,0,AAXX 19064 48376 31550 22506 10370 20157 39970 40110 57024 70500 81205 333 58010
4:00 PM +07 on March 19,2017,2017,3,19,16,0,Asia/Bangkok,38,100,14,57,15,14.8,9.2,,,250,WSW,5,3,1007,29.75,-999,-999,-9999,-9999,,,Haze,hazy,0,0,0,0,0,0,AAXX 19094 48376 31550 22508 10378 20137 39933 40072 57037 70500 81205 333 58006
7:00 PM +07 on March 19,2017,2017,3,19,19,0,Asia/Bangkok,34,93,15,58,22,14.8,9.2,,,270,West,5,3,1008,29.77,-999,-999,-9999,-9999,,,Haze,hazy,0,0,0,0,0,0,AAXX 19124 48376 31950 22708 10338 20147 39940 40081 51008 70500 80005 333 10383 58002
10:00 PM +07 on March 19,2017,2017,3,19,22,0,Asia/Bangkok,30,87,17,63,35,7.4,4.6,,,270,West,5,3,1011,29.86,-999,-999,-9999,-9999,,,Haze,hazy,0,0,0,0,0,0,AAXX 19154 48376 31950 02704 10303 20174 39967 40110 52026 70500 333 58008
1:00 AM +07 on March 20,2017,2017,3,20,1,0,Asia/Bangkok,27,81,14,58,35,0,0,,,,,5,3,1011,29.85,-999,-999,-9999,-9999,,,Haze,hazy,0,0,0,0,0,0,AAXX 19184 48376 31950 00000 10272 20144 39964 40108 56003 70500 333 59001
4:00 AM +07 on March 20,2017,2017,3,20,4,0,Asia/Bangkok,24,75,14,57,43,0,0,,,,,5,3,1010,29.83,-999,-999,-9999,-9999,,,Haze,hazy,0,0,0,0,0,0,AAXX 19214 48376 31950 00000 10238 20139 39956 40102 56007 70500 333 59006
7:00 AM +07 on March 20,2017,2017,3,20,7,0,Asia/Bangkok,21,70,13,56,51,0,0,,,,,6,4,1012,29.88,-999,-999,-9999,-9999,,,Haze,hazy,0,0,0,0,0,0,AAXX 20004 48376 31956 00000 10213 20133 39969 40116 52013 70500 333 20212 59008
10:00 AM +07 on March 20,2017,2017,3,20,10,0,Asia/Bangkok,33,91,12,54,19,3.7,2.3,,,30,NNE,5,3,1013,29.91,-999,-999,-9999,-9999,,,Haze,hazy,0,0,0,0,0,0,AAXX 20034 48376 31950 00302 10326 20124 39984 40126 52014 70500 333 59011
1:00 PM +07 on March 20,2017,2017,3,20,13,0,Asia/Bangkok,38,100,15,59,17,5.6,3.5,,,90,East,5,3,1009,29.8,-999,-999,-9999,-9999,,,Haze,hazy,0,0,0,0,0,0,AAXX 20064 48376 31950 00903 10375 20149 39951 40090 57033 70500 333 59020
4:00 PM +07 on March 20,2017,2017,3,20,16,0,Asia/Bangkok,38,101,16,60,17,3.7,2.3,,,240,WSW,6,4,1006,29.71,-999,-999,-9999,-9999,,,Haze,hazy,0,0,0,0,0,0,AAXX 20094 48376 31556 22402 10382 20155 39922 40061 57029 70500 81205 333 59011
7:00 PM +07 on March 20,2017,2017,3,20,19,0,Asia/Bangkok,34,93,13,55,19,13,8.1,,,250,WSW,5,3,1007,29.74,-999,-999,-9999,-9999,,,Haze,hazy,0,0,0,0,0,0,AAXX 20124 48376 31950 22507 10338 20129 39930 40071 51008 70500 80005 333 10390 59010
10:00 PM +07 on March 20,2017,2017,3,20,22,0,Asia/Bangkok,31,88,14,58,26,14.8,9.2,,,270,West,5,3,1010,29.83,-999,-999,-9999,-9999,,,Haze,hazy,0,0,0,0,0,0,AAXX 20154 48376 31950 22708 10313 20144 39959 40102 52029 70500 80005 333 59008
1:00 AM +07 on March 21,2017,2017,3,21,1,0,Asia/Bangkok,29,83,14,57,30,9.3,5.8,,,250,WSW,5,3,1011,29.86,-999,-999,-9999,-9999,,,Haze,hazy,0,0,0,0,0,0,AAXX 20184 48376 31950 22505 10286 20137 39965 40109 51006 70500 80005 333 58001
4:00 AM +07 on March 21,2017,2017,3,21,4,0,Asia/Bangkok,27,81,18,64,48,9.3,5.8,,,260,West,5,3,1010,29.84,-999,-999,-9999,-9999,,,Haze,hazy,0,0,0,0,0,0,AAXX 20214 48376 31950 02605 10270 20180 39958 40103 56006 70500 333 58001
7:00 AM +07 on March 21,2017,2017,3,21,7,0,Asia/Bangkok,26,79,19,67,57,7.4,4.6,,,250,WSW,5,3,1011,29.87,-999,-999,-9999,-9999,,,Mist,hazy,0,0,0,0,0,0,AAXX 21004 48376 31550 32504 10259 20192 39969 40114 52011 71000 82535 333 20252 59002
10:00 AM +07 on March 21,2017,2017,3,21,10,0,Asia/Bangkok,32,90,20,67,37,5.6,3.5,,,200,SSW,6,4,1013,29.91,-999,-999,-9999,-9999,,,Haze,hazy,0,0,0,0,0,0,AAXX 21034 48376 31956 22003 10325 20196 39984 40127 52015 70500 80005 333 58001
1:00 PM +07 on March 21,2017,2017,3,21,13,0,Asia/Bangkok,37,98,13,55,15,14.8,9.2,,,270,West,6,4,1009,29.81,-999,-999,-9999,-9999,,,Haze,hazy,0,0,0,0,0,0,AAXX 21064 48376 31556 22708 10366 20127 39953 40093 57031 70500 81205 333 58003
4:00 PM +07 on March 21,2017,2017,3,21,16,0,Asia/Bangkok,37,99,15,58,17,14.8,9.2,,,250,WSW,6,4,1006,29.72,-999,-999,-9999,-9999,,,Haze,hazy,0,0,0,0,0,0,AAXX 21094 48376 31556 22508 10370 20146 39923 40062 57030 70500 81205 333 58001
7:00 PM +07 on March 21,2017,2017,3,21,19,0,Asia/Bangkok,33,91,16,61,26,9.3,5.8,,,260,West,5,3,1007,29.75,-999,-999,-9999,-9999,,,Haze,hazy,0,0,0,0,0,0,AAXX 21124 48376 31950 02605 10330 20160 39931 40072 51008 70500 333 10377 58000
10:00 PM +07 on March 21,2017,2017,3,21,22,0,Asia/Bangkok,31,87,18,64,36,14.8,9.2,,,260,West,5,3,1010,29.82,-999,-999,-9999,-9999,,,Haze,hazy,0,0,0,0,0,0,AAXX 21154 48376 31950 02608 10306 20178 39955 40097 52024 70500 333 59004
1:00 AM +07 on March 22,2017,2017,3,22,1,0,Asia/Bangkok,28,83,18,65,46,13,8.1,,,270,West,5,3,1010,29.82,-999,-999,-9999,-9999,,,Haze,hazy,0,0,0,0,0,0,AAXX 21184 48376 31950 02707 10282 20185 39952 40096 56003 70500 333 59013
4:00 AM +07 on March 22,2017,2017,3,22,4,0,Asia/Bangkok,28,82,18,65,46,5.6,3.5,,,240,WSW,4,2,1009,29.79,-999,-999,-9999,-9999,,,Haze,hazy,0,0,0,0,0,0,AAXX 21214 48376 31940 02403 10275 20182 39942 40086 57010 70500 333 59017
7:00 AM +07 on March 22,2017,2017,3,22,7,0,Asia/Bangkok,25,77,20,68,68,0,0,,,,,4,2,1010,29.83,-999,-999,-9999,-9999,,,Mist,hazy,0,0,0,0,0,0,AAXX 22004 48376 31940 00000 10248 20202 39957 40102 52015 71000 333 20244 59012
10:00 AM +07 on March 22,2017,2017,3,22,10,0,Asia/Bangkok,33,91,18,65,32,7.4,4.6,,,280,West,5,3,1011,29.86,-999,-999,-9999,-9999,,,Haze,hazy,0,0,0,0,0,0,AAXX 22034 48376 31950 22804 10327 20182 39969 40111 52012 70500 80005 333 59015
1:00 PM +07 on March 22,2017,2017,3,22,13,0,Asia/Bangkok,37,98,12,53,14,16.7,10.4,,,260,West,6,4,1008,29.77,-999,-999,-9999,-9999,,,Haze,hazy,0,0,0,0,0,0,AAXX 22064 48376 31956 02609 10368 20118 39942 40081 57027 70500 333 59011
4:00 PM +07 on March 22,2017,2017,3,22,16,0,Asia/Bangkok,38,100,12,54,14,11.1,6.9,,,310,NW,6,4,1005,29.68,-999,-999,-9999,-9999,,,Haze,hazy,0,0,0,0,0,0,AAXX 22094 48376 31956 03106 10380 20125 39910 40048 57032 70500 333 59014
7:00 PM +07 on March 22,2017,2017,3,22,19,0,Asia/Bangkok,34,93,14,57,21,7.4,4.6,,,250,WSW,5,3,1006,29.72,-999,-999,-9999,-9999,,,Haze,hazy,0,0,0,0,0,0,AAXX 22124 48376 31950 02504 10340 20141 39921 40062 52011 70500 333 10387 59010
10:00 PM +07 on March 22,2017,2017,3,22,22,0,Asia/Bangkok,30,85,17,62,37,0,0,,,,,5,3,1008,29.78,-999,-999,-9999,-9999,,,Haze,hazy,0,0,0,0,0,0,AAXX 22154 48376 31950 00000 10296 20169 39942 40085 52021 70500 333 59013
1:00 AM +07 on March 23,2017,2017,3,23,1,0,Asia/Bangkok,26,80,19,67,55,0,0,,,,,4,2,1008,29.78,-999,-999,-9999,-9999,,,Mist,hazy,0,0,0,0,0,0,AAXX 22184 48380 31940 00000 10264 20193 39991 40085 54000 71000 333 59007
4:00 AM +07 on March 23,2017,2017,3,23,4,0,Asia/Bangkok,25,76,19,66,64,0,0,,,,,4,2,1007,29.75,-999,-999,-9999,-9999,,,Mist,hazy,0,0,0,0,0,0,AAXX 22214 48380 31940 00000 10247 20189 39980 40074 57011 71000 333 59010
7:00 AM +07 on March 23,2017,2017,3,23,7,0,Asia/Bangkok,24,74,19,66,71,0,0,,,,,3,2,1010,29.81,-999,-999,-9999,-9999,,,Mist,hazy,0,0,0,0,0,0,AAXX 23004 48380 31530 20000 10235 20191 30000 40095 52020 71000 81145 333 20232 59003
10:00 AM +07 on March 23,2017,2017,3,23,10,0,Asia/Bangkok,31,87,20,68,43,5.6,3.5,,,320,NW,3,2,1012,29.88,-999,-999,-9999,-9999,,,Haze,hazy,0,0,0,0,0,0,AAXX 23034 48380 31930 03203 10307 20198 30027 40119 52026 70500 333 58004
1:00 PM +07 on March 23,2017,2017,3,23,13,0,Asia/Bangkok,35,96,22,71,35,7.4,4.6,,,100,East,3,2,1009,29.81,-999,-999,-9999,-9999,,,Haze,hazy,0,0,0,0,0,0,AAXX 23064 48380 31530 11004 10353 20217 30003 40094 57023 70500 81100 333 58006
4:00 PM +07 on March 23,2017,2017,3,23,16,0,Asia/Bangkok,37,98,21,71,32,9.3,5.8,,,120,ESE,5,3,1006,29.72,-999,-999,-9999,-9999,,,Haze,hazy,0,0,0,0,0,0,AAXX 23094 48380 31550 11205 10366 20214 39974 40064 57030 70500 81100 333 58005
7:00 PM +07 on March 23,2017,2017,3,23,19,0,Asia/Bangkok,34,92,24,74,48,0,0,,,,,4,2,1007,29.74,-999,-999,-9999,-9999,,,Haze,hazy,0,0,0,0,0,0,AAXX 23124 48380 31540 10000 10336 20236 39977 40069 52004 70500 81100 333 10368 58004
10:00 PM +07 on March 23,2017,2017,3,23,22,0,Asia/Bangkok,29,85,23,74,63,0,0,,,,,4,2,1009,29.8,-999,-999,-9999,-9999,,,Mist,hazy,0,0,0,0,0,0,AAXX 23154 48380 31940 00000 10294 20234 39998 40091 52021 71000 333 58006
1:00 AM +07 on March 24,2017,2017,3,24,1,0,Asia/Bangkok,28,82,24,75,75,0,0,,,,,4,2,1009,29.8,-999,-999,-9999,-9999,,,Mist,hazy,0,0,0,0,0,0,AAXX 23184 48380 31940 00000 10279 20240 39998 40091 57001 71000 333 58006
4:00 AM +07 on March 24,2017,2017,3,24,4,0,Asia/Bangkok,27,80,24,75,81,0,0,,,,,4,2,1008,29.77,-999,-999,-9999,-9999,,,Mist,hazy,0,0,0,0,0,0,AAXX 23214 48380 31540 20000 10269 20240 39987 40081 57011 71000 81545 333 58006
7:00 AM +07 on March 24,2017,2017,3,24,7,0,Asia/Bangkok,26,78,23,74,84,0,0,,,,,4,2,1010,29.84,-999,-999,-9999,-9999,,,Mist,hazy,0,0,0,0,0,0,AAXX 24004 48380 31940 20000 10255 20234 30011 40105 52024 71000 80005 333 20251 58010
10:00 AM +07 on March 24,2017,2017,3,24,10,0,Asia/Bangkok,31,88,23,74,55,1.9,1.2,,,40,NE,4,2,1012,29.89,-999,-999,-9999,-9999,,,Haze,hazy,0,0,0,0,0,0,AAXX 24034 48380 31940 00401 10310 20233 30030 40122 50019 70500 333 58003
1:00 PM +07 on March 24,2017,2017,3,24,13,0,Asia/Bangkok,35,95,22,72,39,7.4,4.6,,,60,ENE,4,2,1010,29.82,-999,-999,-9999,-9999,,,Haze,hazy,0,0,0,0,0,0,AAXX 24064 48380 31540 10604 10350 20224 30007 40098 57023 70500 81100 333 58004
4:00 PM +07 on March 24,2017,2017,3,24,16,0,Asia/Bangkok,36,98,21,70,31,1.9,1.2,,,110,ESE,4,2,1006,29.72,-999,-999,-9999,-9999,,,Haze,hazy,0,0,0,0,0,0,AAXX 24094 48380 31940 01101 10365 20211 39974 40064 57034 70500 333 58000
7:00 PM +07 on March 24,2017,2017,3,24,19,0,Asia/Bangkok,34,92,23,74,47,3.7,2.3,,,200,SSW,4,2,1007,29.75,-999,-999,-9999,-9999,,,Haze,hazy,0,0,0,0,0,0,AAXX 24124 48380 31540 62002 10336 20234 39981 40072 52008 70500 82206 333 10367 58004
10:00 PM +07 on March 24,2017,2017,3,24,22,0,Asia/Bangkok,26,78,22,71,73,5.6,3.5,,,60,ENE,5,3,1012,29.89,-999,-999,-9999,-9999,,,Mist,hazy,0,0,0,0,0,0,AAXX 24154 48380 21550 60603 10257 20216 30026 40120 52045 71092 82706 333 58029 69926
1:00 AM +07 on March 25,2017,2017,3,25,1,0,Asia/Bangkok,26,79,22,71,69,3.7,2.3,,,150,SSE,5,3,1012,29.88,-999,-999,-9999,-9999,,,Mist,hazy,0,0,0,0,0,0,AAXX 24184 48380 11950 61502 10260 20215 30023 40117 57004 69923 71092 80006 333 58025 70002
4:00 AM +07 on March 25,2017,2017,3,25,4,0,Asia/Bangkok,25,77,23,73,83,1.9,1.2,,,50,NE,5,3,1010,29.84,-999,-999,-9999,-9999,,,Mist,hazy,0,0,0,0,0,0,AAXX 24214 48380 31950 50501 10249 20227 30010 40104 57013 71021 80002 333 58023
7:00 AM +07 on March 25,2017,2017,3,25,7,0,Asia/Bangkok,25,76,23,74,90,3.7,2.3,,,330,NNW,3,2,1012,29.9,-999,-999,-9999,-9999,,,Mist,hazy,0,0,0,0,0,0,AAXX 25004 48380 11930 63302 10247 20231 30030 40124 52020 60014 71011 80002 333 20243 58019 70010
10:00 AM +07 on March 25,2017,2017,3,25,10,0,Asia/Bangkok,30,86,24,75,62,3.7,2.3,,,90,East,5,3,1014,29.95,-999,-999,-9999,-9999,,,Mist,hazy,0,0,0,0,0,0,AAXX 25034 48380 31550 20902 10300 20238 30048 40141 51018 71020 82102 333 58019
1:00 PM +07 on March 25,2017,2017,3,25,13,0,Asia/Bangkok,34,93,22,72,42,3.7,2.3,,,70,ENE,5,3,1011,29.86,-999,-999,-9999,-9999,,,Haze,hazy,0,0,0,0,0,0,AAXX 25064 48380 31950 60702 10339 20224 30017 40109 57031 70500 80002 333 58010 70010
4:00 PM +07 on March 25,2017,2017,3,25,16,0,Asia/Bangkok,35,96,21,70,34,3.7,2.3,,,110,ESE,5,3,1008,29.75,-999,-999,-9999,-9999,,,Haze,hazy,0,0,0,0,0,0,AAXX 25094 48380 31950 21102 10353 20212 39984 40075 57033 70520 80002 333 58011
7:00 PM +07 on March 25,2017,2017,3,25,19,0,Asia/Bangkok,32,90,23,73,48,0,0,,,,,5,3,1008,29.77,-999,-999,-9999,-9999,,,Haze,hazy,0,0,0,0,0,0,AAXX 25124 48380 31950 30000 10321 20226 39988 40079 52004 70500 80002 333 10355 58007 70010
10:00 PM +07 on March 25,2017,2017,3,25,22,0,Asia/Bangkok,29,84,23,74,64,0,0,,,,,5,3,1011,29.85,-999,-999,-9999,-9999,,,Mist,hazy,0,0,0,0,0,0,AAXX 25154 48380 31950 00000 10290 20232 30015 40108 52027 71010 333 59013
1:00 AM +07 on March 27,2017,2017,3,27,1,0,Asia/Bangkok,28,83,21,69,55,5.6,3.5,,,140,SE,3,2,1013,29.92,-999,-999,-9999,-9999,,,Haze,hazy,0,0,0,0,0,0,AAXX 26184 48376 31930 21403 10281 20207 39988 40132 51020 70510 80005 333 58028
4:00 AM +07 on March 27,2017,2017,3,27,4,0,Asia/Bangkok,27,81,21,70,62,7.4,4.6,,,140,SE,3,2,1013,29.93,-999,-999,-9999,-9999,,,Mist,hazy,0,0,0,0,0,0,AAXX 26214 48376 31930 21404 10271 20212 39988 40133 54000 71000 80005 333 58036
7:00 AM +07 on March 27,2017,2017,3,27,7,0,Asia/Bangkok,27,80,22,71,66,0,0,,,,,3,2,1015,29.96,-999,-999,-9999,-9999,,,Mist,hazy,0,0,0,0,0,0,AAXX 27004 48376 31530 70000 10269 20215 30001 40146 52013 71020 83576 333 20260 58034
10:00 AM +07 on March 27,2017,2017,3,27,10,0,Asia/Bangkok,28,82,22,71,63,9.3,5.8,,,140,SE,5,3,1017,30.03,-999,-999,-9999,-9999,,,Mist,hazy,0,0,0,0,0,0,AAXX 27034 48376 31550 81405 10280 20219 30025 40169 52023 71022 84966 333 58043
1:00 PM +07 on March 27,2017,2017,3,27,13,0,Asia/Bangkok,31,87,22,71,50,11.1,6.9,,,150,SSE,5,3,1015,29.99,-999,-999,-9999,-9999,,,Haze,hazy,0,0,0,0,0,0,AAXX 27064 48376 31550 61506 10306 20217 30010 40153 57015 70522 83966 333 58057
4:00 PM +07 on March 27,2017,2017,3,27,16,0,Asia/Bangkok,30,86,22,71,52,5.6,3.5,,,140,SE,5,3,1013,29.91,-999,-999,-9999,-9999,,,Haze,hazy,0,0,0,0,0,0,AAXX 27094 48376 31550 61403 10301 20216 39983 40126 57027 70522 83966 333 58064
7:00 PM +07 on March 27,2017,2017,3,27,19,0,Asia/Bangkok,29,84,22,71,56,0,0,,,,,5,3,1013,29.91,-999,-999,-9999,-9999,,,Mist,hazy,0,0,0,0,0,0,AAXX 27124 48376 31550 30000 10289 20216 39984 40128 51001 71020 82235 333 10334 58052
10:00 PM +07 on March 27,2017,2017,3,27,22,0,Asia/Bangkok,27,81,22,72,68,0,0,,,,,5,3,1016,30,-999,-999,-9999,-9999,,,Mist,hazy,0,0,0,0,0,0,AAXX 27154 48376 31550 30000 10270 20224 30012 40157 52029 71000 82535 333 58047
1:00 AM +07 on March 28,2017,2017,3,28,1,0,Asia/Bangkok,26,78,22,71,75,0,0,,,,,5,3,1015,29.97,-999,-999,-9999,-9999,,,Mist,hazy,0,0,0,0,0,0,AAXX 27184 48376 31550 20000 10255 20219 30004 40149 56009 71000 82505 333 58017
4:00 AM +07 on March 28,2017,2017,3,28,4,0,Asia/Bangkok,24,76,21,70,78,0,0,,,,,5,3,1014,29.93,-999,-999,-9999,-9999,,,Mist,hazy,0,0,0,0,0,0,AAXX 27214 48376 31550 20000 10242 20213 39989 40135 57015 71000 82505 333 58002
7:00 AM +07 on March 28,2017,2017,3,28,7,0,Asia/Bangkok,24,75,21,71,82,0,0,,,,,4,2,1015,29.97,-999,-999,-9999,-9999,,,Mist,hazy,0,0,0,0,0,0,AAXX 28004 48376 31540 50000 10241 20214 30003 40149 52014 71020 82536 333 20238 58003
10:00 AM +07 on March 28,2017,2017,3,28,10,0,Asia/Bangkok,30,87,22,71,50,5.6,3.5,,,130,SE,4,2,1016,30,-999,-999,-9999,-9999,,,Haze,hazy,0,0,0,0,0,0,AAXX 28034 48376 31540 21303 10303 20217 30015 40159 52013 70510 82205 333 59011
1:00 PM +07 on March 28,2017,2017,3,28,13,0,Asia/Bangkok,34,93,22,71,39,7.4,4.6,,,40,NE,4,2,1013,29.91,-999,-999,-9999,-9999,,,Haze,hazy,0,0,0,0,0,0,AAXX 28064 48376 31540 50404 10340 20217 39985 40127 57030 70521 82206 333 59026
4:00 PM +07 on March 28,2017,2017,3,28,16,0,Asia/Bangkok,36,97,20,67,28,9.3,5.8,,,110,ESE,5,3,1009,29.79,-999,-999,-9999,-9999,,,Haze,hazy,0,0,0,0,0,0,AAXX 28094 48376 31550 21105 10359 20195 39948 40088 57037 70500 82205 333 59038
7:00 PM +07 on March 28,2017,2017,3,28,19,0,Asia/Bangkok,32,90,21,69,41,3.7,2.3,,,120,ESE,5,3,1010,29.81,-999,-999,-9999,-9999,,,Haze,hazy,0,0,0,0,0,0,AAXX 28124 48376 31550 21202 10323 20206 39953 40095 51005 70500 81205 333 10365 59032
10:00 PM +07 on March 28,2017,2017,3,28,22,0,Asia/Bangkok,29,85,21,71,53,0,0,,,,,5,3,1012,29.89,-999,-999,-9999,-9999,,,Haze,hazy,0,0,0,0,0,0,AAXX 28154 48376 31550 20000 10293 20214 39979 40122 52025 70500 81505 333 59035
1:00 AM +07 on March 29,2017,2017,3,29,1,0,Asia/Bangkok,27,81,22,72,69,0,0,,,,,5,3,1012,29.9,-999,-999,-9999,-9999,,,Mist,hazy,0,0,0,0,0,0,AAXX 28184 48376 31550 20000 10274 20225 39981 40125 51002 71000 82505 333 59024
4:00 AM +07 on March 29,2017,2017,3,29,4,0,Asia/Bangkok,28,83,21,70,57,9.3,5.8,,,260,West,5,3,1011,29.87,-999,-999,-9999,-9999,,,Mist,hazy,0,0,0,0,0,0,AAXX 28214 48376 31550 22605 10283 20211 39970 40114 57011 71000 82505 333 59021
7:00 AM +07 on March 29,2017,2017,3,29,7,0,Asia/Bangkok,27,81,22,71,65,0,0,,,,,4,2,1013,29.91,-999,-999,-9999,-9999,,,Mist,hazy,0,0,0,0,0,0,AAXX 29004 48376 31940 20000 10274 20217 39982 40126 52012 71000 80005 333 20269 59023
10:00 AM +07 on March 29,2017,2017,3,29,10,0,Asia/Bangkok,33,91,21,69,39,0,0,,,,,4,2,1014,29.94,-999,-999,-9999,-9999,,,Haze,hazy,0,0,0,0,0,0,AAXX 29034 48376 31540 20000 10330 20206 39995 40137 52013 70500 81205 333 59022
1:00 PM +07 on March 29,2017,2017,3,29,13,0,Asia/Bangkok,38,100,20,69,27,5.6,3.5,,,220,SW,5,3,1011,29.85,-999,-999,-9999,-9999,,,Haze,hazy,0,0,0,0,0,0,AAXX 29064 48376 31550 32203 10377 20204 39967 40106 57028 70500 82205 333 59021
4:00 PM +07 on March 29,2017,2017,3,29,16,0,Asia/Bangkok,37,98,19,67,27,7.4,4.6,,,180,South,5,3,1008,29.77,-999,-999,-9999,-9999,,,Haze,hazy,0,0,0,0,0,0,AAXX 29094 48376 31550 51804 10367 20193 39940 40079 57027 70520 83206 333 59009
7:00 PM +07 on March 29,2017,2017,3,29,19,0,Asia/Bangkok,34,93,21,70,37,0,0,,,,,5,3,1010,29.83,-999,-999,-9999,-9999,,,Haze,hazy,0,0,0,0,0,0,AAXX 29124 48376 31550 20000 10340 20210 39958 40099 52018 70520 81535 333 10381 58004
10:00 PM +07 on March 29,2017,2017,3,29,22,0,Asia/Bangkok,31,88,21,69,44,3.7,2.3,,,230,SW,4,2,1012,29.88,-999,-999,-9999,-9999,,,Haze,hazy,0,0,0,0,0,0,AAXX 29154 48376 31540 22302 10309 20207 39973 40116 52015 70500 82505 333 59007
1:00 AM +07 on March 30,2017,2017,3,30,1,0,Asia/Bangkok,30,85,21,71,53,3.7,2.3,,,210,SSW,4,2,1012,29.9,-999,-999,-9999,-9999,,,Haze,hazy,0,0,0,0,0,0,AAXX 29184 48376 31940 02102 10297 20214 39980 40123 51007 70500 333 59002
4:00 AM +07 on March 30,2017,2017,3,30,4,0,Asia/Bangkok,29,84,19,66,46,7.4,4.6,,,220,SW,4,2,1012,29.88,-999,-999,-9999,-9999,,,Haze,hazy,0,0,0,0,0,0,AAXX 29214 48376 31540 22204 10291 20191 39972 40116 56008 70500 82505 333 58002
7:00 AM +07 on March 30,2017,2017,3,30,7,0,Asia/Bangkok,28,83,20,69,54,0,0,,,,,4,2,1013,29.92,-999,-999,-9999,-9999,,,Haze,hazy,0,0,0,0,0,0,AAXX 30004 48376 31540 20000 10281 20205 39986 40130 52014 70500 81535 333 20278 58004
10:00 AM +07 on March 30,2017,2017,3,30,10,0,Asia/Bangkok,34,93,19,66,31,9.3,5.8,,,260,West,4,2,1014,29.95,-999,-999,-9999,-9999,,,Haze,hazy,0,0,0,0,0,0,AAXX 30034 48376 31940 22605 10341 20187 39998 40140 52012 70500 80005 333 58003
1:00 PM +07 on March 30,2017,2017,3,30,13,0,Asia/Bangkok,37,98,19,66,26,7.4,4.6,,,90,East,5,3,1011,29.86,-999,-999,-9999,-9999,,,Haze,hazy,0,0,0,0,0,0,AAXX 30064 48376 31550 60904 10367 20191 39972 40112 57026 70520 82236 333 58006
4:00 PM +07 on March 30,2017,2017,3,30,16,0,Asia/Bangkok,38,100,20,69,27,5.6,3.5,,,220,SW,4,2,1008,29.76,-999,-999,-9999,-9999,,,Haze,hazy,0,0,0,0,0,0,AAXX 30094 48376 31540 32203 10376 20205 39939 40078 57033 70510 82205 333 59001
7:00 PM +07 on March 30,2017,2017,3,30,19,0,Asia/Bangkok,34,94,18,65,29,11.1,6.9,,,260,West,4,2,1008,29.77,-999,-999,-9999,-9999,,,Haze,hazy,0,0,0,0,0,0,AAXX 30124 48376 31540 22606 10345 20184 39940 40080 51001 70510 81205 333 10382 59019
10:00 PM +07 on March 30,2017,2017,3,30,22,0,Asia/Bangkok,32,89,20,68,40,5.6,3.5,,,220,SW,4,2,1010,29.83,-999,-999,-9999,-9999,,,Haze,hazy,0,0,0,0,0,0,AAXX 30154 48376 31940 22203 10319 20200 39960 40102 52020 70500 80005 333 59013
1:00 AM +07 on March 26,2017,2017,3,26,1,0,Asia/Bangkok,30,86,21,70,50,0,0,,,,,3,2,1010,29.84,-999,-999,-9999,-9999,,,Haze,hazy,0,0,0,0,0,0,AAXX 25184 48376 31930 00000 10302 20211 39962 40105 54000 70500 333 59006
4:00 AM +07 on March 26,2017,2017,3,26,4,0,Asia/Bangkok,29,84,19,66,46,0,0,,,,,3,2,1010,29.82,-999,-999,-9999,-9999,,,Haze,hazy,0,0,0,0,0,0,AAXX 25214 48376 31930 00000 10290 20190 39954 40097 56008 70500 333 59007
7:00 AM +07 on March 26,2017,2017,3,26,7,0,Asia/Bangkok,26,79,20,67,59,0,0,,,,,3,2,1011,29.87,-999,-999,-9999,-9999,,,Mist,hazy,0,0,0,0,0,0,AAXX 26004 48376 31930 00000 10261 20196 39968 40113 52014 71000 333 20240 59012
10:00 AM +07 on March 26,2017,2017,3,26,10,0,Asia/Bangkok,34,93,19,66,32,0,0,,,,,4,2,1013,29.91,-999,-999,-9999,-9999,,,Haze,hazy,0,0,0,0,0,0,AAXX 26034 48376 31940 00000 10341 20191 39985 40127 52018 70500 333 59011
4:00 PM +07 on March 26,2017,2017,3,26,16,0,Asia/Bangkok,38,101,22,71,29,5.6,3.5,,,150,SSE,4,2,1006,29.72,-999,-999,-9999,-9999,,,Haze,hazy,0,0,0,0,0,0,AAXX 26094 48376 31540 21503 10382 20216 39923 40062 57034 70500 82205 333 58001
7:00 PM +07 on March 26,2017,2017,3,26,19,0,Asia/Bangkok,34,94,21,70,35,3.7,2.3,,,130,SE,3,2,1008,29.75,-999,-999,-9999,-9999,,,Haze,hazy,0,0,0,0,0,0,AAXX 26124 48376 31530 51302 10342 20209 39935 40075 52011 70520 82906 333 10395 58006
10:00 PM +07 on March 26,2017,2017,3,26,22,0,Asia/Bangkok,32,89,20,68,41,7.4,4.6,,,170,South,3,2,1011,29.86,-999,-999,-9999,-9999,,,Haze,hazy,0,0,0,0,0,0,AAXX 26154 48376 31530 31704 10315 20202 39968 40111 52034 70510 82235 333 58006
1:00 AM +07 on March 31,2017,2017,3,31,1,0,Asia/Bangkok,30,86,18,65,40,3.7,2.3,,,230,SW,4,2,1012,29.9,-999,-999,-9999,-9999,,,Haze,hazy,0,0,0,0,0,0,AAXX 30184 48376 31940 02302 10300 20184 39981 40124 52020 70500 333 58001
4:00 AM +07 on March 31,2017,2017,3,31,4,0,Asia/Bangkok,30,85,19,66,43,0,0,,,,,4,2,1011,29.86,-999,-999,-9999,-9999,,,Haze,hazy,0,0,0,0,0,0,AAXX 30214 48376 31940 00000 10295 20187 39967 40110 57014 70500 333 59006
7:00 AM +07 on March 31,2017,2017,3,31,7,0,Asia/Bangkok,28,82,19,66,50,0,0,,,,,5,3,1012,29.9,-999,-999,-9999,-9999,,,Haze,hazy,0,0,0,0,0,0,AAXX 31004 48376 31950 20000 10280 20190 39980 40124 52013 70500 80005 333 20275 59006
10:00 AM +07 on March 31,2017,2017,3,31,10,0,Asia/Bangkok,33,92,21,69,38,14.8,9.2,,,270,West,6,4,1014,29.94,-999,-999,-9999,-9999,,,Haze,hazy,0,0,0,0,0,0,AAXX 31034 48376 31556 22708 10333 20208 39997 40139 52017 70500 81205 333 59001
1:00 PM +07 on March 31,2017,2017,3,31,13,0,Asia/Bangkok,37,99,17,63,21,9.3,5.8,,,260,West,6,4,1010,29.84,-999,-999,-9999,-9999,,,Haze,hazy,0,0,0,0,0,0,AAXX 31064 48376 31556 22605 10372 20171 39964 40103 57033 70500 81205 333 59008
4:00 PM +07 on March 31,2017,2017,3,31,16,0,Asia/Bangkok,38,101,18,64,21,14.8,9.2,,,260,West,6,4,1007,29.73,-999,-999,-9999,-9999,,,Haze,hazy,0,0,0,0,0,0,AAXX 31094 48376 31556 22608 10384 20176 39928 40066 57036 70500 81205 333 59012
7:00 PM +07 on March 31,2017,2017,3,31,19,0,Asia/Bangkok,34,94,18,64,27,16.7,10.4,,,260,West,5,3,1007,29.75,-999,-999,-9999,-9999,,,Haze,hazy,0,0,0,0,0,0,AAXX 31124 48376 31950 22609 10344 20175 39933 40073 51005 70500 80005 333 10392 59007
10:00 PM +07 on March 31,2017,2017,3,31,22,0,Asia/Bangkok,32,89,19,66,37,11.1,6.9,,,250,WSW,5,3,1010,29.84,-999,-999,-9999,-9999,,,Haze,hazy,0,0,0,0,0,0,AAXX 31154 48376 31550 22506 10317 20190 39963 40105 52030 70500 81505 333 58003
1:00 AM +07 on April 01,2017,2017,4,1,1,0,Asia/Bangkok,30,86,19,66,42,11.1,6.9,,,250,WSW,5,3,1011,29.85,-999,-999,-9999,-9999,,,Haze,hazy,0,0,0,0,0,0,AAXX 31184 48376 31950 02506 10300 20189 39963 40106 54000 70500 333 59018
4:00 AM +07 on April 01,2017,2017,4,1,4,0,Asia/Bangkok,29,84,20,68,50,11.1,6.9,,,260,West,5,3,1010,29.83,-999,-999,-9999,-9999,,,Haze,hazy,0,0,0,0,0,0,AAXX 31214 48376 31950 02606 10288 20201 39956 40100 56006 70500 333 59011
7:00 AM +07 on April 01,2017,2017,4,1,7,0,Asia/Bangkok,27,80,21,70,65,0,0,,,,,5,3,1011,29.87,-999,-999,-9999,-9999,,,Mist,hazy,0,0,0,0,0,0,AAXX 01004 48376 31950 00000 10269 20213 39970 40114 52014 71000 333 20266 59010
10:00 AM +07 on April 01,2017,2017,4,1,10,0,Asia/Bangkok,32,89,22,72,47,9.3,5.8,,,170,South,5,3,1014,29.94,-999,-999,-9999,-9999,,,Haze,hazy,0,0,0,0,0,0,AAXX 01034 48376 31550 21705 10317 20220 39996 40138 52026 70500 82205 333 59001
1:00 PM +07 on April 01,2017,2017,4,1,13,0,Asia/Bangkok,35,95,22,71,37,7.4,4.6,,,150,SSE,5,3,1011,29.87,-999,-999,-9999,-9999,,,Haze,hazy,0,0,0,0,0,0,AAXX 01064 48376 31550 31504 10348 20218 39974 40114 57022 70500 82235 333 58011
4:00 PM +07 on April 01,2017,2017,4,1,16,0,Asia/Bangkok,32,90,21,71,43,9.3,5.8,,,90,East,6,4,1009,29.79,-999,-999,-9999,-9999,,,Haze,hazy,0,0,0,0,0,0,AAXX 01094 48376 31556 60905 10321 20214 39946 40087 57028 70520 83966 333 58021
7:00 PM +07 on April 01,2017,2017,4,1,19,0,Asia/Bangkok,29,84,21,71,56,9.3,5.8,,,100,East,5,3,1010,29.83,-999,-999,-9999,-9999,,,Haze,hazy,0,0,0,0,0,0,AAXX 01124 48376 31550 61005 10290 20214 39958 40101 52012 70520 83966 333 10351 58028
10:00 PM +07 on April 01,2017,2017,4,1,22,0,Asia/Bangkok,28,82,22,71,63,5.6,3.5,,,110,ESE,5,3,1013,29.91,-999,-999,-9999,-9999,,,Mist,hazy,0,0,0,0,0,0,AAXX 01154 48376 31550 51103 10276 20219 39984 40128 52026 71022 82536 333 58023
1:00 AM +07 on April 02,2017,2017,4,2,1,0,Asia/Bangkok,26,79,22,72,72,5.6,3.5,,,90,East,4,2,1013,29.92,-999,-999,-9999,-9999,,,Light Rain,rain,0,1,0,0,0,0,AAXX 01184 48376 01540 60903 10259 20220 39986 40131 51002 69903 76022 83556 333 58025 69905 79999
4:00 AM +07 on April 02,2017,2017,4,2,4,0,Asia/Bangkok,25,77,22,72,82,0,0,,,,,5,3,1013,29.91,-999,-999,-9999,-9999,,,Mist,hazy,0,0,0,0,0,0,AAXX 01214 48376 31550 60000 10250 20225 39980 40126 56005 71022 83536 333 58026
7:00 AM +07 on April 02,2017,2017,4,2,7,0,Asia/Bangkok,24,76,22,72,85,5.6,3.5,,,330,NNW,3,2,1014,29.94,-999,-999,-9999,-9999,,,Mist,hazy,0,0,0,0,0,0,AAXX 02004 48376 11530 83303 10243 20224 39992 40138 52012 69904 71022 84556 333 20239 58024 79999
10:00 AM +07 on April 02,2017,2017,4,2,10,0,Asia/Bangkok,27,81,23,73,70,0,0,,,,,4,2,1016,30,-999,-999,-9999,-9999,,,Mist,hazy,0,0,0,0,0,0,AAXX 02034 48376 31540 60000 10272 20226 30014 40159 52022 71022 82536 333 58021
1:00 PM +07 on April 02,2017,2017,4,2,13,0,Asia/Bangkok,31,87,20,68,43,5.6,3.5,,,90,East,4,2,1014,29.94,-999,-999,-9999,-9999,,,Haze,hazy,0,0,0,0,0,0,AAXX 02064 48376 31540 60903 10308 20199 39996 40139 57019 70522 83966 333 58024 79999
4:00 PM +07 on April 02,2017,2017,4,2,16,0,Asia/Bangkok,32,90,20,68,38,3.7,2.3,,,70,ENE,4,2,1011,29.85,-999,-999,-9999,-9999,,,Haze,hazy,0,0,0,0,0,0,AAXX 02094 48376 31540 60702 10320 20199 39965 40107 57031 70522 82236 333 58019
7:00 PM +07 on April 02,2017,2017,4,2,19,0,Asia/Bangkok,30,86,21,70,49,0,0,,,,,4,2,1011,29.86,-999,-999,-9999,-9999,,,Haze,hazy,0,0,0,0,0,0,AAXX 02124 48376 31540 60000 10301 20210 39967 40110 51003 70522 82536 333 10324 58009 79999
10:00 PM +07 on April 02,2017,2017,4,2,22,0,Asia/Bangkok,28,82,22,72,64,0,0,,,,,4,2,1014,29.94,-999,-999,-9999,-9999,,,Mist,hazy,0,0,0,0,0,0,AAXX 02154 48376 31540 50000 10280 20221 39993 40137 52026 71022 82536 333 58009
1:00 AM +07 on April 03,2017,2017,4,3,1,0,Asia/Bangkok,26,78,22,71,74,0,0,,,,,4,2,1013,29.92,-999,-999,-9999,-9999,,,Mist,hazy,0,0,0,0,0,0,AAXX 02184 48376 31940 20000 10256 20217 39985 40130 56008 71020 80005 333 58000
4:00 AM +07 on April 03,2017,2017,4,3,4,0,Asia/Bangkok,24,75,22,71,83,0,0,,,,,4,2,1012,29.9,-999,-999,-9999,-9999,,,Mist,hazy,0,0,0,0,0,0,AAXX 02214 48376 31540 50000 10241 20215 39978 40124 56007 71020 82536 333 59002
7:00 AM +07 on April 03,2017,2017,4,3,7,0,Asia/Bangkok,24,75,21,71,82,0,0,,,,,4,2,1014,29.96,-999,-999,-9999,-9999,,,Mist,hazy,0,0,0,0,0,0,AAXX 03004 48376 31540 60000 10240 20214 39997 40143 52018 71020 82536 333 20235 58005
10:00 AM +07 on April 03,2017,2017,4,3,10,0,Asia/Bangkok,31,87,21,70,47,0,0,,,,,5,3,1016,29.99,-999,-999,-9999,-9999,,,Haze,hazy,0,0,0,0,0,0,AAXX 03034 48376 31550 50000 10306 20209 30013 40156 52016 70522 82536 333 59003
1:00 PM +07 on April 03,2017,2017,4,3,13,0,Asia/Bangkok,34,94,19,67,31,0,0,,,,,5,3,1013,29.91,-999,-999,-9999,-9999,,,Haze,hazy,0,0,0,0,0,0,AAXX 03064 48376 31550 20000 10345 20194 39986 40128 57026 70520 82205 333 59011
4:00 PM +07 on April 03,2017,2017,4,3,16,0,Asia/Bangkok,36,98,19,66,25,7.4,4.6,,,120,ESE,5,3,1009,29.81,-999,-999,-9999,-9999,,,Haze,hazy,0,0,0,0,0,0,AAXX 03094 48376 31550 21204 10365 20188 39955 40094 57032 70500 81205 333 59012
7:00 PM +07 on April 03,2017,2017,4,3,19,0,Asia/Bangkok,32,90,19,67,37,3.7,2.3,,,130,SE,4,2,1010,29.83,-999,-999,-9999,-9999,,,Haze,hazy,0,0,0,0,0,0,AAXX 03124 48376 31540 21302 10322 20194 39960 40102 51005 70500 81535 333 10372 59008
10:00 PM +07 on April 03,2017,2017,4,3,22,0,Asia/Bangkok,29,84,21,69,52,0,0,,,,,4,2,1013,29.91,-999,-999,-9999,-9999,,,Haze,hazy,0,0,0,0,0,0,AAXX 03154 48376 31540 60000 10290 20207 39985 40129 52025 70520 82536 333 59008
1:00 AM +07 on April 04,2017,2017,4,4,1,0,Asia/Bangkok,28,83,20,69,54,0,0,,,,,4,2,1012,29.9,-999,-999,-9999,-9999,,,Haze,hazy,0,0,0,0,0,0,AAXX 03184 48376 31540 50000 10285 20205 39980 40124 56006 70520 82536 333 59007
4:00 AM +07 on April 04,2017,2017,4,4,4,0,Asia/Bangkok,28,82,20,68,53,0,0,,,,,4,2,1011,29.87,-999,-999,-9999,-9999,,,Haze,hazy,0,0,0,0,0,0,AAXX 03214 48376 31540 50000 10277 20199 39969 40113 57011 70522 82536 333 59011
7:00 AM +07 on April 04,2017,2017,4,4,7,0,Asia/Bangkok,26,78,21,70,69,0,0,,,,,4,2,1013,29.93,-999,-999,-9999,-9999,,,Mist,hazy,0,0,0,0,0,0,AAXX 04004 48376 31540 20000 10255 20209 39987 40133 52018 71020 81535 333 20253 59010
10:00 AM +07 on April 04,2017,2017,4,4,10,0,Asia/Bangkok,33,91,20,69,39,5.6,3.5,,,60,ENE,5,3,1014,29.95,-999,-999,-9999,-9999,,,Haze,hazy,0,0,0,0,0,0,AAXX 04034 48376 31550 20603 10328 20205 39999 40141 52012 70500 81205 333 59015
1:00 PM +07 on April 04,2017,2017,4,4,13,0,Asia/Bangkok,36,97,21,69,31,3.7,2.3,,,290,WNW,5,3,1011,29.86,-999,-999,-9999,-9999,,,Haze,hazy,0,0,0,0,0,0,AAXX 04064 48376 31550 22902 10360 20206 39969 40110 57030 70500 82205 333 59018
4:00 PM +07 on April 04,2017,2017,4,4,16,0,Asia/Bangkok,37,99,19,66,25,9.3,5.8,,,110,ESE,5,3,1007,29.74,-999,-999,-9999,-9999,,,Haze,hazy,0,0,0,0,0,0,AAXX 04094 48376 31550 31105 10370 20189 39932 40071 57037 70500 82305 333 59023
7:00 PM +07 on April 04,2017,2017,4,4,19,0,Asia/Bangkok,34,93,20,67,33,5.6,3.5,,,180,South,5,3,1008,29.77,-999,-999,-9999,-9999,,,Haze,hazy,0,0,0,0,0,0,AAXX 04124 48376 31550 21803 10337 20195 39938 40079 51006 70500 82305 333 10384 59023
10:00 PM +07 on April 04,2017,2017,4,4,22,0,Asia/Bangkok,30,86,21,70,50,3.7,2.3,,,340,NNW,5,3,1012,29.88,-999,-999,-9999,-9999,,,Haze,hazy,0,0,0,0,0,0,AAXX 04154 48376 31550 53402 10298 20211 39973 40116 52036 70520 82536 333 59013
1:00 AM +07 on April 05,2017,2017,4,5,1,0,Asia/Bangkok,28,82,20,69,56,9.3,5.8,,,310,NW,5,3,1011,29.85,-999,-999,-9999,-9999,,,Haze,hazy,0,0,0,0,0,0,AAXX 04184 48376 31550 23105 10280 20204 39964 40108 56009 70520 82505 333 59015
4:00 AM +07 on April 05,2017,2017,4,5,4,0,Asia/Bangkok,27,80,21,69,62,0,0,,,,,5,3,1010,29.83,-999,-999,-9999,-9999,,,Mist,hazy,0,0,0,0,0,0,AAXX 04214 48376 31550 60000 10267 20206 39957 40102 56007 71020 82536 333 59011
7:00 AM +07 on April 05,2017,2017,4,5,7,0,Asia/Bangkok,25,78,20,69,67,0,0,,,,,4,2,1011,29.87,-999,-999,-9999,-9999,,,Mist,hazy,0,0,0,0,0,0,AAXX 05004 48376 31940 20000 10254 20205 39969 40114 52011 71020 80005 333 20253 59019
10:00 AM +07 on April 05,2017,2017,4,5,10,0,Asia/Bangkok,32,90,21,70,43,3.7,2.3,,,190,South,4,2,1012,29.89,-999,-999,-9999,-9999,,,Haze,hazy,0,0,0,0,0,0,AAXX 05034 48376 31940 01902 10320 20212 39980 40122 52011 70500 333 59019
1:00 PM +07 on April 05,2017,2017,4,5,13,0,Asia/Bangkok,37,99,19,66,25,5.6,3.5,,,240,WSW,5,3,1008,29.78,-999,-999,-9999,-9999,,,Haze,hazy,0,0,0,0,0,0,AAXX 05064 48376 31550 22403 10370 20191 39945 40084 57035 70500 82205 333 59025
4:00 PM +07 on April 05,2017,2017,4,5,16,0,Asia/Bangkok,40,103,18,64,19,5.6,3.5,,,220,SW,5,3,1004,29.66,-999,-999,-9999,-9999,,,Haze,hazy,0,0,0,0,0,0,AAXX 05094 48376 31550 22203 10395 20175 39904 40042 57040 70500 82305 333 59029
7:00 PM +07 on April 05,2017,2017,4,5,19,0,Asia/Bangkok,33,91,16,61,27,11.1,6.9,,,330,NNW,5,3,1007,29.74,-999,-999,-9999,-9999,,,Haze,hazy,0,0,0,0,0,0,AAXX 05124 48376 31550 33306 10327 20162 39929 40070 52025 70500 82963 333 10397 59008
10:00 PM +07 on April 05,2017,2017,4,5,22,0,Asia/Bangkok,30,85,20,68,48,3.7,2.3,,,110,ESE,5,3,1009,29.81,-999,-999,-9999,-9999,,,Haze,hazy,0,0,0,0,0,0,AAXX 05154 48376 31950 21102 10296 20202 39949 40092 52020 70500 80005 333 59025
1:00 AM +07 on April 06,2017,2017,4,6,1,0,Asia/Bangkok,28,82,21,70,60,0,0,,,,,4,2,1009,29.79,-999,-999,-9999,-9999,,,Mist,hazy,0,0,0,0,0,0,AAXX 05184 48376 31940 00000 10275 20213 39944 40088 56005 71000 333 59020
4:00 AM +07 on April 06,2017,2017,4,6,4,0,Asia/Bangkok,26,79,21,70,68,0,0,,,,,4,2,1008,29.78,-999,-999,-9999,-9999,,,Mist,hazy,0,0,0,0,0,0,AAXX 05214 48376 31940 00000 10260 20212 39938 40083 56006 71000 333 59019
7:00 AM +07 on April 06,2017,2017,4,6,7,0,Asia/Bangkok,25,78,21,70,71,0,0,,,,,4,2,1010,29.83,-999,-999,-9999,-9999,,,Mist,hazy,0,0,0,0,0,0,AAXX 06004 48376 31940 20000 10253 20212 39955 40100 52017 71000 80005 333 20250 59014
10:00 AM +07 on April 06,2017,2017,4,6,10,0,Asia/Bangkok,33,91,21,70,41,0,0,,,,,5,3,1011,29.85,-999,-999,-9999,-9999,,,Haze,hazy,0,0,0,0,0,0,AAXX 06034 48376 31950 20000 10327 20213 39966 40108 52011 70500 80005 333 59014
4:00 PM +07 on April 06,2017,2017,4,6,16,0,Asia/Bangkok,39,101,19,66,23,3.7,2.3,,,120,ESE,5,3,1004,29.65,-999,-999,-9999,-9999,,,Haze,hazy,0,0,0,0,0,0,AAXX 06094 48376 31550 21202 10386 20191 39900 40038 57034 70500 82205 333 59004
7:00 PM +07 on April 06,2017,2017,4,6,19,0,Asia/Bangkok,36,96,21,69,32,3.7,2.3,,,150,SSE,4,2,1005,29.68,-999,-999,-9999,-9999,,,Haze,hazy,0,0,0,0,0,0,AAXX 06124 48376 31540 21502 10355 20207 39910 40050 52010 70500 82205 333 10392 59021
10:00 PM +07 on April 06,2017,2017,4,6,22,0,Asia/Bangkok,31,88,20,69,44,0,0,,,,,4,2,1008,29.77,-999,-999,-9999,-9999,,,Haze,hazy,0,0,0,0,0,0,AAXX 06154 48376 31540 50000 10310 20205 39938 40080 52028 70520 82536 333 59012
1:00 AM +07 on April 07,2017,2017,4,7,1,0,Asia/Bangkok,30,86,23,73,58,0,0,,,,,4,2,1008,29.78,-999,-999,-9999,-9999,,,Mist,hazy,0,0,0,0,0,0,AAXX 06184 48376 31940 20000 10300 20230 39941 40083 51003 71020 80005 333 59005
4:00 AM +07 on April 07,2017,2017,4,7,4,0,Asia/Bangkok,28,83,23,74,66,0,0,,,,,4,2,1008,29.75,-999,-999,-9999,-9999,,,Mist,hazy,0,0,0,0,0,0,AAXX 06214 48376 31940 00000 10285 20231 39932 40075 56009 71000 333 59008
7:00 AM +07 on April 07,2017,2017,4,7,7,0,Asia/Bangkok,27,81,23,74,74,0,0,,,,,4,2,1009,29.81,-999,-999,-9999,-9999,,,Mist,hazy,0,0,0,0,0,0,AAXX 07004 48376 31940 20000 10271 20233 39949 40093 52017 71000 80005 333 20266 59007
10:00 AM +07 on April 07,2017,2017,4,7,10,0,Asia/Bangkok,33,92,20,68,36,13,8.1,,,260,West,4,2,1011,29.86,-999,-999,-9999,-9999,,,Haze,hazy,0,0,0,0,0,0,AAXX 07034 48376 31540 22607 10331 20202 39968 40109 52018 70500 81205 333 58001
1:00 PM +07 on April 07,2017,2017,4,7,13,0,Asia/Bangkok,37,99,21,69,29,7.4,4.6,,,260,West,5,3,1008,29.76,-999,-999,-9999,-9999,,,Haze,hazy,0,0,0,0,0,0,AAXX 07064 48376 31550 22604 10371 20207 39938 40077 57030 70500 82205 333 58004
7:00 PM +07 on April 07,2017,2017,4,7,19,0,Asia/Bangkok,35,95,22,72,38,0,0,,,,,4,2,1005,29.69,-999,-999,-9999,-9999,,,Haze,hazy,0,0,0,0,0,0,AAXX 07124 48376 31540 30000 10351 20222 39913 40053 52012 70500 81535 333 10398 58003
10:00 PM +07 on April 07,2017,2017,4,7,22,0,Asia/Bangkok,31,88,22,72,51,0,0,,,,,4,2,1008,29.78,-999,-999,-9999,-9999,,,Haze,hazy,0,0,0,0,0,0,AAXX 07154 48376 31940 20000 10311 20225 39942 40084 52029 70500 80005 333 58004
1:00 AM +07 on April 08,2017,2017,4,8,1,0,Asia/Bangkok,30,85,22,72,56,0,0,,,,,4,2,1008,29.77,-999,-999,-9999,-9999,,,Haze,hazy,0,0,0,0,0,0,AAXX 07184 48376 31940 00000 10296 20221 39937 40079 56005 70500 333 59004
4:00 AM +07 on April 08,2017,2017,4,8,4,0,Asia/Bangkok,29,83,22,72,61,3.7,2.3,,,170,South,4,2,1007,29.74,-999,-999,-9999,-9999,,,Mist,hazy,0,0,0,0,0,0,AAXX 07214 48376 31940 01702 10286 20221 39927 40070 57010 71000 333 59005
7:00 AM +07 on April 08,2017,2017,4,8,7,0,Asia/Bangkok,27,81,22,72,69,0,0,,,,,4,2,1010,29.82,-999,-999,-9999,-9999,,,Mist,hazy,0,0,0,0,0,0,AAXX 08004 48376 31940 20000 10272 20225 39953 40097 52026 71000 80005 333 20270 58004
10:00 AM +07 on April 08,2017,2017,4,8,10,0,Asia/Bangkok,34,93,22,72,41,5.6,3.5,,,300,WNW,5,3,1011,29.87,-999,-999,-9999,-9999,,,Haze,hazy,0,0,0,0,0,0,AAXX 08034 48376 31950 03003 10339 20221 39972 40114 52020 70500 333 58005
1:00 PM +07 on April 08,2017,2017,4,8,13,0,Asia/Bangkok,37,99,22,71,31,3.7,2.3,,,200,SSW,5,3,1009,29.79,-999,-999,-9999,-9999,,,Haze,hazy,0,0,0,0,0,0,AAXX 08064 48376 31550 22002 10372 20218 39948 40088 57024 70500 82205 333 58010
4:00 PM +07 on April 08,2017,2017,4,8,16,0,Asia/Bangkok,40,104,21,70,24,5.6,3.5,,,190,South,5,3,1004,29.66,-999,-999,-9999,-9999,,,Haze,hazy,0,0,0,0,0,0,AAXX 08094 48376 31550 21903 10400 20210 39906 40043 57042 70500 82205 333 58004
7:00 PM +07 on April 08,2017,2017,4,8,19,0,Asia/Bangkok,35,96,24,74,40,3.7,2.3,,,120,ESE,5,3,1005,29.69,-999,-999,-9999,-9999,,,Haze,hazy,0,0,0,0,0,0,AAXX 08124 48376 31550 21202 10354 20235 39914 40054 51008 70500 81405 333 10402 58001
10:00 PM +07 on April 08,2017,2017,4,8,22,0,Asia/Bangkok,32,89,24,74,54,3.7,2.3,,,270,West,5,3,1008,29.77,-999,-999,-9999,-9999,,,Haze,hazy,0,0,0,0,0,0,AAXX 08154 48376 31950 02702 10319 20235 39939 40081 52025 70500 333 59003
1:00 AM +07 on April 09,2017,2017,4,9,1,0,Asia/Bangkok,30,85,22,72,57,5.6,3.5,,,170,South,5,3,1008,29.77,-999,-999,-9999,-9999,,,Haze,hazy,0,0,0,0,0,0,AAXX 08184 48380 31950 01703 10297 20222 39988 40080 57003 70500 333 59005
4:00 AM +07 on April 09,2017,2017,4,9,4,0,Asia/Bangkok,29,84,24,75,68,1.9,1.2,,,220,SW,5,3,1007,29.75,-999,-999,-9999,-9999,,,Mist,hazy,0,0,0,0,0,0,AAXX 08214 48380 31950 02201 10289 20240 39981 40073 57007 71000 333 59008
7:00 AM +07 on April 09,2017,2017,4,9,7,0,Asia/Bangkok,27,81,24,76,80,0,0,,,,,4,2,1009,29.8,-999,-999,-9999,-9999,,,Mist,hazy,0,0,0,0,0,0,AAXX 09004 48380 31940 20000 10271 20244 39998 40091 52017 71000 80005 333 20266 59008
10:00 AM +07 on April 09,2017,2017,4,9,10,0,Asia/Bangkok,33,91,23,73,46,9.3,5.8,,,90,East,4,2,1011,29.85,-999,-999,-9999,-9999,,,Haze,hazy,0,0,0,0,0,0,AAXX 09034 48380 31940 00905 10329 20226 30015 40106 52017 70500 333 59013
1:00 PM +07 on April 09,2017,2017,4,9,13,0,Asia/Bangkok,36,98,22,72,33,11.1,6.9,,,70,ENE,4,2,1008,29.77,-999,-999,-9999,-9999,,,Haze,hazy,0,0,0,0,0,0,AAXX 09064 48380 31940 00706 10365 20220 39990 40081 57024 70500 333 59008
4:00 PM +07 on April 09,2017,2017,4,9,16,0,Asia/Bangkok,38,100,22,71,30,11.1,6.9,,,60,ENE,4,2,1004,29.66,-999,-999,-9999,-9999,,,Haze,hazy,0,0,0,0,0,0,AAXX 09094 48380 31540 10606 10378 20218 39953 40043 57037 70500 81903 333 59012
7:00 PM +07 on April 09,2017,2017,4,9,19,0,Asia/Bangkok,35,95,23,73,39,5.6,3.5,,,140,SE,3,2,1005,29.67,-999,-999,-9999,-9999,,,Haze,hazy,0,0,0,0,0,0,AAXX 09124 48380 31530 21403 10350 20227 39957 40047 52004 70500 81245 333 10384 59012
10:00 PM +07 on April 09,2017,2017,4,9,22,0,Asia/Bangkok,33,91,22,72,45,3.7,2.3,,,90,East,3,2,1007,29.74,-999,-999,-9999,-9999,,,Haze,hazy,0,0,0,0,0,0,AAXX 09154 48380 31930 00902 10329 20224 39978 40070 52022 70500 333 59013
1:00 AM +07 on April 10,2017,2017,4,10,1,0,Asia/Bangkok,31,88,22,71,48,9.3,5.8,,,250,WSW,5,3,1007,29.74,-999,-999,-9999,-9999,,,Haze,hazy,0,0,0,0,0,0,AAXX 09184 48376 31950 02505 10312 20217 39929 40070 54000 70510 333 59006
4:00 AM +07 on April 10,2017,2017,4,10,4,0,Asia/Bangkok,30,87,21,70,47,11.1,6.9,,,250,WSW,5,3,1006,29.7,-999,-999,-9999,-9999,,,Haze,hazy,0,0,0,0,0,0,AAXX 09214 48376 31550 22506 10303 20209 39913 40055 57016 70500 81505 333 59017
7:00 AM +07 on April 10,2017,2017,4,10,7,0,Asia/Bangkok,30,86,22,71,52,13,8.1,,,260,West,5,3,1007,29.74,-999,-999,-9999,-9999,,,Haze,hazy,0,0,0,0,0,0,AAXX 10004 48376 31550 32607 10298 20216 39927 40070 52014 70500 82535 333 20293 59021
10:00 AM +07 on April 10,2017,2017,4,10,10,0,Asia/Bangkok,34,94,23,73,42,7.4,4.6,,,260,West,4,2,1009,29.79,-999,-999,-9999,-9999,,,Haze,hazy,0,0,0,0,0,0,AAXX 10034 48376 31940 22604 10344 20230 39946 40087 52019 70500 80005 333 59016
1:00 PM +07 on April 10,2017,2017,4,10,13,0,Asia/Bangkok,38,100,23,73,32,11.1,6.9,,,270,West,4,2,1007,29.73,-999,-999,-9999,-9999,,,Haze,hazy,0,0,0,0,0,0,AAXX 10064 48376 31540 22706 10378 20227 39928 40067 57018 70500 82205 333 59001
4:00 PM +07 on April 10,2017,2017,4,10,16,0,Asia/Bangkok,36,96,22,71,36,5.6,3.5,,,180,South,5,3,1004,29.64,-999,-999,-9999,-9999,,,Haze,hazy,0,0,0,0,0,0,AAXX 10094 48376 31550 31803 10355 20219 39896 40036 57032 70500 82535 333 58005
7:00 PM +07 on April 10,2017,2017,4,10,19,0,Asia/Bangkok,35,95,22,72,37,0,0,,,,,4,2,1004,29.66,-999,-999,-9999,-9999,,,Haze,hazy,0,0,0,0,0,0,AAXX 10124 48376 31540 30000 10350 20220 39902 40042 51006 70500 82535 333 10390 59006
10:00 PM +07 on April 10,2017,2017,4,10,22,0,Asia/Bangkok,33,91,22,71,42,9.3,5.8,,,260,West,4,2,1006,29.72,-999,-999,-9999,-9999,,,Haze,hazy,0,0,0,0,0,0,AAXX 10154 48376 31940 22605 10330 20215 39922 40063 52019 70500 80005 333 59007
1:00 AM +07 on April 11,2017,2017,4,11,1,0,Asia/Bangkok,31,88,21,70,46,13,8.1,,,270,West,4,2,1006,29.7,-999,-999,-9999,-9999,,,Haze,hazy,0,0,0,0,0,0,AAXX 10184 48376 31940 02707 10312 20212 39915 40056 56007 70500 333 59014
4:00 AM +07 on April 11,2017,2017,4,11,4,0,Asia/Bangkok,30,86,21,70,49,11.1,6.9,,,260,West,4,2,1005,29.67,-999,-999,-9999,-9999,,,Haze,hazy,0,0,0,0,0,0,AAXX 10214 48376 31940 02606 10301 20210 39905 40047 57010 70500 333 59009
7:00 AM +07 on April 11,2017,2017,4,11,7,0,Asia/Bangkok,29,85,21,69,50,11.1,6.9,,,270,West,5,3,1007,29.74,-999,-999,-9999,-9999,,,Haze,hazy,0,0,0,0,0,0,AAXX 11004 48376 31950 22706 10292 20206 39926 40069 52022 70500 80005 333 20290 58000
10:00 AM +07 on April 11,2017,2017,4,11,10,0,Asia/Bangkok,33,91,21,70,41,14.8,9.2,,,270,West,4,2,1009,29.79,-999,-999,-9999,-9999,,,Haze,hazy,0,0,0,0,0,0,AAXX 11034 48376 31940 02708 10330 20213 39945 40086 52019 70500 333 59001
1:00 PM +07 on April 11,2017,2017,4,11,13,0,Asia/Bangkok,38,101,22,71,29,0,0,,,,,4,2,1006,29.7,-999,-999,-9999,-9999,,,Haze,hazy,0,0,0,0,0,0,AAXX 11064 48376 31540 20000 10383 20219 39919 40058 57026 70500 81205 333 59010
4:00 PM +07 on April 11,2017,2017,4,11,16,0,Asia/Bangkok,39,102,21,70,27,11.1,6.9,,,230,SW,4,2,1003,29.61,-999,-999,-9999,-9999,,,Haze,hazy,0,0,0,0,0,0,AAXX 11094 48376 31540 22306 10391 20213 39889 40027 57030 70500 82205 333 59009
7:00 PM +07 on April 11,2017,2017,4,11,19,0,Asia/Bangkok,36,97,21,70,33,11.1,6.9,,,260,West,4,2,1003,29.62,-999,-999,-9999,-9999,,,Haze,hazy,0,0,0,0,0,0,AAXX 11124 48376 31540 22606 10360 20213 39891 40031 51003 70500 82505 333 10402 59011
10:00 PM +07 on April 11,2017,2017,4,11,22,0,Asia/Bangkok,34,92,22,71,42,11.1,6.9,,,260,West,4,2,1006,29.71,-999,-999,-9999,-9999,,,Haze,hazy,0,0,0,0,0,0,AAXX 11154 48376 31940 22606 10335 20219 39920 40061 52029 70500 80005 333 59002
1:00 AM +07 on April 12,2017,2017,4,12,1,0,Asia/Bangkok,32,89,21,70,44,9.3,5.8,,,250,WSW,4,2,1006,29.7,-999,-999,-9999,-9999,,,Haze,hazy,0,0,0,0,0,0,AAXX 11184 48376 31940 02505 10319 20212 39915 40057 56005 70500 333 58001
4:00 AM +07 on April 12,2017,2017,4,12,4,0,Asia/Bangkok,30,87,21,69,47,5.6,3.5,,,260,West,4,2,1005,29.68,-999,-999,-9999,-9999,,,Haze,hazy,0,0,0,0,0,0,AAXX 11214 48376 31940 02603 10305 20208 39907 40048 56009 70500 333 58002
7:00 AM +07 on April 12,2017,2017,4,12,7,0,Asia/Bangkok,30,86,20,68,46,7.4,4.6,,,240,WSW,4,2,1007,29.74,-999,-999,-9999,-9999,,,Haze,hazy,0,0,0,0,0,0,AAXX 12004 48376 31940 22404 10300 20202 39928 40071 52022 70500 80005 333 20295 58001
10:00 AM +07 on April 12,2017,2017,4,12,10,0,Asia/Bangkok,35,95,21,70,35,14.8,9.2,,,260,West,5,3,1009,29.79,-999,-999,-9999,-9999,,,Haze,hazy,0,0,0,0,0,0,AAXX 12034 48376 31950 22608 10348 20211 39947 40088 52019 70500 80005 333 58001
1:00 PM +07 on April 12,2017,2017,4,12,13,0,Asia/Bangkok,40,104,22,72,27,7.4,4.6,,,290,WNW,5,3,1006,29.72,-999,-999,-9999,-9999,,,Haze,hazy,0,0,0,0,0,0,AAXX 12064 48376 31550 22904 10398 20224 39924 40062 57023 70500 82205 333 58004
4:00 PM +07 on April 12,2017,2017,4,12,16,0,Asia/Bangkok,30,87,24,75,60,3.7,2.3,,,190,South,6,4,1005,29.67,-999,-999,-9999,-9999,,,Mist,hazy,0,0,0,0,0,0,AAXX 12094 48376 21556 61902 10304 20238 39905 40047 57018 71092 82963 333 58021 60096
7:00 PM +07 on April 12,2017,2017,4,12,19,0,Asia/Bangkok,31,89,25,77,60,0,0,,,,,5,3,1004,29.67,-999,-999,-9999,-9999,,,Mist,hazy,0,0,0,0,0,0,AAXX 12124 48376 11550 20000 10314 20249 39904 40045 56002 60092 71092 82415 333 10402 58014 70090
10:00 PM +07 on April 12,2017,2017,4,12,22,0,Asia/Bangkok,31,88,23,73,52,5.6,3.5,,,240,WSW,5,3,1008,29.76,-999,-999,-9999,-9999,,,Haze,hazy,0,0,0,0,0,0,AAXX 12154 48376 31950 22403 10310 20227 39934 40076 52030 70500 80005 333 58015
1:00 AM +07 on April 13,2017,2017,4,13,1,0,Asia/Bangkok,28,83,22,71,59,0,0,,,,,6,4,1009,29.79,-999,-999,-9999,-9999,,,Mist,hazy,0,0,0,0,0,0,AAXX 12184 48380 31956 20000 10283 20216 39994 40087 52009 71020 80002 333 58027
4:00 AM +07 on April 13,2017,2017,4,13,4,0,Asia/Bangkok,27,80,22,72,71,0,0,,,,,6,4,1008,29.77,-999,-999,-9999,-9999,,,Mist,hazy,0,0,0,0,0,0,AAXX 12214 48380 31956 00000 10268 20224 39987 40080 57007 71000 333 58028
7:00 AM +07 on April 13,2017,2017,4,13,7,0,Asia/Bangkok,27,80,23,73,75,1.9,1.2,,,100,East,6,4,1011,29.85,-999,-999,-9999,-9999,,,Mist,hazy,0,0,0,0,0,0,AAXX 13004 48380 31956 51001 10267 20230 30014 40108 52028 71010 80006 333 20258 58031
10:00 AM +07 on April 13,2017,2017,4,13,10,0,Asia/Bangkok,32,90,24,76,55,7.4,4.6,,,170,South,7,4,1013,29.91,-999,-999,-9999,-9999,,,Haze,hazy,0,0,0,0,0,0,AAXX 13034 48380 31557 51704 10324 20243 30035 40127 52021 70522 81536 333 58033
1:00 PM +07 on April 13,2017,2017,4,13,13,0,Asia/Bangkok,37,99,25,77,40,18.5,11.5,,,120,ESE,12,7,1009,29.81,-999,-999,-9999,-9999,,,Scattered Clouds,partlycloudy,0,0,0,0,0,0,AAXX 13064 48380 32462 51210 10370 20249 30004 40094 57031 82935 333 58024
4:00 PM +07 on April 13,2017,2017,4,13,16,0,Asia/Bangkok,39,102,23,73,30,16.7,10.4,,,160,SSE,12,7,1006,29.71,-999,-999,-9999,-9999,,,Scattered Clouds,partlycloudy,0,0,0,0,0,0,AAXX 13094 48380 32562 41609 10388 20226 39971 40061 57032 82535 333 58015
7:00 PM +07 on April 13,2017,2017,4,13,19,0,Asia/Bangkok,35,95,23,73,40,0,0,,,,,12,7,1007,29.75,-999,-999,-9999,-9999,,,Scattered Clouds,partlycloudy,0,0,0,0,0,0,AAXX 13124 48380 32462 60000 10348 20228 39982 40073 52011 82976 333 10388 58026
10:00 PM +07 on April 13,2017,2017,4,13,22,0,Asia/Bangkok,31,88,22,72,51,14.8,9.2,,,100,East,10,6,1012,29.89,-999,-999,-9999,-9999,,,Thunderstorm,tstorms,0,0,0,0,1,0,AAXX 13154 48380 31460 61008 10313 20224 30027 40120 52045 71722 82976 333 58042
1:00 AM +07 on April 14,2017,2017,4,14,1,0,Asia/Bangkok,26,78,24,75,88,5.6,3.5,,,210,SSW,10,6,1013,29.91,-999,-999,-9999,-9999,,,Thunderstorms and Rain,tstorms,0,1,0,0,1,0,AAXX 13184 48380 01460 82103 10257 20239 30035 40129 52008 60033 79592 8697/ 333 58043 60036 70033
4:00 AM +07 on April 14,2017,2017,4,14,4,0,Asia/Bangkok,23,74,22,71,89,1.9,1.2,,,10,North,10,6,1012,29.88,-999,-999,-9999,-9999,,,Partly Cloudy,partlycloudy,0,0,0,0,0,0,AAXX 13214 48380 21560 80101 10233 20219 30023 40118 57012 70292 8357/ 333 58038 60037
7:00 AM +07 on April 14,2017,2017,4,14,7,0,Asia/Bangkok,24,76,23,73,89,0,0,,,,,10,6,1013,29.93,-999,-999,-9999,-9999,,,Partly Cloudy,partlycloudy,0,0,0,0,0,0,AAXX 14004 48380 11560 80000 10245 20230 30038 40133 52015 60064 70292 8257/ 333 20228 58025 70058
10:00 AM +07 on April 14,2017,2017,4,14,10,0,Asia/Bangkok,29,85,22,72,58,5.6,3.5,,,290,WNW,12,7,1014,29.95,-999,-999,-9999,-9999,,,Scattered Clouds,partlycloudy,0,0,0,0,0,0,AAXX 14034 48380 32562 62903 10293 20225 30048 40141 52009 81276 333 58014
1:00 PM +07 on April 14,2017,2017,4,14,13,0,Asia/Bangkok,33,92,23,73,46,13,8.1,,,160,SSE,12,7,1011,29.86,-999,-999,-9999,-9999,,,Scattered Clouds,partlycloudy,0,0,0,0,0,0,AAXX 14064 48380 32562 21607 10333 20230 30020 40112 57027 82205 333 58018 70058
4:00 PM +07 on April 14,2017,2017,4,14,16,0,Asia/Bangkok,35,95,23,73,40,3.7,2.3,,,40,NE,12,7,1007,29.75,-999,-999,-9999,-9999,,,Scattered Clouds,partlycloudy,0,0,0,0,0,0,AAXX 14094 48380 32562 20402 10352 20230 39982 40073 57038 82201 333 58012
7:00 PM +07 on April 14,2017,2017,4,14,19,0,Asia/Bangkok,33,92,24,76,50,0,0,,,,,12,7,1008,29.76,-999,-999,-9999,-9999,,,Scattered Clouds,partlycloudy,0,0,0,0,0,0,AAXX 14124 48380 32462 50000 10332 20242 39984 40076 52002 81936 333 10354 58002 70058
10:00 PM +07 on April 14,2017,2017,4,14,22,0,Asia/Bangkok,30,87,23,73,56,1.9,1.2,,,50,NE,10,6,1011,29.86,-999,-999,-9999,-9999,,,Scattered Clouds,partlycloudy,0,0,0,0,0,0,AAXX 14154 48380 31460 50501 10303 20230 30017 40109 52033 71322 82936 333 59010
1:00 AM +07 on April 15,2017,2017,4,15,1,0,Asia/Bangkok,25,77,23,73,84,0,0,,,,,3,2,1013,29.92,-999,-999,-9999,-9999,,,Thunderstorms and Rain,tstorms,0,1,0,0,1,0,AAXX 14184 48376 01430 70000 10250 20228 39985 40131 51010 60043 79592 84966 333 58002 60045 70040
4:00 AM +07 on April 15,2017,2017,4,15,4,0,Asia/Bangkok,24,75,22,72,89,0,0,,,,,3,2,1011,29.86,-999,-999,-9999,-9999,,,Mist,hazy,0,0,0,0,0,0,AAXX 14214 48376 21530 60000 10240 20225 39967 40112 57019 71092 82536 333 59004 60037
7:00 AM +07 on April 15,2017,2017,4,15,7,0,Asia/Bangkok,24,75,23,73,91,0,0,,,,,4,2,1012,29.88,-999,-999,-9999,-9999,,,Mist,hazy,0,0,0,0,0,0,AAXX 15004 48376 11540 50000 10240 20227 39973 40119 51007 60074 71092 82556 333 20234 59011 70074
10:00 AM +07 on April 15,2017,2017,4,15,10,0,Asia/Bangkok,28,83,23,74,67,0,0,,,,,4,2,1012,29.9,-999,-999,-9999,-9999,,,Mist,hazy,0,0,0,0,0,0,AAXX 15034 48376 31540 50000 10282 20232 39979 40123 51006 71022 82256 333 59019
1:00 PM +07 on April 15,2017,2017,4,15,13,0,Asia/Bangkok,33,92,23,74,46,0,0,,,,,5,3,1009,29.81,-999,-999,-9999,-9999,,,Haze,hazy,0,0,0,0,0,0,AAXX 15064 48376 31550 20000 10333 20232 39952 40093 57027 70520 81235 333 59014 70074
4:00 PM +07 on April 15,2017,2017,4,15,16,0,Asia/Bangkok,31,87,25,76,64,0,0,,,,,5,3,1007,29.73,-999,-999,-9999,-9999,,,Thunderstorms and Rain,tstorms,0,1,0,0,1,0,AAXX 15094 48376 21550 60000 10308 20247 39924 40066 57028 79592 83966 333 59001 69925
7:00 PM +07 on April 15,2017,2017,4,15,19,0,Asia/Bangkok,28,83,26,79,84,0,0,,,,,4,2,1007,29.75,-999,-999,-9999,-9999,,,Mist,hazy,0,0,0,0,0,0,AAXX 15124 48376 01540 70000 10285 20261 39929 40072 51005 69952 71096 83536 333 10345 59011 69937 70079
10:00 PM +07 on April 15,2017,2017,4,15,22,0,Asia/Bangkok,26,79,22,72,73,0,0,,,,,4,2,1010,29.83,-999,-999,-9999,-9999,,,Thunderstorms and Rain,tstorms,0,1,0,0,1,0,AAXX 15154 48376 21440 60000 10263 20221 39956 40101 52027 79592 83966 333 59019 69995
1:00 AM +07 on April 16,2017,2017,4,16,1,0,Asia/Bangkok,24,75,22,72,87,3.7,2.3,,,330,NNW,4,2,1010,29.83,-999,-999,-9999,-9999,,,Mist,hazy,0,0,0,0,0,0,AAXX 15184 48376 11540 63302 10240 20222 39955 40101 56001 60013 71092 82536 333 59030 70048
4:00 AM +07 on April 16,2017,2017,4,16,4,0,Asia/Bangkok,24,75,22,72,88,0,0,,,,,4,2,1008,29.78,-999,-999,-9999,-9999,,,Mist,hazy,0,0,0,0,0,0,AAXX 15214 48376 31540 50000 10237 20223 39938 40084 57017 71022 82536 333 59029
7:00 AM +07 on April 16,2017,2017,4,16,7,0,Asia/Bangkok,24,76,23,73,86,0,0,,,,,5,3,1010,29.84,-999,-999,-9999,-9999,,,Mist,hazy,0,0,0,0,0,0,AAXX 16004 48376 11550 60000 10242 20226 39958 40103 52020 60014 71022 82536 333 20235 59016 70014
10:00 AM +07 on April 16,2017,2017,4,16,10,0,Asia/Bangkok,29,84,24,75,67,7.4,4.6,,,90,East,6,4,1011,29.86,-999,-999,-9999,-9999,,,Mist,hazy,0,0,0,0,0,0,AAXX 16034 48376 31556 50904 10289 20237 39966 40109 51008 71022 82536 333 59014
1:00 PM +07 on April 16,2017,2017,4,16,13,0,Asia/Bangkok,33,91,22,71,42,9.3,5.8,,,100,East,6,4,1009,29.79,-999,-999,-9999,-9999,,,Haze,hazy,0,0,0,0,0,0,AAXX 16064 48376 31556 61005 10330 20215 39945 40086 57021 70522 82536 333 59007 70014
4:00 PM +07 on April 16,2017,2017,4,16,16,0,Asia/Bangkok,36,96,20,67,29,11.1,6.9,,,110,ESE,5,3,1005,29.68,-999,-999,-9999,-9999,,,Haze,hazy,0,0,0,0,0,0,AAXX 16094 48376 31550 51106 10357 20196 39911 40051 57034 70522 82536 333 59016
10:00 PM +07 on April 16,2017,2017,4,16,22,0,Asia/Bangkok,31,87,21,70,49,5.6,3.5,,,170,South,5,3,1009,29.8,-999,-999,-9999,-9999,,,Haze,hazy,0,0,0,0,0,0,AAXX 16154 48376 31550 51703 10307 20213 39946 40089 52030 70522 82536 333 59012
1:00 AM +07 on April 17,2017,2017,4,17,1,0,Asia/Bangkok,29,84,22,71,57,7.4,4.6,,,260,West,5,3,1010,29.82,-999,-999,-9999,-9999,,,Mist,hazy,0,0,0,0,0,0,AAXX 16184 48376 31550 72604 10288 20217 39953 40096 51007 71022 83536 333 59004
4:00 AM +07 on April 17,2017,2017,4,17,4,0,Asia/Bangkok,27,80,23,73,75,0,0,,,,,4,2,1008,29.77,-999,-999,-9999,-9999,,,Mist,hazy,0,0,0,0,0,0,AAXX 16214 48376 31540 60000 10268 20230 39935 40079 57019 71022 82536 333 59005
7:00 AM +07 on April 17,2017,2017,4,17,7,0,Asia/Bangkok,27,80,23,74,77,0,0,,,,,5,3,1010,29.81,-999,-999,-9999,-9999,,,Mist,hazy,0,0,0,0,0,0,AAXX 17004 48376 31550 70000 10266 20234 39951 40095 52016 71022 84536 333 20263 59008
10:00 AM +07 on April 17,2017,2017,4,17,10,0,Asia/Bangkok,27,81,24,75,78,5.6,3.5,,,180,South,3,2,1012,29.89,-999,-999,-9999,-9999,,,Light Rain,rain,0,1,0,0,0,0,AAXX 17034 48376 21530 81803 10270 20241 39977 40121 52026 76022 8552/ 333 58012 60015
1:00 PM +07 on April 17,2017,2017,4,17,13,0,Asia/Bangkok,28,82,24,76,76,9.3,5.8,,,280,West,3,2,1010,29.84,-999,-999,-9999,-9999,,,Light Rain,rain,0,1,0,0,0,0,AAXX 17064 48376 01530 82805 10275 20242 39959 40104 57017 60021 76062 8552/ 333 58017 60017 70024
4:00 PM +07 on April 17,2017,2017,4,17,16,0,Asia/Bangkok,30,87,24,75,61,5.6,3.5,,,280,West,5,3,1008,29.76,-999,-999,-9999,-9999,,,Mist,hazy,0,0,0,0,0,0,AAXX 17094 48376 31550 62803 10303 20241 39935 40078 57024 71022 83536 333 58027
7:00 PM +07 on April 17,2017,2017,4,17,19,0,Asia/Bangkok,29,85,21,71,53,9.3,5.8,,,260,West,5,3,1009,29.79,-999,-999,-9999,-9999,,,Haze,hazy,0,0,0,0,0,0,AAXX 17124 48376 31550 62605 10292 20214 39944 40087 51009 70522 83536 333 10308 58029 70024
10:00 PM +07 on April 17,2017,2017,4,17,22,0,Asia/Bangkok,28,82,23,73,67,5.6,3.5,,,260,West,5,3,1011,29.86,-999,-999,-9999,-9999,,,Mist,hazy,0,0,0,0,0,0,AAXX 17154 48376 31550 22603 10276 20226 39965 40109 52021 71010 82205 333 58020
1:00 AM +07 on April 18,2017,2017,4,18,1,0,Asia/Bangkok,26,79,22,72,72,5.6,3.5,,,310,NW,5,3,1010,29.84,-999,-999,-9999,-9999,,,Mist,hazy,0,0,0,0,0,0,AAXX 17184 48376 31550 23103 10260 20220 39960 40105 56005 71010 82505 333 58008 70024
4:00 AM +07 on April 18,2017,2017,4,18,4,0,Asia/Bangkok,25,77,22,71,78,0,0,,,,,4,2,1010,29.83,-999,-999,-9999,-9999,,,Mist,hazy,0,0,0,0,0,0,AAXX 17214 48376 31540 20000 10252 20219 39954 40099 56006 71000 82535 333 58020
7:00 AM +07 on April 18,2017,2017,4,18,7,0,Asia/Bangkok,25,76,22,72,86,0,0,,,,,5,3,1010,29.84,-999,-999,-9999,-9999,,,Mist,hazy,0,0,0,0,0,0,AAXX 18004 48376 11550 60000 10247 20225 39958 40103 51004 60024 71020 82536 333 20239 58008 70024
10:00 AM +07 on April 18,2017,2017,4,18,10,0,Asia/Bangkok,31,89,23,73,51,3.7,2.3,,,240,WSW,5,3,1011,29.86,-999,-999,-9999,-9999,,,Haze,hazy,0,0,0,0,0,0,AAXX 18034 48376 31550 52402 10314 20228 39969 40111 52011 70522 82536 333 59010
1:00 PM +07 on April 18,2017,2017,4,18,13,0,Asia/Bangkok,35,95,21,70,34,9.3,5.8,,,250,WSW,5,3,1008,29.78,-999,-999,-9999,-9999,,,Haze,hazy,0,0,0,0,0,0,AAXX 18064 48376 31550 62505 10349 20210 39944 40085 57025 70522 82236 333 59019
4:00 PM +07 on April 18,2017,2017,4,18,16,0,Asia/Bangkok,34,92,22,71,42,0,0,,,,,6,4,1006,29.71,-999,-999,-9999,-9999,,,Haze,hazy,0,0,0,0,0,0,AAXX 18094 48376 31556 60000 10336 20219 39919 40060 57025 70522 83236 333 59018
7:00 PM +07 on April 18,2017,2017,4,18,19,0,Asia/Bangkok,31,88,23,74,54,0,0,,,,,5,3,1007,29.73,-999,-999,-9999,-9999,,,Haze,hazy,0,0,0,0,0,0,AAXX 18124 48376 31550 50000 10310 20232 39926 40068 51007 70522 82536 333 10364 59019
1:00 AM +07 on April 19,2017,2017,4,19,1,0,Asia/Bangkok,28,83,22,71,59,5.6,3.5,,,240,WSW,4,2,1008,29.78,-999,-999,-9999,-9999,,,Mist,hazy,0,0,0,0,0,0,AAXX 18184 48376 31940 22403 10282 20216 39941 40085 56004 71010 80005 333 59020
4:00 AM +07 on April 19,2017,2017,4,19,4,0,Asia/Bangkok,27,81,21,70,61,0,0,,,,,4,2,1008,29.76,-999,-999,-9999,-9999,,,Mist,hazy,0,0,0,0,0,0,AAXX 18214 48376 31940 00000 10270 20210 39932 40076 56009 71000 333 59023
7:00 AM +07 on April 19,2017,2017,4,19,7,0,Asia/Bangkok,27,81,21,70,61,7.4,4.6,,,250,WSW,5,3,1009,29.8,-999,-999,-9999,-9999,,,Mist,hazy,0,0,0,0,0,0,AAXX 19004 48376 31950 22504 10273 20210 39947 40091 52015 71000 80005 333 20264 59012
10:00 AM +07 on April 19,2017,2017,4,19,10,0,Asia/Bangkok,32,90,21,71,43,0,0,,,,,5,3,1010,29.83,-999,-999,-9999,-9999,,,Haze,hazy,0,0,0,0,0,0,AAXX 19034 48376 31550 20000 10325 20214 39961 40102 52014 70500 81505 333 59009
1:00 PM +07 on April 19,2017,2017,4,19,13,0,Asia/Bangkok,35,95,20,68,32,14.8,9.2,,,260,West,6,4,1008,29.77,-999,-999,-9999,-9999,,,Haze,hazy,0,0,0,0,0,0,AAXX 19064 48376 31556 32608 10348 20202 39939 40079 57022 70500 82305 333 59006
4:00 PM +07 on April 19,2017,2017,4,19,16,0,Asia/Bangkok,36,98,19,67,27,14.8,9.2,,,270,West,6,4,1005,29.69,-999,-999,-9999,-9999,,,Haze,hazy,0,0,0,0,0,0,AAXX 19094 48376 31556 22708 10365 20194 39914 40053 57025 70500 81205 333 59007
7:00 PM +07 on April 19,2017,2017,4,19,19,0,Asia/Bangkok,33,91,21,70,40,0,0,,,,,5,3,1006,29.71,-999,-999,-9999,-9999,,,Haze,hazy,0,0,0,0,0,0,AAXX 19124 48376 31950 20000 10327 20210 39920 40061 51006 70500 80005 333 10368 59008
10:00 PM +07 on April 19,2017,2017,4,19,22,0,Asia/Bangkok,30,86,21,70,49,9.3,5.8,,,280,West,4,2,1009,29.79,-999,-999,-9999,-9999,,,Haze,hazy,0,0,0,0,0,0,AAXX 19154 48376 31940 02805 10300 20210 39943 40086 52023 70500 333 59002
1:00 AM +07 on April 21,2017,2017,4,21,1,0,Asia/Bangkok,28,82,19,66,48,11.1,6.9,,,250,WSW,5,3,1008,29.78,-999,-999,-9999,-9999,,,Haze,hazy,0,0,0,0,0,0,AAXX 20184 48376 31950 02506 10280 20187 39941 40085 56001 70500 333 58003
7:00 AM +07 on April 21,2017,2017,4,21,7,0,Asia/Bangkok,27,81,18,65,48,11.1,6.9,,,250,WSW,5,3,1010,29.82,-999,-999,-9999,-9999,,,Haze,hazy,0,0,0,0,0,0,AAXX 21004 48376 31950 02506 10273 20182 39953 40097 52018 70500 333 20266 59001
10:00 AM +07 on April 21,2017,2017,4,21,10,0,Asia/Bangkok,32,89,20,69,42,14.8,9.2,,,270,West,5,3,1011,29.87,-999,-999,-9999,-9999,,,Haze,hazy,0,0,0,0,0,0,AAXX 21034 48376 31950 02708 10317 20204 39971 40113 52018 70500 333 58001
1:00 PM +07 on April 21,2017,2017,4,21,13,0,Asia/Bangkok,35,95,18,64,27,14.8,9.2,,,250,WSW,5,3,1008,29.78,-999,-999,-9999,-9999,,,Haze,hazy,0,0,0,0,0,0,AAXX 21064 48376 31950 02508 10351 20179 39942 40082 57029 70500 333 58004
4:00 PM +07 on April 21,2017,2017,4,21,16,0,Asia/Bangkok,36,97,18,64,24,16.7,10.4,,,270,West,10,6,1006,29.7,-999,-999,-9999,-9999,,,Haze,hazy,0,0,0,0,0,0,AAXX 21094 48376 31960 02709 10359 20176 39916 40056 57026 70500 333 58002
7:00 PM +07 on April 21,2017,2017,4,21,19,0,Asia/Bangkok,32,90,17,63,31,13,8.1,,,280,West,4,2,1006,29.72,-999,-999,-9999,-9999,,,Haze,hazy,0,0,0,0,0,0,AAXX 21124 48376 31940 02807 10321 20172 39923 40064 51006 70500 333 10363 59001
10:00 PM +07 on April 21,2017,2017,4,21,22,0,Asia/Bangkok,30,85,20,69,49,13,8.1,,,270,West,4,2,1009,29.8,-999,-999,-9999,-9999,,,Haze,hazy,0,0,0,0,0,0,AAXX 21154 48376 31940 02707 10296 20204 39946 40089 52023 70500 333 58004
1:00 AM +07 on April 22,2017,2017,4,22,1,0,Asia/Bangkok,28,83,18,64,42,18.5,11.5,,,260,West,4,2,1009,29.81,-999,-999,-9999,-9999,,,Haze,hazy,0,0,0,0,0,0,AAXX 21184 48376 31940 02610 10283 20176 39950 40093 51004 70500 333 58009
4:00 AM +07 on April 22,2017,2017,4,22,4,0,Asia/Bangkok,27,81,21,69,60,14.8,9.2,,,260,West,4,2,1008,29.78,-999,-999,-9999,-9999,,,Mist,hazy,0,0,0,0,0,0,AAXX 21214 48376 31940 02608 10272 20207 39939 40083 57011 71000 333 58004
7:00 AM +07 on April 22,2017,2017,4,22,7,0,Asia/Bangkok,28,82,21,70,59,14.8,9.2,,,260,West,4,2,1010,29.82,-999,-999,-9999,-9999,,,Mist,hazy,0,0,0,0,0,0,AAXX 22004 48376 31940 02608 10276 20211 39952 40096 52013 71000 333 20268 59001
10:00 AM +07 on April 22,2017,2017,4,22,10,0,Asia/Bangkok,33,91,22,72,44,9.3,5.8,,,260,West,5,3,1010,29.84,-999,-999,-9999,-9999,,,Haze,hazy,0,0,0,0,0,0,AAXX 22034 48376 31950 02605 10330 20222 39964 40105 52011 70500 333 59008
1:00 PM +07 on April 22,2017,2017,4,22,13,0,Asia/Bangkok,36,98,21,69,30,7.4,4.6,,,260,West,4,2,1007,29.74,-999,-999,-9999,-9999,,,Haze,hazy,0,0,0,0,0,0,AAXX 22064 48376 31540 22604 10365 20207 39932 40071 57032 70500 81205 333 59011
4:00 PM +07 on April 22,2017,2017,4,22,16,0,Asia/Bangkok,38,100,20,67,25,14.8,9.2,,,270,West,4,2,1004,29.65,-999,-999,-9999,-9999,,,Haze,hazy,0,0,0,0,0,0,AAXX 22094 48376 31940 02708 10377 20196 39901 40040 57031 70500 333 59016
7:00 PM +07 on April 22,2017,2017,4,22,19,0,Asia/Bangkok,34,92,21,70,38,14.8,9.2,,,270,West,4,2,1005,29.68,-999,-999,-9999,-9999,,,Haze,hazy,0,0,0,0,0,0,AAXX 22124 48376 31940 02708 10335 20209 39910 40050 51009 70500 333 10386 59014
10:00 PM +07 on April 22,2017,2017,4,22,22,0,Asia/Bangkok,31,87,22,72,51,9.3,5.8,,,260,West,3,2,1008,29.77,-999,-999,-9999,-9999,,,Haze,hazy,0,0,0,0,0,0,AAXX 22154 48376 31930 02605 10307 20220 39937 40079 52027 70500 333 59010
1:00 AM +07 on April 23,2017,2017,4,23,1,0,Asia/Bangkok,29,85,19,66,43,13,8.1,,,260,West,3,2,1008,29.76,-999,-999,-9999,-9999,,,Haze,hazy,0,0,0,0,0,0,AAXX 22184 48376 31930 02607 10293 20188 39935 40078 56002 70500 333 59016
4:00 AM +07 on April 23,2017,2017,4,23,4,0,Asia/Bangkok,29,84,16,61,36,9.3,5.8,,,250,WSW,4,2,1007,29.75,-999,-999,-9999,-9999,,,Haze,hazy,0,0,0,0,0,0,AAXX 22214 48376 31940 02505 10290 20163 39931 40074 56004 70500 333 59009
7:00 AM +07 on April 23,2017,2017,4,23,7,0,Asia/Bangkok,28,83,18,65,45,14.8,9.2,,,270,West,4,2,1010,29.81,-999,-999,-9999,-9999,,,Haze,hazy,0,0,0,0,0,0,AAXX 23004 48376 31940 02708 10281 20184 39951 40095 52020 70500 333 20276 59002
10:00 AM +07 on April 23,2017,2017,4,23,10,0,Asia/Bangkok,32,90,20,69,40,18.5,11.5,,,270,West,4,2,1011,29.85,-999,-999,-9999,-9999,,,Haze,hazy,0,0,0,0,0,0,AAXX 23034 48376 31940 02710 10325 20205 39965 40107 52014 70500 333 58002
1:00 PM +07 on April 23,2017,2017,4,23,13,0,Asia/Bangkok,36,96,21,69,32,18.5,11.5,,,250,WSW,4,2,1009,29.8,-999,-999,-9999,-9999,,,Haze,hazy,0,0,0,0,0,0,AAXX 23064 48376 31540 22510 10355 20207 39950 40090 57015 70500 82205 333 58019
4:00 PM +07 on April 23,2017,2017,4,23,16,0,Asia/Bangkok,36,96,20,68,31,13,8.1,,,270,West,4,2,1006,29.71,-999,-999,-9999,-9999,,,Haze,hazy,0,0,0,0,0,0,AAXX 23094 48376 31940 02707 10357 20202 39920 40060 57030 70500 333 58020
7:00 PM +07 on April 23,2017,2017,4,23,19,0,Asia/Bangkok,32,90,19,67,37,11.1,6.9,,,260,West,4,2,1006,29.72,-999,-999,-9999,-9999,,,Haze,hazy,0,0,0,0,0,0,AAXX 23124 48376 31540 22606 10322 20194 39920 40062 54000 70500 82505 333 10363 58011
10:00 PM +07 on April 23,2017,2017,4,23,22,0,Asia/Bangkok,30,86,20,68,46,7.4,4.6,,,240,WSW,4,2,1009,29.79,-999,-999,-9999,-9999,,,Haze,hazy,0,0,0,0,0,0,AAXX 23154 48376 31940 22404 10302 20200 39943 40086 52023 70500 80005 333 58007
1:00 AM +07 on April 26,2017,2017,4,26,1,0,Asia/Bangkok,30,86,20,69,47,9.3,5.8,,,270,West,4,2,1008,29.76,-999,-999,-9999,-9999,,,Haze,hazy,0,0,0,0,0,0,AAXX 25184 48376 31940 02705 10298 20204 39934 40077 56004 70500 333 59006
4:00 AM +07 on April 26,2017,2017,4,26,4,0,Asia/Bangkok,29,84,20,68,50,14.8,9.2,,,260,West,4,2,1007,29.75,-999,-999,-9999,-9999,,,Haze,hazy,0,0,0,0,0,0,AAXX 25214 48376 31940 02608 10288 20201 39931 40074 56003 70500 333 59006
7:00 AM +07 on April 26,2017,2017,4,26,7,0,Asia/Bangkok,29,83,22,71,60,11.1,6.9,,,260,West,4,2,1009,29.8,-999,-999,-9999,-9999,,,Mist,hazy,0,0,0,0,0,0,AAXX 26004 48376 31940 02606 10286 20219 39947 40090 52015 71000 333 20278 59013
10:00 AM +07 on April 26,2017,2017,4,26,10,0,Asia/Bangkok,33,92,22,72,43,13,8.1,,,250,WSW,4,2,1010,29.83,-999,-999,-9999,-9999,,,Haze,hazy,0,0,0,0,0,0,AAXX 26034 48376 31940 02507 10333 20222 39959 40101 52013 70500 333 59011
1:00 PM +07 on April 26,2017,2017,4,26,13,0,Asia/Bangkok,37,99,21,70,29,11.1,6.9,,,260,West,4,2,1008,29.76,-999,-999,-9999,-9999,,,Haze,hazy,0,0,0,0,0,0,AAXX 26064 48376 31540 22606 10371 20209 39939 40078 57021 70500 82205 333 59011
4:00 PM +07 on April 26,2017,2017,4,26,16,0,Asia/Bangkok,38,101,22,71,29,11.1,6.9,,,260,West,4,2,1004,29.66,-999,-999,-9999,-9999,,,Haze,hazy,0,0,0,0,0,0,AAXX 26094 48376 31540 22606 10382 20216 39905 40043 57034 70500 82205 333 59013
7:00 PM +07 on April 26,2017,2017,4,26,19,0,Asia/Bangkok,34,93,21,69,36,9.3,5.8,,,250,WSW,4,2,1006,29.7,-999,-999,-9999,-9999,,,Haze,hazy,0,0,0,0,0,0,AAXX 26124 48376 31540 22505 10341 20206 39914 40055 51009 70500 82505 333 10386 59005
10:00 PM +07 on April 26,2017,2017,4,26,22,0,Asia/Bangkok,32,89,22,71,47,11.1,6.9,,,250,WSW,4,2,1008,29.78,-999,-999,-9999,-9999,,,Haze,hazy,0,0,0,0,0,0,AAXX 26154 48376 31940 02506 10318 20218 39940 40082 52026 70500 333 58001
1:00 AM +07 on April 27,2017,2017,4,27,1,0,Asia/Bangkok,30,86,21,70,51,9.3,5.8,,,260,West,4,2,1008,29.78,-999,-999,-9999,-9999,,,Haze,hazy,0,0,0,0,0,0,AAXX 26184 48376 31540 22605 10301 20213 39940 40083 54000 70500 81505 333 58006
4:00 AM +07 on April 27,2017,2017,4,27,4,0,Asia/Bangkok,30,86,20,69,47,11.1,6.9,,,260,West,4,2,1007,29.75,-999,-999,-9999,-9999,,,Haze,hazy,0,0,0,0,0,0,AAXX 26214 48376 31940 02606 10300 20205 39932 40074 56008 70500 333 58000
7:00 AM +07 on April 27,2017,2017,4,27,7,0,Asia/Bangkok,29,85,21,71,53,13,8.1,,,270,West,4,2,1009,29.81,-999,-999,-9999,-9999,,,Haze,hazy,0,0,0,0,0,0,AAXX 27004 48376 31940 02707 10292 20214 39951 40094 52019 70500 333 20286 58004
10:00 AM +07 on April 27,2017,2017,4,27,10,0,Asia/Bangkok,34,93,23,73,42,9.3,5.8,,,270,West,4,2,1011,29.85,-999,-999,-9999,-9999,,,Haze,hazy,0,0,0,0,0,0,AAXX 27034 48376 31940 02705 10338 20226 39965 40106 52014 70500 333 58005
1:00 PM +07 on April 27,2017,2017,4,27,13,0,Asia/Bangkok,38,100,23,74,34,3.7,2.3,,,180,South,5,3,1008,29.77,-999,-999,-9999,-9999,,,Haze,hazy,0,0,0,0,0,0,AAXX 27064 48376 31550 21802 10380 20233 39940 40079 57024 70500 82205 333 58001
4:00 PM +07 on April 27,2017,2017,4,27,16,0,Asia/Bangkok,40,103,22,72,28,5.6,3.5,,,90,East,4,2,1004,29.66,-999,-999,-9999,-9999,,,Haze,hazy,0,0,0,0,0,0,AAXX 27094 48376 31540 30903 10396 20222 39906 40044 57034 70500 82205 333 58000
7:00 PM +07 on April 27,2017,2017,4,27,19,0,Asia/Bangkok,33,91,23,74,48,3.7,2.3,,,270,West,4,2,1006,29.7,-999,-999,-9999,-9999,,,Haze,hazy,0,0,0,0,0,0,AAXX 27124 48376 31540 32702 10330 20232 39916 40057 52010 70500 82535 333 10399 58002
10:00 PM +07 on April 27,2017,2017,4,27,22,0,Asia/Bangkok,32,90,23,73,49,5.6,3.5,,,220,SW,4,2,1009,29.79,-999,-999,-9999,-9999,,,Haze,hazy,0,0,0,0,0,0,AAXX 27154 48376 31540 22203 10321 20228 39946 40088 52030 70500 81505 333 58006
1:00 AM +07 on April 28,2017,2017,4,28,1,0,Asia/Bangkok,31,87,23,73,54,9.3,5.8,,,250,WSW,4,2,1009,29.79,-999,-999,-9999,-9999,,,Haze,hazy,0,0,0,0,0,0,AAXX 27184 48376 31940 02505 10306 20227 39945 40087 56002 70500 333 58005
4:00 AM +07 on April 28,2017,2017,4,28,4,0,Asia/Bangkok,30,86,22,72,55,5.6,3.5,,,240,WSW,4,2,1008,29.76,-999,-999,-9999,-9999,,,Haze,hazy,0,0,0,0,0,0,AAXX 27214 48376 31940 02403 10300 20224 39934 40077 57011 70500 333 58002
7:00 AM +07 on April 28,2017,2017,4,28,7,0,Asia/Bangkok,30,85,21,69,50,5.6,3.5,,,230,SW,4,2,1009,29.8,-999,-999,-9999,-9999,,,Haze,hazy,0,0,0,0,0,0,AAXX 28004 48376 31940 02303 10295 20206 39948 40091 52014 70500 333 20291 59003
10:00 AM +07 on April 28,2017,2017,4,28,10,0,Asia/Bangkok,35,95,23,73,39,3.7,2.3,,,210,SSW,4,2,1010,29.84,-999,-999,-9999,-9999,,,Haze,hazy,0,0,0,0,0,0,AAXX 28034 48376 31540 22102 10348 20226 39962 40103 52014 70500 81135 333 59003
1:00 PM +07 on April 28,2017,2017,4,28,13,0,Asia/Bangkok,38,101,22,72,30,7.4,4.6,,,190,South,4,2,1008,29.76,-999,-999,-9999,-9999,,,Haze,hazy,0,0,0,0,0,0,AAXX 28064 48376 31540 21904 10382 20222 39938 40076 57024 70500 82205 333 59003
4:00 PM +07 on April 28,2017,2017,4,28,16,0,Asia/Bangkok,32,89,22,71,47,7.4,4.6,,,210,SSW,4,2,1005,29.69,-999,-999,-9999,-9999,,,Thunderstorm,tstorms,0,0,0,0,1,0,AAXX 28094 48376 31540 62104 10318 20218 39912 40054 57025 71792 83963 333 58010
7:00 PM +07 on April 28,2017,2017,4,28,19,0,Asia/Bangkok,26,78,24,74,85,0,0,,,,,3,2,1010,29.82,-999,-999,-9999,-9999,,,Thunderstorms and Rain,tstorms,0,1,0,0,1,0,AAXX 28124 48376 01430 80000 10257 20235 39952 40097 52040 60082 79592 84966 333 10390 58040 60086 70080
10:00 PM +07 on April 28,2017,2017,4,28,22,0,Asia/Bangkok,25,78,24,76,90,5.6,3.5,,,320,NW,4,2,1014,29.94,-999,-999,-9999,-9999,,,Mist,hazy,0,0,0,0,0,0,AAXX 28154 48376 21540 63203 10254 20242 39992 40138 52040 71092 82966 333 58050 60017
1:00 AM +07 on April 29,2017,2017,4,29,1,0,Asia/Bangkok,25,77,24,75,91,3.7,2.3,,,110,ESE,4,2,1012,29.9,-999,-999,-9999,-9999,,,Mist,hazy,0,0,0,0,0,0,AAXX 28184 48376 11540 71102 10250 20238 39977 40123 57015 60093 71092 84536 333 58036 70094
4:00 AM +07 on April 29,2017,2017,4,29,4,0,Asia/Bangkok,24,76,23,73,88,0,0,,,,,4,2,1012,29.87,-999,-999,-9999,-9999,,,Mist,hazy,0,0,0,0,0,0,AAXX 28214 48376 31540 80000 10243 20228 39969 40115 56008 71022 84556 333 58038
7:00 AM +07 on April 29,2017,2017,4,29,7,0,Asia/Bangkok,24,76,23,74,91,0,0,,,,,4,2,1012,29.9,-999,-999,-9999,-9999,,,Mist,hazy,0,0,0,0,0,0,AAXX 29004 48376 11540 70000 10244 20232 39979 40125 52010 60094 71022 84536 333 20238 58034 70094
10:00 AM +07 on April 29,2017,2017,4,29,10,0,Asia/Bangkok,28,83,23,74,67,3.7,2.3,,,30,NNE,5,3,1014,29.94,-999,-999,-9999,-9999,,,Mist,hazy,0,0,0,0,0,0,AAXX 29034 48376 31550 60302 10282 20232 39994 40139 52015 71022 83236 333 58036
1:00 PM +07 on April 29,2017,2017,4,29,13,0,Asia/Bangkok,31,88,22,72,50,5.6,3.5,,,210,SSW,6,4,1012,29.89,-999,-999,-9999,-9999,,,Haze,hazy,0,0,0,0,0,0,AAXX 29064 48376 31556 62103 10310 20222 39979 40121 57016 70522 83536 333 58045 70094
4:00 PM +07 on April 29,2017,2017,4,29,16,0,Asia/Bangkok,33,91,23,73,47,5.6,3.5,,,110,ESE,5,3,1009,29.8,-999,-999,-9999,-9999,,,Haze,hazy,0,0,0,0,0,0,AAXX 29094 48376 31550 61103 10330 20229 39947 40089 57031 70522 83236 333 58035
7:00 PM +07 on April 29,2017,2017,4,29,19,0,Asia/Bangkok,30,86,24,75,63,3.7,2.3,,,180,South,5,3,1010,29.81,-999,-999,-9999,-9999,,,Mist,hazy,0,0,0,0,0,0,AAXX 29124 48376 31550 51802 10300 20240 39952 40095 51004 71022 82436 333 10340 59003 70014
10:00 PM +07 on April 29,2017,2017,4,29,22,0,Asia/Bangkok,28,83,24,76,74,0,0,,,,,5,3,1012,29.88,-999,-999,-9999,-9999,,,Mist,hazy,0,0,0,0,0,0,AAXX 29154 48376 31550 30000 10282 20245 39972 40116 52020 71010 82535 333 59022
1:00 AM +07 on April 30,2017,2017,4,30,1,0,Asia/Bangkok,27,80,25,77,89,0,0,,,,,11,7,1011,29.86,-999,-999,-9999,-9999,,,,,0,0,0,0,0,0,AAXX 29184 48380 32961 00000 10269 20252 30019 40112 54000 333 59023 70019
4:00 AM +07 on April 30,2017,2017,4,30,4,0,Asia/Bangkok,26,80,25,77,87,1.9,1.2,,,120,ESE,11,7,1010,29.83,-999,-999,-9999,-9999,,,,,0,0,0,0,0,0,AAXX 29214 48380 32961 01201 10265 20249 30009 40102 57010 333 59012
7:00 AM +07 on April 30,2017,2017,4,30,7,0,Asia/Bangkok,26,79,25,77,92,1.9,1.2,,,180,South,7,4,1011,29.86,-999,-999,-9999,-9999,,,Mist,hazy,0,0,0,0,0,0,AAXX 30004 48380 31957 31801 10263 20250 30018 40112 52009 71000 80001 333 20257 59015
10:00 AM +07 on April 30,2017,2017,4,30,10,0,Asia/Bangkok,31,87,24,76,63,3.7,2.3,,,150,SSE,8,5,1013,29.91,-999,-999,-9999,-9999,,,Mist,hazy,0,0,0,0,0,0,AAXX 30034 48380 31558 41502 10308 20245 30034 40126 50016 71011 82102 333 59010
1:00 PM +07 on April 30,2017,2017,4,30,13,0,Asia/Bangkok,34,93,24,74,46,5.6,3.5,,,110,ESE,6,4,1011,29.85,-999,-999,-9999,-9999,,,Haze,hazy,0,0,0,0,0,0,AAXX 30064 48380 31556 41103 10337 20235 30016 40108 57018 70511 83102 333 59018
4:00 PM +07 on April 30,2017,2017,4,30,16,0,Asia/Bangkok,33,91,24,76,52,1.9,1.2,,,170,South,6,4,1008,29.76,-999,-999,-9999,-9999,,,Light Thunderstorm,tstorms,0,0,0,0,1,0,AAXX 30094 48380 31656 81701 10330 20242 39986 40077 57030 72911 81403 333 59018
7:00 PM +07 on April 30,2017,2017,4,30,19,0,Asia/Bangkok,28,83,23,73,66,5.6,3.5,,,250,WSW,5,3,1009,29.79,-999,-999,-9999,-9999,,,Light Rain,rain,0,1,0,0,0,0,AAXX 30124 48380 01650 82503 10284 20230 39994 40087 52008 69912 76062 83717 333 10351 59009 69917 70001
10:00 PM +07 on April 30,2017,2017,4,30,22,0,Asia/Bangkok,27,81,23,73,71,1.9,1.2,,,240,WSW,6,4,1010,29.84,-999,-999,-9999,-9999,,,Mist,hazy,0,0,0,0,0,0,AAXX 30154 48380 21956 02401 10273 20229 30009 40103 52015 71062 333 59009 69907
1:00 AM +07 on April 24,2017,2017,4,24,1,0,Asia/Bangkok,30,86,20,67,44,5.6,3.5,,,270,West,4,2,1008,29.78,-999,-999,-9999,-9999,,,Haze,hazy,0,0,0,0,0,0,AAXX 23184 48376 31940 22703 10300 20196 39939 40082 56004 70500 80005 333 58004
4:00 AM +07 on April 24,2017,2017,4,24,4,0,Asia/Bangkok,30,85,20,68,47,9.3,5.8,,,250,WSW,4,2,1008,29.76,-999,-999,-9999,-9999,,,Haze,hazy,0,0,0,0,0,0,AAXX 23214 48376 31940 02505 10297 20200 39934 40077 56005 70500 333 58003
7:00 AM +07 on April 24,2017,2017,4,24,7,0,Asia/Bangkok,29,83,18,65,46,13,8.1,,,270,West,4,2,1010,29.82,-999,-999,-9999,-9999,,,Haze,hazy,0,0,0,0,0,0,AAXX 24004 48376 31540 22707 10286 20185 39954 40098 52020 70500 82505 333 20272 58003
10:00 AM +07 on April 24,2017,2017,4,24,10,0,Asia/Bangkok,33,91,21,70,41,18.5,11.5,,,250,WSW,4,2,1012,29.87,-999,-999,-9999,-9999,,,Haze,hazy,0,0,0,0,0,0,AAXX 24034 48376 31540 22510 10327 20211 39973 40115 52019 70500 81105 333 58008
1:00 PM +07 on April 24,2017,2017,4,24,13,0,Asia/Bangkok,37,98,20,69,29,11.1,6.9,,,270,West,4,2,1009,29.79,-999,-999,-9999,-9999,,,Haze,hazy,0,0,0,0,0,0,AAXX 24064 48376 31540 22706 10366 20203 39948 40087 57025 70500 81205 333 59003
4:00 PM +07 on April 24,2017,2017,4,24,16,0,Asia/Bangkok,36,97,20,69,30,18.5,11.5,,,260,West,4,2,1005,29.69,-999,-999,-9999,-9999,,,Haze,hazy,0,0,0,0,0,0,AAXX 24094 48376 31940 22610 10363 20204 39914 40053 57033 70500 80005 333 59006
7:00 PM +07 on April 24,2017,2017,4,24,19,0,Asia/Bangkok,33,92,19,67,34,16.7,10.4,,,250,WSW,4,2,1006,29.7,-999,-999,-9999,-9999,,,Haze,hazy,0,0,0,0,0,0,AAXX 24124 48376 31540 22509 10332 20194 39914 40055 54000 70500 81205 333 10370 59007
10:00 PM +07 on April 24,2017,2017,4,24,22,0,Asia/Bangkok,31,88,22,71,47,14.8,9.2,,,260,West,4,2,1008,29.78,-999,-999,-9999,-9999,,,Haze,hazy,0,0,0,0,0,0,AAXX 24154 48376 31940 02608 10310 20215 39943 40085 52029 70500 333 59001
1:00 AM +07 on April 25,2017,2017,4,25,1,0,Asia/Bangkok,30,85,20,68,47,16.7,10.4,,,270,West,4,2,1008,29.78,-999,-999,-9999,-9999,,,Haze,hazy,0,0,0,0,0,0,AAXX 24184 48376 31940 02709 10297 20198 39940 40083 56003 70500 333 58001
4:00 AM +07 on April 25,2017,2017,4,25,4,0,Asia/Bangkok,28,83,21,69,54,14.8,9.2,,,260,West,4,2,1008,29.77,-999,-999,-9999,-9999,,,Haze,hazy,0,0,0,0,0,0,AAXX 24214 48376 31940 02608 10285 20206 39937 40080 56003 70500 333 58004
7:00 AM +07 on April 25,2017,2017,4,25,7,0,Asia/Bangkok,29,83,22,71,59,13,8.1,,,270,West,4,2,1010,29.84,-999,-999,-9999,-9999,,,Mist,hazy,0,0,0,0,0,0,AAXX 25004 48376 31540 22707 10286 20216 39959 40103 52022 71000 82205 333 20279 58005
10:00 AM +07 on April 25,2017,2017,4,25,10,0,Asia/Bangkok,31,88,22,71,47,11.1,6.9,,,270,West,4,2,1011,29.86,-999,-999,-9999,-9999,,,Haze,hazy,0,0,0,0,0,0,AAXX 25034 48376 31540 62706 10310 20215 39969 40112 52010 70520 83536 333 59003
1:00 PM +07 on April 25,2017,2017,4,25,13,0,Asia/Bangkok,35,94,20,69,34,14.8,9.2,,,250,WSW,5,3,1009,29.8,-999,-999,-9999,-9999,,,Haze,hazy,0,0,0,0,0,0,AAXX 25064 48376 31550 22508 10346 20203 39948 40089 57021 70520 82205 333 58002
4:00 PM +07 on April 25,2017,2017,4,25,16,0,Asia/Bangkok,36,96,18,64,26,18.5,11.5,,,250,WSW,5,3,1006,29.7,-999,-999,-9999,-9999,,,Haze,hazy,0,0,0,0,0,0,AAXX 25094 48376 31950 22510 10358 20180 39916 40056 57032 70500 80005 333 58002
7:00 PM +07 on April 25,2017,2017,4,25,19,0,Asia/Bangkok,32,90,20,68,39,18.5,11.5,,,260,West,5,3,1006,29.71,-999,-999,-9999,-9999,,,Haze,hazy,0,0,0,0,0,0,AAXX 25124 48376 31950 22610 10322 20202 39918 40060 51002 70500 80005 333 10365 58005
10:00 PM +07 on April 25,2017,2017,4,25,22,0,Asia/Bangkok,31,87,22,71,50,14.8,9.2,,,250,WSW,4,2,1008,29.77,-999,-999,-9999,-9999,,,Haze,hazy,0,0,0,0,0,0,AAXX 25154 48376 31940 22508 10308 20216 39938 40081 52020 70500 80005 333 59004
1:00 AM +07 on May 01,2017,2017,5,1,1,0,Asia/Bangkok,26,79,24,75,83,0,0,,,,,6,4,1009,29.81,-999,-999,-9999,-9999,,,Mist,hazy,0,0,0,0,0,0,AAXX 30184 48380 11956 00000 10262 20237 30000 40094 57009 69913 71062 333 59018 70001
4:00 AM +07 on May 01,2017,2017,5,1,4,0,Asia/Bangkok,26,78,24,75,86,0,0,,,,,6,4,1009,29.81,-999,-999,-9999,-9999,,,Mist,hazy,0,0,0,0,0,0,AAXX 30214 48380 31956 00000 10256 20237 39998 40092 57002 71000 333 59010
7:00 AM +07 on May 01,2017,2017,5,1,7,0,Asia/Bangkok,26,78,24,76,90,0,0,,,,,6,4,1012,29.87,-999,-999,-9999,-9999,,,Mist,hazy,0,0,0,0,0,0,AAXX 01004 48380 11556 60000 10258 20242 30021 40115 52023 69914 71010 81536 333 20250 58003 70001
10:00 AM +07 on May 01,2017,2017,5,1,10,0,Asia/Bangkok,32,90,23,73,48,3.7,2.3,,,90,East,8,5,1013,29.91,-999,-999,-9999,-9999,,,Haze,hazy,0,0,0,0,0,0,AAXX 01034 48380 31958 10902 10323 20227 30034 40126 52013 70500 80001 333 59001
1:00 PM +07 on May 01,2017,2017,5,1,13,0,Asia/Bangkok,35,95,23,73,40,5.6,3.5,,,320,NW,9,6,1011,29.86,-999,-999,-9999,-9999,,,Haze,hazy,0,0,0,0,0,0,AAXX 01064 48380 31559 23203 10350 20229 30019 40110 57014 70500 81201 333 58003 70001
4:00 PM +07 on May 01,2017,2017,5,1,16,0,Asia/Bangkok,36,98,22,72,35,3.7,2.3,,,20,NNE,10,6,1007,29.74,-999,-999,-9999,-9999,,,Scattered Clouds,partlycloudy,0,0,0,0,0,0,AAXX 01094 48380 32460 50202 10365 20225 39980 40070 57039 81936 333 59007
7:00 PM +07 on May 01,2017,2017,5,1,19,0,Asia/Bangkok,34,92,24,75,50,1.9,1.2,,,100,East,9,6,1008,29.76,-999,-999,-9999,-9999,,,Haze,hazy,0,0,0,0,0,0,AAXX 01124 48380 31559 21001 10335 20241 39985 40076 52005 70511 81235 333 10369 59011 79999
10:00 PM +07 on May 01,2017,2017,5,1,22,0,Asia/Bangkok,31,88,25,76,61,1.9,1.2,,,230,SW,8,5,1010,29.83,-999,-999,-9999,-9999,,,Mist,hazy,0,0,0,0,0,0,AAXX 01154 48380 31958 22301 10309 20246 30007 40099 52022 71000 80005 333 59004
1:00 AM +07 on May 02,2017,2017,5,2,1,0,Asia/Bangkok,31,88,23,74,54,9.3,5.8,,,260,West,4,2,1009,29.8,-999,-999,-9999,-9999,,,Haze,hazy,0,0,0,0,0,0,AAXX 01184 48376 31940 02605 10310 20232 39947 40090 57012 70500 333 59003
4:00 AM +07 on May 02,2017,2017,5,2,4,0,Asia/Bangkok,30,86,23,74,59,9.3,5.8,,,250,WSW,4,2,1009,29.79,-999,-999,-9999,-9999,,,Mist,hazy,0,0,0,0,0,0,AAXX 01214 48376 31940 02505 10300 20232 39945 40088 56002 71000 333 58000
7:00 AM +07 on May 02,2017,2017,5,2,7,0,Asia/Bangkok,30,85,21,70,52,14.8,9.2,,,250,WSW,4,2,1010,29.84,-999,-999,-9999,-9999,,,Haze,hazy,0,0,0,0,0,0,AAXX 02004 48376 31940 02508 10296 20212 39962 40105 52016 70500 333 20291 59005
10:00 AM +07 on May 02,2017,2017,5,2,10,0,Asia/Bangkok,34,94,22,72,40,16.7,10.4,,,260,West,8,5,1012,29.87,-999,-999,-9999,-9999,,,Haze,hazy,0,0,0,0,0,0,AAXX 02034 48376 31558 12609 10342 20223 39974 40115 52012 70500 81100 333 59006
1:00 PM +07 on May 02,2017,2017,5,2,13,0,Asia/Bangkok,38,101,23,73,31,11.1,6.9,,,250,WSW,6,4,1009,29.79,-999,-999,-9999,-9999,,,Haze,hazy,0,0,0,0,0,0,AAXX 02064 48376 31556 22506 10382 20227 39947 40086 57026 70500 82200 333 59012
4:00 PM +07 on May 02,2017,2017,5,2,16,0,Asia/Bangkok,39,103,22,71,26,9.3,5.8,,,240,WSW,6,4,1006,29.7,-999,-999,-9999,-9999,,,Haze,hazy,0,0,0,0,0,0,AAXX 02094 48376 31556 22405 10392 20215 39918 40056 57029 70500 82305 333 59007
7:00 PM +07 on May 02,2017,2017,5,2,19,0,Asia/Bangkok,36,96,22,72,37,13,8.1,,,250,WSW,4,2,1007,29.74,-999,-999,-9999,-9999,,,Haze,hazy,0,0,0,0,0,0,AAXX 02124 48376 31540 32507 10355 20225 39930 40070 52012 70500 82535 333 10395 59007
10:00 PM +07 on May 02,2017,2017,5,2,22,0,Asia/Bangkok,33,91,23,74,48,7.4,4.6,,,250,WSW,4,2,1009,29.8,-999,-999,-9999,-9999,,,Haze,hazy,0,0,0,0,0,0,AAXX 02154 48376 31540 22504 10330 20232 39948 40089 52018 70500 82505 333 59013
1:00 AM +07 on May 03,2017,2017,5,3,1,0,Asia/Bangkok,32,89,22,71,47,7.4,4.6,,,250,WSW,4,2,1009,29.79,-999,-999,-9999,-9999,,,Haze,hazy,0,0,0,0,0,0,AAXX 02184 48376 31940 22504 10316 20219 39945 40087 56003 70500 80005 333 59002
4:00 AM +07 on May 03,2017,2017,5,3,4,0,Asia/Bangkok,31,87,20,68,43,14.8,9.2,,,270,West,4,2,1008,29.77,-999,-999,-9999,-9999,,,Haze,hazy,0,0,0,0,0,0,AAXX 02214 48376 31940 02708 10307 20199 39939 40081 56006 70500 333 59007
7:00 AM +07 on May 03,2017,2017,5,3,7,0,Asia/Bangkok,30,85,21,70,51,3.7,2.3,,,270,West,5,3,1010,29.82,-999,-999,-9999,-9999,,,Haze,hazy,0,0,0,0,0,0,AAXX 03004 48376 31950 22702 10296 20209 39953 40096 52014 70500 80005 333 20287 59009
10:00 AM +07 on May 03,2017,2017,5,3,10,0,Asia/Bangkok,36,96,22,71,35,9.3,5.8,,,300,WNW,6,4,1011,29.86,-999,-999,-9999,-9999,,,Haze,hazy,0,0,0,0,0,0,AAXX 03034 48376 31956 23005 10355 20216 39971 40111 52018 70500 80002 333 59003
1:00 PM +07 on May 03,2017,2017,5,3,13,0,Asia/Bangkok,40,104,20,69,23,9.3,5.8,,,300,WNW,5,3,1008,29.76,-999,-999,-9999,-9999,,,Haze,hazy,0,0,0,0,0,0,AAXX 03064 48376 31550 23005 10400 20205 39938 40076 57033 70500 81205 333 59011
4:00 PM +07 on May 03,2017,2017,5,3,16,0,Asia/Bangkok,38,100,22,71,30,11.1,6.9,,,310,NW,5,3,1005,29.68,-999,-999,-9999,-9999,,,Thunderstorm,tstorms,0,0,0,0,1,0,AAXX 03094 48376 31550 53106 10376 20219 39910 40048 57028 71720 82966 333 59008
7:00 PM +07 on May 03,2017,2017,5,3,19,0,Asia/Bangkok,37,98,22,72,35,5.6,3.5,,,120,ESE,5,3,1006,29.71,-999,-999,-9999,-9999,,,Thunderstorm,tstorms,0,0,0,0,1,0,AAXX 03124 48376 31550 61203 10368 20225 39921 40060 52012 71792 83963 333 10422 59009
10:00 PM +07 on May 03,2017,2017,5,3,22,0,Asia/Bangkok,33,92,24,75,49,9.3,5.8,,,250,WSW,5,3,1009,29.79,-999,-999,-9999,-9999,,,Haze,hazy,0,0,0,0,0,0,AAXX 03154 48376 31550 22505 10334 20240 39947 40088 52026 70510 81965 333 59001
1:00 AM +07 on May 09,2017,2017,5,9,1,0,Asia/Bangkok,29,84,24,76,71,3.7,2.3,,,240,WSW,5,3,1008,29.77,-999,-999,-9999,-9999,,,Mist,hazy,0,0,0,0,0,0,AAXX 08184 48376 31950 02402 10287 20245 39937 40080 56004 71000 333 59051 70094
4:00 AM +07 on May 09,2017,2017,5,9,4,0,Asia/Bangkok,27,81,24,75,78,0,0,,,,,5,3,1007,29.74,-999,-999,-9999,-9999,,,Mist,hazy,0,0,0,0,0,0,AAXX 08214 48376 31950 00000 10270 20241 39926 40070 57011 71000 333 59037
7:00 AM +07 on May 09,2017,2017,5,9,7,0,Asia/Bangkok,28,82,23,74,69,3.7,2.3,,,250,WSW,5,3,1009,29.8,-999,-999,-9999,-9999,,,Mist,hazy,0,0,0,0,0,0,AAXX 09004 48376 31950 02502 10278 20231 39947 40090 52021 71000 333 20270 59026
10:00 AM +07 on May 09,2017,2017,5,9,10,0,Asia/Bangkok,34,92,24,74,48,3.7,2.3,,,280,West,5,3,1010,29.83,-999,-999,-9999,-9999,,,Haze,hazy,0,0,0,0,0,0,AAXX 09034 48376 31550 22802 10336 20236 39961 40102 52014 70500 81205 333 59016
1:00 PM +07 on May 09,2017,2017,5,9,13,0,Asia/Bangkok,36,97,25,77,43,7.4,4.6,,,60,ENE,5,3,1008,29.77,-999,-999,-9999,-9999,,,Haze,hazy,0,0,0,0,0,0,AAXX 09064 48376 31550 30604 10362 20248 39939 40079 57022 70500 82305 333 59012
4:00 PM +07 on May 09,2017,2017,5,9,16,0,Asia/Bangkok,37,99,23,73,34,5.6,3.5,,,150,SSE,4,2,1005,29.68,-999,-999,-9999,-9999,,,Haze,hazy,0,0,0,0,0,0,AAXX 09094 48376 31540 31503 10370 20229 39910 40049 57029 70500 82235 333 59004
7:00 PM +07 on May 09,2017,2017,5,9,19,0,Asia/Bangkok,33,91,24,75,51,0,0,,,,,4,2,1006,29.72,-999,-999,-9999,-9999,,,Haze,hazy,0,0,0,0,0,0,AAXX 09124 48376 31540 60000 10330 20238 39921 40062 52010 70520 82536 333 10376 59002
10:00 PM +07 on May 09,2017,2017,5,9,22,0,Asia/Bangkok,30,86,24,76,65,0,0,,,,,4,2,1008,29.78,-999,-999,-9999,-9999,,,Mist,hazy,0,0,0,0,0,0,AAXX 09154 48376 31540 60000 10302 20243 39940 40083 52020 71022 82536 333 59002
1:00 AM +07 on May 10,2017,2017,5,10,1,0,Asia/Bangkok,28,83,22,71,60,11.1,6.9,,,220,SW,3,2,1010,29.82,-999,-999,-9999,-9999,,,Thunderstorm,tstorms,0,0,0,0,1,0,AAXX 09184 48376 31530 62206 10284 20219 39954 40098 52014 71792 83963 333 58018
4:00 AM +07 on May 10,2017,2017,5,10,4,0,Asia/Bangkok,24,75,22,72,87,0,0,,,,,6,4,1010,29.84,-999,-999,-9999,-9999,,,Mist,hazy,0,0,0,0,0,0,AAXX 09214 48376 21556 60000 10240 20222 39959 40105 51005 71092 82966 333 58035 60077
10:00 AM +07 on May 10,2017,2017,5,10,10,0,Asia/Bangkok,28,83,24,74,69,3.7,2.3,,,340,NNW,8,5,1013,29.91,-999,-999,-9999,-9999,,,Mist,hazy,0,0,0,0,0,0,AAXX 10034 48376 31558 53402 10283 20235 39984 40128 51008 71022 82536 333 58026
1:00 PM +07 on May 10,2017,2017,5,10,13,0,Asia/Bangkok,32,90,24,74,51,5.6,3.5,,,60,ENE,8,5,1010,29.84,-999,-999,-9999,-9999,,,Haze,hazy,0,0,0,0,0,0,AAXX 10064 48376 31558 20603 10323 20235 39963 40104 57021 70520 82205 333 58026 70070
4:00 PM +07 on May 10,2017,2017,5,10,16,0,Asia/Bangkok,34,93,23,74,45,5.6,3.5,,,70,ENE,7,4,1006,29.73,-999,-999,-9999,-9999,,,Haze,hazy,0,0,0,0,0,0,AAXX 10094 48376 31557 20703 10340 20234 39924 40065 57039 70500 82205 333 58015
7:00 PM +07 on May 10,2017,2017,5,10,19,0,Asia/Bangkok,32,89,24,75,56,3.7,2.3,,,140,SE,6,4,1009,29.79,-999,-999,-9999,-9999,,,Haze,hazy,0,0,0,0,0,0,AAXX 10124 48376 31556 21402 10316 20240 39944 40086 52020 70500 81205 333 10344 58024 70070
10:00 PM +07 on May 10,2017,2017,5,10,22,0,Asia/Bangkok,29,85,25,78,73,3.7,2.3,,,80,East,5,3,1011,29.85,-999,-999,-9999,-9999,,,Mist,hazy,0,0,0,0,0,0,AAXX 10154 48376 31550 30802 10292 20254 39965 40108 52021 71000 82235 333 58026
1:00 AM +07 on May 11,2017,2017,5,11,1,0,Asia/Bangkok,28,82,25,78,83,0,0,,,,,5,3,1011,29.86,-999,-999,-9999,-9999,,,Mist,hazy,0,0,0,0,0,0,AAXX 10184 48376 31550 30000 10280 20254 39966 40110 51001 71000 82535 333 58012 70070
4:00 AM +07 on May 11,2017,2017,5,11,4,0,Asia/Bangkok,27,81,25,78,86,0,0,,,,,5,3,1010,29.83,-999,-999,-9999,-9999,,,Mist,hazy,0,0,0,0,0,0,AAXX 10214 48376 31550 60000 10270 20253 39956 40100 57010 71020 83536 333 59005
7:00 AM +07 on May 11,2017,2017,5,11,7,0,Asia/Bangkok,26,80,25,77,88,0,0,,,,,3,2,1011,29.86,-999,-999,-9999,-9999,,,Mist,hazy,0,0,0,0,0,0,AAXX 11004 48376 31530 80000 10264 20250 39966 40111 52011 71020 84576 333 20260 59011
10:00 AM +07 on May 11,2017,2017,5,11,10,0,Asia/Bangkok,30,87,25,78,67,7.4,4.6,,,50,NE,4,2,1013,29.91,-999,-999,-9999,-9999,,,Mist,hazy,0,0,0,0,0,0,AAXX 11034 48376 31540 60504 10303 20253 39985 40128 52019 71022 83966 333 58000
1:00 PM +07 on May 11,2017,2017,5,11,13,0,Asia/Bangkok,33,92,25,77,53,9.3,5.8,,,60,ENE,6,4,1010,29.84,-999,-999,-9999,-9999,,,Haze,hazy,0,0,0,0,0,0,AAXX 11064 48376 31556 50605 10333 20250 39962 40103 57023 70522 82966 333 59001
4:00 PM +07 on May 11,2017,2017,5,11,16,0,Asia/Bangkok,35,96,23,74,40,5.6,3.5,,,110,ESE,6,4,1007,29.73,-999,-999,-9999,-9999,,,Haze,hazy,0,0,0,0,0,0,AAXX 11094 48376 31556 21103 10353 20234 39928 40068 57033 70510 82205 333 58004
7:00 PM +07 on May 11,2017,2017,5,11,19,0,Asia/Bangkok,32,90,24,75,53,5.6,3.5,,,160,SSE,6,4,1008,29.76,-999,-999,-9999,-9999,,,Haze,hazy,0,0,0,0,0,0,AAXX 11124 48376 31556 31603 10323 20240 39935 40076 51006 70510 82205 333 10357 59010
10:00 PM +07 on May 11,2017,2017,5,11,22,0,Asia/Bangkok,29,85,25,77,71,5.6,3.5,,,90,East,5,3,1011,29.86,-999,-999,-9999,-9999,,,Mist,hazy,0,0,0,0,0,0,AAXX 11154 48376 31550 30903 10293 20249 39966 40109 52031 71000 82535 333 58001
1:00 AM +07 on May 13,2017,2017,5,13,1,0,Asia/Bangkok,28,83,25,77,76,0,0,,,,,4,2,1009,29.81,-999,-999,-9999,-9999,,,Mist,hazy,0,0,0,0,0,0,AAXX 12184 48376 31540 50000 10282 20248 39950 40093 56005 71022 82536 333 59014
4:00 AM +07 on May 13,2017,2017,5,13,4,0,Asia/Bangkok,27,81,24,76,80,0,0,,,,,4,2,1008,29.78,-999,-999,-9999,-9999,,,Mist,hazy,0,0,0,0,0,0,AAXX 12214 48376 31540 60000 10270 20244 39939 40083 57011 71022 82536 333 59018
7:00 AM +07 on May 13,2017,2017,5,13,7,0,Asia/Bangkok,27,81,25,77,83,0,0,,,,,4,2,1009,29.8,-999,-999,-9999,-9999,,,Mist,hazy,0,0,0,0,0,0,AAXX 13004 48376 31540 60000 10271 20248 39947 40091 51008 71022 82536 333 20267 59022
10:00 AM +07 on May 13,2017,2017,5,13,10,0,Asia/Bangkok,30,86,24,75,63,3.7,2.3,,,90,East,4,2,1010,29.84,-999,-999,-9999,-9999,,,Mist,hazy,0,0,0,0,0,0,AAXX 13034 48376 31540 60902 10298 20240 39962 40105 52016 71022 83536 333 59010
1:00 PM +07 on May 13,2017,2017,5,13,13,0,Asia/Bangkok,34,94,25,76,48,5.6,3.5,,,100,East,5,3,1007,29.75,-999,-999,-9999,-9999,,,Haze,hazy,0,0,0,0,0,0,AAXX 13064 48376 31550 51003 10345 20246 39934 40074 57029 70522 82966 333 59013
4:00 PM +07 on May 13,2017,2017,5,13,16,0,Asia/Bangkok,31,88,24,75,57,3.7,2.3,,,240,WSW,4,2,1005,29.68,-999,-999,-9999,-9999,,,Haze,hazy,0,0,0,0,0,0,AAXX 13094 48376 31540 62402 10313 20237 39910 40051 57024 70592 82966 333 59008
7:00 PM +07 on May 13,2017,2017,5,13,19,0,Asia/Bangkok,31,88,25,76,61,3.7,2.3,,,190,South,4,2,1006,29.72,-999,-999,-9999,-9999,,,Mist,hazy,0,0,0,0,0,0,AAXX 13124 48376 31540 61902 10310 20246 39922 40064 51012 71092 82966 333 10352 59001
10:00 PM +07 on May 13,2017,2017,5,13,22,0,Asia/Bangkok,26,78,24,76,92,5.6,3.5,,,160,SSE,3,2,1010,29.83,-999,-999,-9999,-9999,,,Thunderstorms and Rain,tstorms,0,1,0,0,1,0,AAXX 13154 48376 21430 71603 10255 20245 39956 40101 52034 79592 83963 333 58003 60196
1:00 AM +07 on May 14,2017,2017,5,14,1,0,Asia/Bangkok,25,76,24,75,94,3.7,2.3,,,230,SW,8,5,1010,29.82,-999,-999,-9999,-9999,,,Light Rain,rain,0,1,0,0,0,0,AAXX 13184 48380 01558 82302 10247 20237 30004 40098 57008 60363 76196 8657/ 333 58005 69937 70358
4:00 AM +07 on May 14,2017,2017,5,14,4,0,Asia/Bangkok,25,77,24,75,92,0,0,,,,,10,6,1008,29.77,-999,-999,-9999,-9999,,,Partly Cloudy,partlycloudy,0,0,0,0,0,0,AAXX 13214 48380 21560 80000 10250 20240 39986 40080 57018 70262 8257/ 333 59001 69927
7:00 AM +07 on May 14,2017,2017,5,14,7,0,Asia/Bangkok,25,77,24,76,94,0,0,,,,,10,6,1010,29.81,-999,-999,-9999,-9999,,,Partly Cloudy,partlycloudy,0,0,0,0,0,0,AAXX 14004 48380 11460 80000 10252 20242 30001 40095 52015 60364 70262 8677/ 333 20245 58000 70360
10:00 AM +07 on May 14,2017,2017,5,14,10,0,Asia/Bangkok,28,82,24,74,72,1.9,1.2,,,140,SE,12,7,1010,29.83,-999,-999,-9999,-9999,,,Overcast,cloudy,0,0,0,0,0,0,AAXX 14034 48380 32562 81401 10280 20236 30009 40102 52008 8257/ 333 59005
1:00 PM +07 on May 14,2017,2017,5,14,13,0,Asia/Bangkok,31,87,24,74,59,1.9,1.2,,,340,NNW,12,7,1007,29.75,-999,-999,-9999,-9999,,,Partly Cloudy,partlycloudy,0,0,0,0,0,0,AAXX 14064 48380 32462 63401 10308 20236 39980 40073 57029 84976 333 59005 70390
4:00 PM +07 on May 14,2017,2017,5,14,16,0,Asia/Bangkok,32,89,25,77,59,1.9,1.2,,,200,SSW,12,7,1005,29.68,-999,-999,-9999,-9999,,,Scattered Clouds,partlycloudy,0,0,0,0,0,0,AAXX 14094 48380 32462 72001 10315 20248 39957 40049 57023 81936 333 58000
7:00 PM +07 on May 14,2017,2017,5,14,19,0,Asia/Bangkok,29,84,25,76,72,3.7,2.3,,,260,West,10,6,1006,29.71,-999,-999,-9999,-9999,,,Partly Cloudy,partlycloudy,0,0,0,0,0,0,AAXX 14124 48380 32460 72602 10290 20246 39967 40059 52010 84976 333 10319 59017 70362
10:00 PM +07 on May 14,2017,2017,5,14,22,0,Asia/Bangkok,28,83,25,77,78,3.7,2.3,,,240,WSW,10,6,1007,29.75,-999,-999,-9999,-9999,,,Partly Cloudy,partlycloudy,0,0,0,0,0,0,AAXX 14154 48380 32560 72402 10281 20251 39980 40073 52013 84576 333 59033
1:00 AM +07 on May 15,2017,2017,5,15,1,0,Asia/Bangkok,25,78,24,76,91,11.1,6.9,,,190,South,1,1,1009,29.8,-999,-999,-9999,-9999,,,Thunderstorms and Rain,tstorms,0,1,0,0,1,0,AAXX 14184 48380 01410 81906 10253 20243 39995 40089 51015 60243 79522 8697/ 333 59009 60245 70238
4:00 AM +07 on May 15,2017,2017,5,15,4,0,Asia/Bangkok,25,77,24,76,95,7.4,4.6,,,140,SE,5,3,1007,29.74,-999,-999,-9999,-9999,,,Light Rain,rain,0,1,0,0,0,0,AAXX 14214 48380 21550 81404 10252 20243 39977 40071 57018 76196 8657/ 333 59010 60237
7:00 AM +07 on May 15,2017,2017,5,15,7,0,Asia/Bangkok,26,78,25,77,94,0,0,,,,,8,5,1008,29.76,-999,-999,-9999,-9999,,,Light Rain,rain,0,1,0,0,0,0,AAXX 15004 48380 01558 80000 10255 20248 39984 40078 52007 60474 76196 8357/ 333 20248 59017 69917 70466
10:00 AM +07 on May 15,2017,2017,5,15,10,0,Asia/Bangkok,28,83,26,78,82,5.6,3.5,,,110,ESE,10,6,1009,29.79,-999,-999,-9999,-9999,,,Partly Cloudy,partlycloudy,0,0,0,0,0,0,AAXX 15034 48380 21560 71103 10283 20258 39995 40088 52011 70162 86546 333 59014 69927
1:00 PM +07 on May 15,2017,2017,5,15,13,0,Asia/Bangkok,33,91,25,76,54,9.3,5.8,,,140,SE,12,7,1006,29.72,-999,-999,-9999,-9999,,,Partly Cloudy,partlycloudy,0,0,0,0,0,0,AAXX 15064 48380 11562 61405 10328 20246 39973 40064 57022 69921 70162 82845 333 59009 70468
4:00 PM +07 on May 15,2017,2017,5,15,16,0,Asia/Bangkok,34,94,24,76,47,5.6,3.5,,,300,WNW,12,7,1004,29.64,-999,-999,-9999,-9999,,,Scattered Clouds,partlycloudy,0,0,0,0,0,0,AAXX 15094 48380 32562 33003 10342 20243 39945 40036 57028 82943 333 59013
7:00 PM +07 on May 15,2017,2017,5,15,19,0,Asia/Bangkok,27,81,25,77,83,11.1,6.9,,,220,SW,4,2,1006,29.7,-999,-999,-9999,-9999,,,Thunderstorms and Rain,tstorms,0,1,0,0,1,0,AAXX 15124 48380 01540 82206 10272 20249 39962 40055 52017 60052 79522 8492/ 333 10344 59004 60055 70518
10:00 PM +07 on May 15,2017,2017,5,15,22,0,Asia/Bangkok,26,79,25,77,92,3.7,2.3,,,20,NNE,7,4,1008,29.78,-999,-999,-9999,-9999,,,Light Rain,rain,0,1,0,0,0,0,AAXX 15154 48380 21557 80202 10260 20250 39991 40085 52029 76196 8457/ 333 58012 60227
1:00 AM +07 on May 16,2017,2017,5,16,1,0,Asia/Bangkok,26,78,25,77,94,0,0,,,,,10,6,1007,29.75,-999,-999,-9999,-9999,,,Light Rain,rain,0,1,0,0,0,0,AAXX 15184 48380 01560 80000 10257 20248 39979 40073 57012 60303 72196 8457/ 333 59016 60037 70532
4:00 AM +07 on May 16,2017,2017,5,16,4,0,Asia/Bangkok,26,79,25,77,92,0,0,,,,,10,6,1006,29.7,-999,-999,-9999,-9999,,,Scattered Clouds,partlycloudy,0,0,0,0,0,0,AAXX 15214 48380 32560 60000 10260 20251 39963 40057 57016 82546 333 59014
7:00 AM +07 on May 16,2017,2017,5,16,7,0,Asia/Bangkok,26,79,25,77,92,0,0,,,,,10,6,1008,29.75,-999,-999,-9999,-9999,,,Overcast,cloudy,0,0,0,0,0,0,AAXX 16004 48380 12560 80000 10260 20251 39981 40075 52018 60304 8657/ 333 20253 59003 70302
10:00 AM +07 on May 16,2017,2017,5,16,10,0,Asia/Bangkok,28,83,25,78,79,5.6,3.5,,,200,SSW,10,6,1008,29.78,-999,-999,-9999,-9999,,,Overcast,cloudy,0,0,0,0,0,0,AAXX 16034 48380 32560 82003 10283 20253 39991 40084 52010 83577 333 59004
1:00 PM +07 on May 16,2017,2017,5,16,13,0,Asia/Bangkok,32,89,25,77,60,3.7,2.3,,,130,SE,10,6,1006,29.7,-999,-999,-9999,-9999,,,Scattered Clouds,partlycloudy,0,0,0,0,0,0,AAXX 16064 48380 32560 71302 10317 20250 39966 40058 57025 82246 333 59006 70300
4:00 PM +07 on May 16,2017,2017,5,16,16,0,Asia/Bangkok,29,84,26,80,83,5.6,3.5,,,280,West,10,6,1004,29.64,-999,-999,-9999,-9999,,,Light Rain,rain,0,1,0,0,0,0,AAXX 16094 48380 21560 82803 10290 20265 39943 40036 57023 76062 83577 333 58000 60027
7:00 PM +07 on May 16,2017,2017,5,16,19,0,Asia/Bangkok,29,85,26,80,79,0,0,,,,,10,6,1005,29.67,-999,-999,-9999,-9999,,,Partly Cloudy,partlycloudy,0,0,0,0,0,0,AAXX 16124 48380 11560 80000 10292 20264 39955 40047 52011 60022 70266 84976 333 10322 59008 70271
10:00 PM +07 on May 16,2017,2017,5,16,22,0,Asia/Bangkok,27,81,26,78,90,0,0,,,,,8,5,1007,29.74,-999,-999,-9999,-9999,,,Light Rain,rain,0,1,0,0,0,0,AAXX 16154 48380 21558 80000 10272 20258 39976 40069 52022 76096 8457/ 333 59015 60017
1:00 AM +07 on May 17,2017,2017,5,17,1,0,Asia/Bangkok,24,76,24,75,97,0,0,,,,,5,3,1006,29.7,-999,-999,-9999,-9999,,,Light Rain,rain,0,1,0,0,0,0,AAXX 16184 48376 01550 80000 10245 20241 39913 40058 57010 60153 76162 8552/ 333 59003 60147 70153
4:00 AM +07 on May 17,2017,2017,5,17,4,0,Asia/Bangkok,25,77,24,76,95,0,0,,,,,5,3,1004,29.66,-999,-999,-9999,-9999,,,Light Rain,rain,0,1,0,0,0,0,AAXX 16214 48376 21550 80000 10250 20243 39900 40044 57013 76062 8452/ 333 59012 60017
7:00 AM +07 on May 17,2017,2017,5,17,7,0,Asia/Bangkok,25,77,24,76,95,0,0,,,,,2,1,1005,29.69,-999,-999,-9999,-9999,,,Light Rain,rain,0,1,0,0,0,0,AAXX 17004 48376 01520 80000 10248 20244 39909 40053 51009 60174 76062 8552/ 333 20243 59024 69935 70166
10:00 AM +07 on May 17,2017,2017,5,17,10,0,Asia/Bangkok,26,79,25,77,92,0,0,,,,,2,1,1006,29.71,-999,-999,-9999,-9999,,,Light Rain,rain,0,1,0,0,0,0,AAXX 17034 48376 21520 80000 10260 20250 39916 40061 51008 76162 85576 333 59024 69947
1:00 PM +07 on May 17,2017,2017,5,17,13,0,Asia/Bangkok,26,79,25,77,93,5.6,3.5,,,70,ENE,2,1,1004,29.67,-999,-999,-9999,-9999,,,Light Rain,rain,0,1,0,0,0,0,AAXX 17064 48376 01520 80703 10261 20252 39901 40045 57015 60041 76162 8552/ 333 59023 60047 70206
4:00 PM +07 on May 17,2017,2017,5,17,16,0,Asia/Bangkok,26,79,25,78,94,0,0,,,,,1.5,1,1003,29.61,-999,-999,-9999,-9999,,,Light Rain,rain,0,1,0,0,0,0,AAXX 17094 48376 21515 80000 10260 20253 39883 40027 57018 76166 8552/ 333 59011 60087
7:00 PM +07 on May 17,2017,2017,5,17,19,0,Asia/Bangkok,26,78,25,77,94,0,0,,,,,1.5,1,1004,29.64,-999,-999,-9999,-9999,,,Light Rain,rain,0,1,0,0,0,0,AAXX 17124 48376 01515 80000 10255 20248 39892 40036 51009 60162 76166 8552/ 333 10265 59010 60057 70317
10:00 PM +07 on May 17,2017,2017,5,17,22,0,Asia/Bangkok,25,77,24,75,93,0,0,,,,,1.5,1,1006,29.71,-999,-999,-9999,-9999,,,Light Rain,rain,0,1,0,0,0,0,AAXX 17154 48376 21515 80000 10248 20241 39916 40060 52023 76166 8457/ 333 59007 60137
1:00 AM +07 on May 18,2017,2017,5,18,1,0,Asia/Bangkok,24,75,23,74,95,3.7,2.3,,,300,WNW,3,2,1005,29.69,-999,-999,-9999,-9999,,,Light Rain,rain,0,1,0,0,0,0,AAXX 17184 48380 01430 83002 10240 20233 39960 40054 52002 62453 76196 8472/ 333 59004 60177 72552
4:00 AM +07 on May 18,2017,2017,5,18,4,0,Asia/Bangkok,24,75,24,74,98,1.9,1.2,,,330,NNW,4,2,1005,29.68,-999,-999,-9999,-9999,,,Light Rain,rain,0,1,0,0,0,0,AAXX 17214 48380 21440 83301 10240 20236 39955 40049 57005 76166 8572/ 333 58006 60047
7:00 AM +07 on May 18,2017,2017,5,18,7,0,Asia/Bangkok,24,76,24,74,94,0,0,,,,,11,7,1007,29.73,-999,-999,-9999,-9999,,,Partly Cloudy,partlycloudy,0,0,0,0,0,0,AAXX 18004 48380 01661 70000 10243 20236 39973 40067 52018 62494 70262 83736 333 20234 58016 69917 72489
10:00 AM +07 on May 18,2017,2017,5,18,10,0,Asia/Bangkok,27,81,24,76,81,0,0,,,,,11,7,1008,29.78,-999,-999,-9999,-9999,,,Overcast,cloudy,0,0,0,0,0,0,AAXX 18034 48380 32561 80000 10271 20245 39991 40084 51018 8572/ 333 58026
1:00 PM +07 on May 18,2017,2017,5,18,13,0,Asia/Bangkok,29,84,25,76,72,3.7,2.3,,,60,ENE,11,7,1007,29.74,-999,-999,-9999,-9999,,,Partly Cloudy,partlycloudy,0,0,0,0,0,0,AAXX 18064 48380 32561 70602 10290 20247 39978 40071 57013 84136 333 58027 71864
4:00 PM +07 on May 18,2017,2017,5,18,16,0,Asia/Bangkok,31,87,25,76,63,1.9,1.2,,,340,NNW,12,7,1005,29.68,-999,-999,-9999,-9999,,,Partly Cloudy,partlycloudy,0,0,0,0,0,0,AAXX 18094 48380 32562 63401 10307 20246 39956 40048 57022 84102 333 58030
7:00 PM +07 on May 18,2017,2017,5,18,19,0,Asia/Bangkok,29,84,25,76,72,0,0,,,,,11,7,1006,29.7,-999,-999,-9999,-9999,,,Scattered Clouds,partlycloudy,0,0,0,0,0,0,AAXX 18124 48380 32561 60000 10290 20247 39965 40058 52009 81145 333 10309 58027 70817
10:00 PM +07 on May 18,2017,2017,5,18,22,0,Asia/Bangkok,27,81,25,78,87,0,0,,,,,10,6,1008,29.77,-999,-999,-9999,-9999,,,Clear,clear,0,0,0,0,0,0,AAXX 18154 48380 32960 20000 10274 20254 39987 40081 52022 80005 333 58028
1:00 AM +07 on May 19,2017,2017,5,19,1,0,Asia/Bangkok,27,80,25,78,90,0,0,,,,,10,6,1008,29.76,-999,-999,-9999,-9999,,,Partly Cloudy,partlycloudy,0,0,0,0,0,0,AAXX 18184 48380 32560 50000 10267 20253 39983 40077 57004 83702 333 58022 70044
4:00 AM +07 on May 19,2017,2017,5,19,4,0,Asia/Bangkok,26,79,25,77,93,0,0,,,,,10,6,1007,29.74,-999,-999,-9999,-9999,,,Clear,clear,0,0,0,0,0,0,AAXX 18214 48380 32960 10000 10262 20252 39976 40069 57007 80002 333 58020
7:00 AM +07 on May 19,2017,2017,5,19,7,0,Asia/Bangkok,27,80,25,77,89,0,0,,,,,12,7,1008,29.78,-999,-999,-9999,-9999,,,Scattered Clouds,partlycloudy,0,0,0,0,0,0,AAXX 19004 48380 32562 70000 10268 20252 39989 40082 52013 82576 333 20255 58015
10:00 AM +07 on May 19,2017,2017,5,19,10,0,Asia/Bangkok,30,87,25,77,66,3.7,2.3,,,70,ENE,12,7,1009,29.8,-999,-999,-9999,-9999,,,Scattered Clouds,partlycloudy,0,0,0,0,0,0,AAXX 19034 48380 32562 70702 10305 20251 39997 40090 52009 81270 333 58006
1:00 PM +07 on May 19,2017,2017,5,19,13,0,Asia/Bangkok,32,90,26,79,63,3.7,2.3,,,320,NW,12,7,1007,29.75,-999,-999,-9999,-9999,,,Scattered Clouds,partlycloudy,0,0,0,0,0,0,AAXX 19064 48380 32562 53202 10324 20260 39983 40074 57015 82270 333 58004
7:00 PM +07 on May 19,2017,2017,5,19,19,0,Asia/Bangkok,32,89,26,79,67,3.7,2.3,,,260,West,12,7,1006,29.7,-999,-999,-9999,-9999,,,Scattered Clouds,partlycloudy,0,0,0,0,0,0,AAXX 19124 48380 32562 52602 10316 20263 39965 40057 52006 81336 333 10337 58000
10:00 PM +07 on May 19,2017,2017,5,19,22,0,Asia/Bangkok,28,83,26,78,81,0,0,,,,,10,6,1008,29.78,-999,-999,-9999,-9999,,,Scattered Clouds,partlycloudy,0,0,0,0,0,0,AAXX 19154 48380 32560 50000 10283 20256 39989 40082 52024 81536 333 58001
1:00 AM +07 on May 21,2017,2017,5,21,1,0,Asia/Bangkok,30,85,24,75,65,7.4,4.6,,,260,West,4,2,1004,29.65,-999,-999,-9999,-9999,,,Mist,hazy,0,0,0,0,0,0,AAXX 20184 48376 31940 22604 10296 20238 39898 40040 56007 71000 80005 333 59025
4:00 AM +07 on May 21,2017,2017,5,21,4,0,Asia/Bangkok,29,85,24,75,65,11.1,6.9,,,280,West,4,2,1004,29.65,-999,-999,-9999,-9999,,,Mist,hazy,0,0,0,0,0,0,AAXX 20214 48376 31940 02806 10293 20238 39896 40039 56002 71000 333 59016
7:00 AM +07 on May 21,2017,2017,5,21,7,0,Asia/Bangkok,30,85,24,75,64,11.1,6.9,,,250,WSW,4,2,1005,29.68,-999,-999,-9999,-9999,,,Mist,hazy,0,0,0,0,0,0,AAXX 21004 48376 31940 22506 10295 20237 39906 40049 52010 71000 80005 333 20286 59020
10:00 AM +07 on May 21,2017,2017,5,21,10,0,Asia/Bangkok,33,91,24,76,53,13,8.1,,,250,WSW,4,2,1006,29.71,-999,-999,-9999,-9999,,,Haze,hazy,0,0,0,0,0,0,AAXX 21034 48376 31540 22507 10330 20245 39919 40060 52013 70500 81205 333 59011
1:00 PM +07 on May 21,2017,2017,5,21,13,0,Asia/Bangkok,36,97,25,76,43,13,8.1,,,260,West,5,3,1004,29.66,-999,-999,-9999,-9999,,,Haze,hazy,0,0,0,0,0,0,AAXX 21064 48376 31550 22607 10360 20247 39904 40043 57015 70500 82205 333 59006
4:00 PM +07 on May 21,2017,2017,5,21,16,0,Asia/Bangkok,36,98,24,75,38,16.7,10.4,,,260,West,4,2,1002,29.58,-999,-999,-9999,-9999,,,Haze,hazy,0,0,0,0,0,0,AAXX 21094 48376 31540 22609 10365 20237 39878 40017 57026 70500 82305 333 59004
7:00 PM +07 on May 21,2017,2017,5,21,19,0,Asia/Bangkok,34,93,25,77,50,9.3,5.8,,,260,West,4,2,1002,29.59,-999,-999,-9999,-9999,,,Haze,hazy,0,0,0,0,0,0,AAXX 21124 48376 31540 22605 10340 20248 39878 40018 54000 70500 82535 333 10372 59009
10:00 PM +07 on May 21,2017,2017,5,21,22,0,Asia/Bangkok,32,89,25,77,61,7.4,4.6,,,230,SW,4,2,1005,29.68,-999,-999,-9999,-9999,,,Mist,hazy,0,0,0,0,0,0,AAXX 21154 48376 31940 22304 10315 20251 39907 40049 52029 71000 80005 333 58002
1:00 AM +07 on May 23,2017,2017,5,23,1,0,Asia/Bangkok,31,88,23,74,55,9.3,5.8,,,260,West,5,3,1005,29.69,-999,-999,-9999,-9999,,,Haze,hazy,0,0,0,0,0,0,AAXX 22184 48376 31550 32605 10311 20233 39910 40052 57010 70520 82535 333 58009
4:00 AM +07 on May 23,2017,2017,5,23,4,0,Asia/Bangkok,30,86,24,75,62,13,8.1,,,250,WSW,5,3,1005,29.69,-999,-999,-9999,-9999,,,Mist,hazy,0,0,0,0,0,0,AAXX 22214 48376 31550 22507 10302 20237 39910 40052 54000 71000 82505 333 58010
10:00 AM +07 on May 23,2017,2017,5,23,10,0,Asia/Bangkok,34,93,24,76,49,9.3,5.8,,,250,WSW,5,3,1007,29.75,-999,-999,-9999,-9999,,,Haze,hazy,0,0,0,0,0,0,AAXX 23034 48376 31950 22505 10340 20243 39934 40074 52010 70500 80004 333 58013
1:00 PM +07 on May 23,2017,2017,5,23,13,0,Asia/Bangkok,36,98,25,76,41,14.8,9.2,,,250,WSW,5,3,1005,29.69,-999,-999,-9999,-9999,,,Haze,hazy,0,0,0,0,0,0,AAXX 23064 48376 31550 22508 10364 20247 39915 40054 57019 70500 82205 333 58005
4:00 PM +07 on May 23,2017,2017,5,23,16,0,Asia/Bangkok,37,99,24,75,37,11.1,6.9,,,270,West,5,3,1002,29.6,-999,-999,-9999,-9999,,,Haze,hazy,0,0,0,0,0,0,AAXX 23094 48376 31550 22706 10372 20240 39883 40021 57032 70500 82305 333 58002
7:00 PM +07 on May 23,2017,2017,5,23,19,0,Asia/Bangkok,34,93,24,76,49,5.6,3.5,,,270,West,5,3,1003,29.63,-999,-999,-9999,-9999,,,Haze,hazy,0,0,0,0,0,0,AAXX 23124 48376 31550 22703 10341 20245 39893 40034 52010 70500 82405 333 10377 58003
10:00 PM +07 on May 23,2017,2017,5,23,22,0,Asia/Bangkok,32,90,24,76,56,5.6,3.5,,,240,WSW,5,3,1006,29.7,-999,-999,-9999,-9999,,,Haze,hazy,0,0,0,0,0,0,AAXX 23154 48376 31950 22403 10320 20245 39914 40055 52021 70500 80005 333 59007
1:00 AM +07 on May 25,2017,2017,5,25,1,0,Asia/Bangkok,28,82,24,75,74,3.7,2.3,,,180,South,4,2,1006,29.72,-999,-999,-9999,-9999,,,Mist,hazy,0,0,0,0,0,0,AAXX 24184 48376 31540 51802 10275 20239 39920 40064 56008 71092 82536 333 58005
4:00 AM +07 on May 25,2017,2017,5,25,4,0,Asia/Bangkok,26,79,24,76,88,0,0,,,,,4,2,1006,29.71,-999,-999,-9999,-9999,,,Mist,hazy,0,0,0,0,0,0,AAXX 24214 48376 31540 50000 10262 20245 39916 40060 56005 71022 82536 333 58011
7:00 AM +07 on May 25,2017,2017,5,25,7,0,Asia/Bangkok,26,79,25,76,90,0,0,,,,,4,2,1007,29.74,-999,-999,-9999,-9999,,,Mist,hazy,0,0,0,0,0,0,AAXX 25004 48376 31540 60000 10261 20247 39926 40071 52011 71022 82536 333 20256 58004
10:00 AM +07 on May 25,2017,2017,5,25,10,0,Asia/Bangkok,30,86,25,77,69,0,0,,,,,4,2,1008,29.77,-999,-999,-9999,-9999,,,Mist,hazy,0,0,0,0,0,0,AAXX 25034 48376 31540 60000 10299 20252 39938 40081 52012 71022 82236 333 58006
1:00 PM +07 on May 25,2017,2017,5,25,13,0,Asia/Bangkok,36,97,25,77,44,0,0,,,,,5,3,1006,29.71,-999,-999,-9999,-9999,,,Haze,hazy,0,0,0,0,0,0,AAXX 25064 48376 31550 30000 10362 20250 39921 40060 57017 70520 82205 333 58010
4:00 PM +07 on May 25,2017,2017,5,25,16,0,Asia/Bangkok,35,95,26,78,49,5.6,3.5,,,100,East,4,2,1003,29.62,-999,-999,-9999,-9999,,,Haze,hazy,0,0,0,0,0,0,AAXX 25094 48376 31540 21003 10350 20255 39890 40029 57031 70500 82205 333 58008
7:00 PM +07 on May 25,2017,2017,5,25,19,0,Asia/Bangkok,32,90,26,78,62,3.7,2.3,,,180,South,4,2,1004,29.65,-999,-999,-9999,-9999,,,Mist,hazy,0,0,0,0,0,0,AAXX 25124 48376 31540 21802 10325 20258 39898 40039 51008 71000 82535 333 10365 59011
10:00 PM +07 on May 25,2017,2017,5,25,22,0,Asia/Bangkok,30,86,26,79,74,0,0,,,,,4,2,1008,29.76,-999,-999,-9999,-9999,,,Mist,hazy,0,0,0,0,0,0,AAXX 25154 48376 31940 20000 10299 20260 39933 40076 52035 71000 80005 333 58004
1:00 AM +07 on May 30,2017,2017,5,30,1,0,Asia/Bangkok,27,81,26,78,89,0,0,,,,,4,2,1007,29.74,-999,-999,-9999,-9999,,,Mist,hazy,0,0,0,0,0,0,AAXX 29184 48376 31540 60000 10270 20257 39926 40070 56002 71022 83536 333 59004 70045
4:00 AM +07 on May 30,2017,2017,5,30,4,0,Asia/Bangkok,26,79,25,77,92,0,0,,,,,5,3,1006,29.72,-999,-999,-9999,-9999,,,Mist,hazy,0,0,0,0,0,0,AAXX 29214 48376 31550 50000 10261 20251 39919 40063 56007 71022 82536 333 59002
7:00 AM +07 on May 30,2017,2017,5,30,7,0,Asia/Bangkok,26,80,26,78,91,0,0,,,,,3,2,1008,29.77,-999,-999,-9999,-9999,,,Mist,hazy,0,0,0,0,0,0,AAXX 30004 48376 11530 80000 10264 20255 39935 40080 52017 60054 71022 8552/ 333 20248 58012 70045
10:00 AM +07 on May 30,2017,2017,5,30,10,0,Asia/Bangkok,28,83,25,78,80,5.6,3.5,,,90,East,5,3,1008,29.78,-999,-999,-9999,-9999,,,Mist,hazy,0,0,0,0,0,0,AAXX 30034 48376 31550 70903 10281 20254 39941 40084 52006 71022 84576 333 58007
1:00 PM +07 on May 30,2017,2017,5,30,13,0,Asia/Bangkok,30,86,28,82,83,0,0,,,,,5,3,1007,29.74,-999,-999,-9999,-9999,,,Light Rain,rain,0,1,0,0,0,0,AAXX 30064 48376 01550 80000 10301 20276 39927 40069 57014 60021 72122 85876 333 58004 60025 70045
4:00 PM +07 on May 30,2017,2017,5,30,16,0,Asia/Bangkok,31,87,28,82,80,0,0,,,,,5,3,1004,29.66,-999,-999,-9999,-9999,,,Light Rain,rain,0,1,0,0,0,0,AAXX 30094 48376 21550 60000 10308 20276 39903 40044 57025 72122 84576 333 58001 60015
7:00 PM +07 on May 30,2017,2017,5,30,19,0,Asia/Bangkok,27,80,26,78,93,0,0,,,,,6,4,1007,29.73,-999,-999,-9999,-9999,,,Mist,hazy,0,0,0,0,0,0,AAXX 30124 48376 01556 80000 10267 20257 39922 40066 52019 60232 71062 85576 333 10323 58015 60207 70226
10:00 PM +07 on May 30,2017,2017,5,30,22,0,Asia/Bangkok,26,79,25,78,95,0,0,,,,,5,3,1009,29.8,-999,-999,-9999,-9999,,,Mist,hazy,0,0,0,0,0,0,AAXX 30154 48376 31550 70000 10263 20254 39945 40089 52023 71022 84576 333 58017
1:00 AM +07 on May 31,2017,2017,5,31,1,0,Asia/Bangkok,27,80,25,77,86,0,0,,,,,7,4,1008,29.78,-999,-999,-9999,-9999,,,Mist,hazy,0,0,0,0,0,0,AAXX 30184 48380 11557 80000 10268 20248 39990 40084 57009 69903 71062 81707 333 58011 79999
4:00 AM +07 on May 31,2017,2017,5,31,4,0,Asia/Bangkok,26,79,25,77,90,0,0,,,,,7,4,1008,29.76,-999,-999,-9999,-9999,,,Mist,hazy,0,0,0,0,0,0,AAXX 30214 48380 31957 80000 10262 20248 39985 40078 57006 71022 80007 333 58015
7:00 AM +07 on May 31,2017,2017,5,31,7,0,Asia/Bangkok,26,79,25,77,93,0,0,,,,,10,6,1008,29.78,-999,-999,-9999,-9999,,,Partly Cloudy,partlycloudy,0,0,0,0,0,0,AAXX 31004 48380 12560 70000 10262 20252 39991 40085 52006 69904 84576 333 20256 58003 79999
10:00 AM +07 on May 31,2017,2017,5,31,10,0,Asia/Bangkok,30,86,25,77,68,3.7,2.3,,,310,NW,10,6,1010,29.84,-999,-999,-9999,-9999,,,Partly Cloudy,partlycloudy,0,0,0,0,0,0,AAXX 31034 48380 32560 73102 10301 20250 30012 40105 52021 84576 333 58017
1:00 PM +07 on May 31,2017,2017,5,31,13,0,Asia/Bangkok,33,91,26,79,60,3.7,2.3,,,320,NW,10,6,1008,29.77,-999,-999,-9999,-9999,,,Partly Cloudy,partlycloudy,0,0,0,0,0,0,AAXX 31064 48380 32560 63202 10330 20259 39989 40081 57023 84551 333 58013 79999
4:00 PM +07 on May 31,2017,2017,5,31,16,0,Asia/Bangkok,34,93,25,77,51,5.6,3.5,,,50,NE,12,7,1006,29.7,-999,-999,-9999,-9999,,,Partly Cloudy,partlycloudy,0,0,0,0,0,0,AAXX 31094 48380 32562 50503 10339 20250 39965 40056 57025 84501 333 58009
7:00 PM +07 on May 31,2017,2017,5,31,19,0,Asia/Bangkok,25,77,23,74,88,16.7,10.4,,,290,WNW,1,1,1007,29.75,-999,-999,-9999,-9999,,,Thunderstorms and Rain,tstorms,0,1,0,0,1,0,AAXX 31124 48380 01410 82909 10252 20234 39981 40074 52016 60352 79592 8697/ 333 10343 58012 60355 70350
10:00 PM +07 on May 31,2017,2017,5,31,22,0,Asia/Bangkok,25,77,24,76,95,0,0,,,,,4,2,1010,29.82,-999,-999,-9999,-9999,,,Light Rain,rain,0,1,0,0,0,0,AAXX 31154 48380 21440 80000 10250 20243 30003 40097 52022 76196 8597/ 333 58004 60357
1:00 AM +07 on May 04,2017,2017,5,4,1,0,Asia/Bangkok,30,86,24,75,63,1.9,1.2,,,120,ESE,6,4,1008,29.77,-999,-999,-9999,-9999,,,Mist,hazy,0,0,0,0,0,0,AAXX 03184 48380 31956 01201 10300 20240 39988 40081 57010 71000 333 59003
4:00 AM +07 on May 04,2017,2017,5,4,4,0,Asia/Bangkok,28,83,25,77,77,0,0,,,,,6,4,1007,29.73,-999,-999,-9999,-9999,,,Mist,hazy,0,0,0,0,0,0,AAXX 03214 48380 31956 00000 10285 20249 39974 40067 57014 71000 333 59015
7:00 AM +07 on May 04,2017,2017,5,4,7,0,Asia/Bangkok,28,82,25,78,83,1.9,1.2,,,40,NE,6,4,1009,29.8,-999,-999,-9999,-9999,,,Mist,hazy,0,0,0,0,0,0,AAXX 04004 48380 31956 60401 10280 20254 39998 40091 52024 71000 80001 333 20273 59005
10:00 AM +07 on May 04,2017,2017,5,4,10,0,Asia/Bangkok,33,92,26,79,57,3.7,2.3,,,120,ESE,6,4,1011,29.85,-999,-999,-9999,-9999,,,Mist,hazy,0,0,0,0,0,0,AAXX 04034 48380 31956 11202 10333 20259 30015 40107 50017 71020 80001 333 58003
1:00 PM +07 on May 04,2017,2017,5,4,13,0,Asia/Bangkok,37,99,26,78,43,5.6,3.5,,,150,SSE,6,4,1008,29.78,-999,-999,-9999,-9999,,,Haze,hazy,0,0,0,0,0,0,AAXX 04064 48380 31556 21503 10370 20258 39992 40082 57023 70500 81101 333 58004
4:00 PM +07 on May 04,2017,2017,5,4,16,0,Asia/Bangkok,37,99,23,74,36,3.7,2.3,,,150,SSE,6,4,1005,29.69,-999,-999,-9999,-9999,,,Haze,hazy,0,0,0,0,0,0,AAXX 04094 48380 31556 61502 10371 20234 39964 40054 57028 70500 81903 333 59005
7:00 PM +07 on May 04,2017,2017,5,4,19,0,Asia/Bangkok,32,89,23,74,53,1.9,1.2,,,320,NW,6,4,1006,29.73,-999,-999,-9999,-9999,,,Haze,hazy,0,0,0,0,0,0,AAXX 04124 48380 31556 43201 10319 20234 39973 40065 52009 70521 81202 333 10380 58002
10:00 PM +07 on May 04,2017,2017,5,4,22,0,Asia/Bangkok,26,79,23,74,81,3.7,2.3,,,210,SSW,6,4,1012,29.89,-999,-999,-9999,-9999,,,Thunderstorms and Rain,tstorms,0,1,0,0,1,0,AAXX 04154 48380 21556 82102 10263 20234 30026 40120 52053 79591 85903 333 58030 60065
1:00 AM +07 on May 05,2017,2017,5,5,1,0,Asia/Bangkok,26,80,23,73,73,0,0,,,,,4,2,1010,29.83,-999,-999,-9999,-9999,,,Mist,hazy,0,0,0,0,0,0,AAXX 04184 48376 31540 60000 10264 20226 39957 40102 57021 71022 82536 333 58024
4:00 AM +07 on May 05,2017,2017,5,5,4,0,Asia/Bangkok,26,79,23,74,79,0,0,,,,,3,2,1011,29.85,-999,-999,-9999,-9999,,,Mist,hazy,0,0,0,0,0,0,AAXX 04214 48376 31530 60000 10260 20231 39962 40107 51005 71022 82556 333 58040
7:00 AM +07 on May 05,2017,2017,5,5,7,0,Asia/Bangkok,26,78,23,74,83,0,0,,,,,3,2,1012,29.9,-999,-999,-9999,-9999,,,Mist,hazy,0,0,0,0,0,0,AAXX 05004 48376 31530 60000 10258 20232 39979 40125 52017 71022 83536 333 20254 58036
10:00 AM +07 on May 05,2017,2017,5,5,10,0,Asia/Bangkok,29,84,24,74,66,3.7,2.3,,,280,West,4,2,1013,29.92,-999,-999,-9999,-9999,,,Mist,hazy,0,0,0,0,0,0,AAXX 05034 48376 31540 72802 10288 20236 39988 40131 51008 71022 83536 333 58031
1:00 PM +07 on May 05,2017,2017,5,5,13,0,Asia/Bangkok,35,95,24,74,42,5.6,3.5,,,220,SW,5,3,1010,29.84,-999,-999,-9999,-9999,,,Haze,hazy,0,0,0,0,0,0,AAXX 05064 48376 31550 52203 10352 20236 39963 40104 57025 70522 82236 333 58026
4:00 PM +07 on May 05,2017,2017,5,5,16,0,Asia/Bangkok,34,93,25,76,50,5.6,3.5,,,150,SSE,5,3,1008,29.76,-999,-999,-9999,-9999,,,Haze,hazy,0,0,0,0,0,0,AAXX 05094 48376 31550 61503 10340 20247 39936 40077 57027 70522 82236 333 58023
7:00 PM +07 on May 05,2017,2017,5,5,19,0,Asia/Bangkok,32,89,25,76,59,0,0,,,,,4,2,1009,29.81,-999,-999,-9999,-9999,,,Mist,hazy,0,0,0,0,0,0,AAXX 05124 48376 31540 60000 10317 20247 39950 40092 52014 71022 83536 333 10370 58021
10:00 PM +07 on May 05,2017,2017,5,5,22,0,Asia/Bangkok,30,86,26,78,71,0,0,,,,,4,2,1013,29.92,-999,-999,-9999,-9999,,,Scattered Clouds,partlycloudy,0,0,0,0,0,0,AAXX 05154 48376 31540 60000 10300 20255 39989 40132 52039 71322 82963 333 58010
1:00 AM +07 on May 07,2017,2017,5,7,1,0,Asia/Bangkok,26,78,24,75,89,0,0,,,,,5,3,1011,29.86,-999,-999,-9999,-9999,,,Mist,hazy,0,0,0,0,0,0,AAXX 06184 48376 31950 00000 10256 20241 39967 40112 56007 71010 333 59015 70305
4:00 AM +07 on May 07,2017,2017,5,7,4,0,Asia/Bangkok,25,78,24,75,87,3.7,2.3,,,90,East,5,3,1010,29.84,-999,-999,-9999,-9999,,,Mist,hazy,0,0,0,0,0,0,AAXX 06214 48376 31950 20902 10253 20238 39958 40103 56009 71000 80005 333 59012
7:00 AM +07 on May 07,2017,2017,5,7,7,0,Asia/Bangkok,26,78,24,76,90,0,0,,,,,5,3,1012,29.9,-999,-999,-9999,-9999,,,Mist,hazy,0,0,0,0,0,0,AAXX 07004 48376 11550 60000 10255 20242 39979 40124 52021 60314 71020 82536 333 20248 59014 70305
10:00 AM +07 on May 07,2017,2017,5,7,10,0,Asia/Bangkok,30,85,23,74,61,9.3,5.8,,,120,ESE,6,4,1015,29.98,-999,-999,-9999,-9999,,,Mist,hazy,0,0,0,0,0,0,AAXX 07034 48376 31556 51205 10295 20231 30006 40150 52027 71022 82536 333 58007
1:00 PM +07 on May 07,2017,2017,5,7,13,0,Asia/Bangkok,31,88,24,75,58,9.3,5.8,,,100,East,6,4,1012,29.89,-999,-999,-9999,-9999,,,Mist,hazy,0,0,0,0,0,0,AAXX 07064 48376 31556 61005 10309 20240 39979 40121 57027 71022 83536 333 58013 70305
4:00 PM +07 on May 07,2017,2017,5,7,16,0,Asia/Bangkok,34,92,24,76,50,5.6,3.5,,,90,East,6,4,1008,29.77,-999,-999,-9999,-9999,,,Haze,hazy,0,0,0,0,0,0,AAXX 07094 48376 31556 30903 10336 20242 39939 40080 57040 70510 82314 333 59018
7:00 PM +07 on May 07,2017,2017,5,7,19,0,Asia/Bangkok,31,88,24,76,60,0,0,,,,,6,4,1008,29.77,-999,-999,-9999,-9999,,,Mist,hazy,0,0,0,0,0,0,AAXX 07124 48376 31556 20000 10312 20245 39938 40080 56001 71010 82405 333 10340 59018
10:00 PM +07 on May 07,2017,2017,5,7,22,0,Asia/Bangkok,29,84,25,76,72,0,0,,,,,5,3,1012,29.88,-999,-999,-9999,-9999,,,Mist,hazy,0,0,0,0,0,0,AAXX 07154 48376 31550 20000 10287 20247 39975 40118 52037 71000 82505 333 59001
1:00 AM +07 on May 28,2017,2017,5,28,1,0,Asia/Bangkok,27,81,25,77,83,0,0,,,,,10,6,1007,29.75,-999,-999,-9999,-9999,,,Scattered Clouds,partlycloudy,0,0,0,0,0,0,AAXX 27184 48380 32560 60000 10272 20248 39979 40072 54000 82546 333 59013
4:00 AM +07 on May 28,2017,2017,5,28,4,0,Asia/Bangkok,27,80,25,76,85,0,0,,,,,10,6,1006,29.71,-999,-999,-9999,-9999,,,Scattered Clouds,partlycloudy,0,0,0,0,0,0,AAXX 27214 48380 32560 60000 10268 20246 39967 40060 57012 82546 333 59005
7:00 AM +07 on May 28,2017,2017,5,28,7,0,Asia/Bangkok,27,80,25,76,86,0,0,,,,,10,6,1007,29.74,-999,-999,-9999,-9999,,,Scattered Clouds,partlycloudy,0,0,0,0,0,0,AAXX 28004 48380 32560 60000 10267 20247 39978 40071 52011 82576 333 20261 59005
10:00 AM +07 on May 28,2017,2017,5,28,10,0,Asia/Bangkok,30,86,24,76,65,7.4,4.6,,,130,SE,10,6,1008,29.76,-999,-999,-9999,-9999,,,Overcast,cloudy,0,0,0,0,0,0,AAXX 28034 48380 32560 81304 10300 20243 39983 40076 52005 84577 333 59011
1:00 PM +07 on May 28,2017,2017,5,28,13,0,Asia/Bangkok,32,89,24,75,55,9.3,5.8,,,90,East,10,6,1007,29.73,-999,-999,-9999,-9999,,,Overcast,cloudy,0,0,0,0,0,0,AAXX 28064 48380 32560 80905 10318 20238 39976 40068 57008 85577 333 59004
4:00 PM +07 on May 28,2017,2017,5,28,16,0,Asia/Bangkok,29,84,26,78,77,3.7,2.3,,,270,West,10,6,1004,29.66,-999,-999,-9999,-9999,,,Light Rain,rain,0,1,0,0,0,0,AAXX 28094 48380 21560 72702 10288 20255 39951 40043 57025 76022 82276 333 58003 60025
7:00 PM +07 on May 28,2017,2017,5,28,19,0,Asia/Bangkok,26,78,25,76,94,3.7,2.3,,,180,South,8,5,1006,29.71,-999,-999,-9999,-9999,,,Light Rain,rain,0,1,0,0,0,0,AAXX 28124 48380 01558 81802 10257 20247 39965 40059 52014 60072 76166 8357/ 333 10324 58013 60046 70065
10:00 PM +07 on May 28,2017,2017,5,28,22,0,Asia/Bangkok,26,79,25,77,92,0,0,,,,,10,6,1008,29.75,-999,-999,-9999,-9999,,,Partly Cloudy,partlycloudy,0,0,0,0,0,0,AAXX 28154 48380 21560 80000 10259 20250 39982 40075 52017 70262 8357/ 333 58004 69967
1:00 AM +07 on May 06,2017,2017,5,6,1,0,Asia/Bangkok,28,82,22,72,64,5.6,3.5,,,290,WNW,10,6,1012,29.9,-999,-999,-9999,-9999,,,Scattered Clouds,partlycloudy,0,0,0,0,0,0,AAXX 05184 48380 32560 22903 10280 20221 30030 40123 57004 81145 333 58020
4:00 AM +07 on May 06,2017,2017,5,6,4,0,Asia/Bangkok,26,79,23,73,78,0,0,,,,,10,6,1011,29.86,-999,-999,-9999,-9999,,,Scattered Clouds,partlycloudy,0,0,0,0,0,0,AAXX 05214 48380 32560 20000 10263 20229 30017 40111 57013 81545 333 58002
7:00 AM +07 on May 06,2017,2017,5,6,7,0,Asia/Bangkok,26,78,23,74,83,3.7,2.3,,,340,NNW,10,6,1013,29.93,-999,-999,-9999,-9999,,,Scattered Clouds,partlycloudy,0,0,0,0,0,0,AAXX 06004 48380 32560 23402 10258 20232 30039 40133 52022 81545 333 20252 58007
10:00 AM +07 on May 06,2017,2017,5,6,10,0,Asia/Bangkok,32,89,23,74,52,5.6,3.5,,,10,North,10,6,1015,29.97,-999,-999,-9999,-9999,,,,,0,0,0,0,0,0,AAXX 06034 48380 32960 00103 10317 20232 30054 40147 52015 333 58019
1:00 PM +07 on May 06,2017,2017,5,6,13,0,Asia/Bangkok,35,95,22,71,36,9.3,5.8,,,50,NE,10,6,1012,29.87,-999,-999,-9999,-9999,,,Scattered Clouds,partlycloudy,0,0,0,0,0,0,AAXX 06064 48380 32560 20505 10350 20215 30023 40115 57031 82943 333 58002
4:00 PM +07 on May 06,2017,2017,5,6,16,0,Asia/Bangkok,37,99,22,71,31,11.1,6.9,,,230,SW,10,6,1009,29.79,-999,-999,-9999,-9999,,,Scattered Clouds,partlycloudy,0,0,0,0,0,0,AAXX 06094 48380 32560 32306 10370 20215 39996 40086 57028 82943 333 58001
7:00 PM +07 on May 06,2017,2017,5,6,19,0,Asia/Bangkok,30,87,23,73,55,3.7,2.3,,,200,SSW,10,6,1010,29.82,-999,-999,-9999,-9999,,,Scattered Clouds,partlycloudy,0,0,0,0,0,0,AAXX 06124 48380 32560 62002 10305 20228 30005 40097 52009 82546 333 10373 58002
10:00 PM +07 on May 06,2017,2017,5,6,22,0,Asia/Bangkok,30,85,22,72,58,0,0,,,,,10,6,1012,29.88,-999,-999,-9999,-9999,,,Scattered Clouds,partlycloudy,0,0,0,0,0,0,AAXX 06154 48380 32560 60000 10297 20225 30023 40116 52019 81546 333 59010
1:00 AM +07 on May 20,2017,2017,5,20,1,0,Asia/Bangkok,28,82,24,75,75,9.3,5.8,,,250,WSW,5,3,1006,29.73,-999,-999,-9999,-9999,,,Mist,hazy,0,0,0,0,0,0,AAXX 19184 48376 31550 52505 10280 20241 39922 40065 57012 71021 82536 333 59013
4:00 AM +07 on May 20,2017,2017,5,20,4,0,Asia/Bangkok,28,82,25,77,79,0,0,,,,,5,3,1006,29.7,-999,-999,-9999,-9999,,,Mist,hazy,0,0,0,0,0,0,AAXX 19214 48376 31550 60000 10275 20248 39911 40055 57010 71022 83556 333 59013
7:00 AM +07 on May 20,2017,2017,5,20,7,0,Asia/Bangkok,27,81,25,77,85,0,0,,,,,4,2,1007,29.73,-999,-999,-9999,-9999,,,Mist,hazy,0,0,0,0,0,0,AAXX 20004 48376 31540 60000 10272 20252 39924 40068 52013 71022 82516 333 20263 59017
10:00 AM +07 on May 20,2017,2017,5,20,10,0,Asia/Bangkok,32,90,24,76,55,7.4,4.6,,,280,West,4,2,1007,29.74,-999,-999,-9999,-9999,,,Haze,hazy,0,0,0,0,0,0,AAXX 20034 48376 31540 22804 10325 20244 39930 40071 51006 70520 82205 333 59018
1:00 PM +07 on May 20,2017,2017,5,20,13,0,Asia/Bangkok,35,95,25,77,47,5.6,3.5,,,210,SSW,5,3,1005,29.68,-999,-999,-9999,-9999,,,Haze,hazy,0,0,0,0,0,0,AAXX 20064 48376 31550 32103 10349 20249 39910 40049 57021 70510 82335 333 59022
4:00 PM +07 on May 20,2017,2017,5,20,16,0,Asia/Bangkok,36,97,24,76,42,16.7,10.4,,,260,West,5,3,1002,29.6,-999,-999,-9999,-9999,,,Haze,hazy,0,0,0,0,0,0,AAXX 20094 48376 31550 22609 10362 20245 39882 40021 57028 70500 82205 333 59028
7:00 PM +07 on May 20,2017,2017,5,20,19,0,Asia/Bangkok,32,90,24,75,54,9.3,5.8,,,260,West,4,2,1003,29.61,-999,-999,-9999,-9999,,,Haze,hazy,0,0,0,0,0,0,AAXX 20124 48376 31540 32605 10320 20241 39886 40027 51005 70500 82535 333 10368 59032
10:00 PM +07 on May 20,2017,2017,5,20,22,0,Asia/Bangkok,30,86,23,74,59,3.7,2.3,,,260,West,4,2,1005,29.67,-999,-999,-9999,-9999,,,Mist,hazy,0,0,0,0,0,0,AAXX 20154 48376 31540 22602 10302 20232 39905 40047 52019 71000 81235 333 59031
1:00 AM +07 on May 22,2017,2017,5,22,1,0,Asia/Bangkok,30,87,24,76,62,13,8.1,,,250,WSW,4,2,1004,29.66,-999,-999,-9999,-9999,,,Mist,hazy,0,0,0,0,0,0,AAXX 21184 48376 31940 02507 10305 20243 39901 40043 56006 71000 333 58003
4:00 AM +07 on May 22,2017,2017,5,22,4,0,Asia/Bangkok,30,86,24,75,63,13,8.1,,,250,WSW,4,2,1004,29.66,-999,-999,-9999,-9999,,,Mist,hazy,0,0,0,0,0,0,AAXX 21214 48376 31940 22507 10300 20240 39900 40042 56001 71000 80005 333 58004
7:00 AM +07 on May 22,2017,2017,5,22,7,0,Asia/Bangkok,30,86,23,73,58,13,8.1,,,260,West,5,3,1006,29.7,-999,-999,-9999,-9999,,,Mist,hazy,0,0,0,0,0,0,AAXX 22004 48376 31550 22607 10299 20229 39914 40056 52014 71000 81535 333 20292 58008
10:00 AM +07 on May 22,2017,2017,5,22,10,0,Asia/Bangkok,34,92,24,75,49,13,8.1,,,270,West,5,3,1006,29.72,-999,-999,-9999,-9999,,,Haze,hazy,0,0,0,0,0,0,AAXX 22034 48376 31550 22707 10335 20239 39921 40062 51007 70500 81205 333 58002
1:00 PM +07 on May 22,2017,2017,5,22,13,0,Asia/Bangkok,36,97,25,77,44,11.1,6.9,,,250,WSW,5,3,1005,29.68,-999,-999,-9999,-9999,,,Haze,hazy,0,0,0,0,0,0,AAXX 22064 48376 31550 22506 10362 20251 39910 40049 57011 70500 82205 333 58006
4:00 PM +07 on May 22,2017,2017,5,22,16,0,Asia/Bangkok,37,99,24,76,38,13,8.1,,,270,West,5,3,1002,29.59,-999,-999,-9999,-9999,,,Haze,hazy,0,0,0,0,0,0,AAXX 22094 48376 31550 22707 10370 20243 39881 40019 57029 70500 81205 333 58002
7:00 PM +07 on May 22,2017,2017,5,22,19,0,Asia/Bangkok,34,93,24,76,49,9.3,5.8,,,250,WSW,4,2,1003,29.62,-999,-999,-9999,-9999,,,Haze,hazy,0,0,0,0,0,0,AAXX 22124 48376 31540 22505 10338 20244 39891 40031 52010 70500 81535 333 10378 58013
10:00 PM +07 on May 22,2017,2017,5,22,22,0,Asia/Bangkok,32,89,24,75,56,9.3,5.8,,,260,West,5,3,1006,29.72,-999,-999,-9999,-9999,,,Haze,hazy,0,0,0,0,0,0,AAXX 22154 48376 31550 52605 10317 20241 39921 40062 52030 70520 82536 333 58014
1:00 AM +07 on May 24,2017,2017,5,24,1,0,Asia/Bangkok,29,83,25,76,75,1.9,1.2,,,200,SSW,7,4,1006,29.72,-999,-999,-9999,-9999,,,Mist,hazy,0,0,0,0,0,0,AAXX 23184 48380 31957 02001 10286 20247 39970 40062 52001 71000 333 58009
4:00 AM +07 on May 24,2017,2017,5,24,4,0,Asia/Bangkok,28,83,24,75,71,0,0,,,,,7,4,1006,29.7,-999,-999,-9999,-9999,,,Overcast,cloudy,0,0,0,0,0,0,AAXX 23214 48380 31557 80000 10282 20239 39962 40055 57007 71300 81907 333 58004
7:00 AM +07 on May 24,2017,2017,5,24,7,0,Asia/Bangkok,28,82,25,77,81,1.9,1.2,,,100,East,7,4,1007,29.74,-999,-999,-9999,-9999,,,Mist,hazy,0,0,0,0,0,0,AAXX 24004 48380 31957 61001 10279 20250 39977 40070 52015 71022 81041 333 20273 58004
10:00 AM +07 on May 24,2017,2017,5,24,10,0,Asia/Bangkok,31,89,26,79,66,1.9,1.2,,,320,NW,6,4,1008,29.78,-999,-999,-9999,-9999,,,Mist,hazy,0,0,0,0,0,0,AAXX 24034 48380 31556 63201 10314 20262 39990 40082 51013 71022 83102 333 58003
1:00 PM +07 on May 24,2017,2017,5,24,13,0,Asia/Bangkok,35,95,26,79,51,1.9,1.2,,,110,ESE,6,4,1005,29.69,-999,-999,-9999,-9999,,,Haze,hazy,0,0,0,0,0,0,AAXX 24064 48380 31556 31101 10350 20260 39963 40054 57027 70522 82101 333 59003
4:00 PM +07 on May 24,2017,2017,5,24,16,0,Asia/Bangkok,36,97,27,80,50,5.6,3.5,,,160,SSE,6,4,1002,29.6,-999,-999,-9999,-9999,,,Haze,hazy,0,0,0,0,0,0,AAXX 24094 48380 31556 61603 10360 20266 39932 40022 57031 70511 83901 333 59008
7:00 PM +07 on May 24,2017,2017,5,24,19,0,Asia/Bangkok,27,80,25,77,86,1.9,1.2,,,140,SE,10,6,1004,29.67,-999,-999,-9999,-9999,,,Thunderstorm,tstorms,0,0,0,0,1,0,AAXX 24124 48380 01560 81401 10268 20248 39952 40045 52020 60202 71792 85903 333 10366 58004 60207 70195
10:00 PM +07 on May 24,2017,2017,5,24,22,0,Asia/Bangkok,26,78,24,76,91,3.7,2.3,,,200,SSW,7,4,1008,29.77,-999,-999,-9999,-9999,,,Light Rain,rain,0,1,0,0,0,0,AAXX 24154 48380 21557 82002 10257 20244 39987 40081 52035 76196 8572/ 333 58020 60227
1:00 AM +07 on May 27,2017,2017,5,27,1,0,Asia/Bangkok,27,80,26,78,93,0,0,,,,,4,2,1008,29.78,-999,-999,-9999,-9999,,,Light Rain,rain,0,1,0,0,0,0,AAXX 26184 48376 01540 80000 10267 20257 39940 40084 56002 60423 76022 84576 333 58015 69925 70424
4:00 AM +07 on May 27,2017,2017,5,27,4,0,Asia/Bangkok,26,78,25,77,94,0,0,,,,,5,3,1007,29.73,-999,-999,-9999,-9999,,,Mist,hazy,0,0,0,0,0,0,AAXX 26214 48376 21550 60000 10257 20248 39922 40066 57018 71096 83963 333 59002 60017
7:00 AM +07 on May 27,2017,2017,5,27,7,0,Asia/Bangkok,26,79,25,76,90,0,0,,,,,3,2,1008,29.76,-999,-999,-9999,-9999,,,Mist,hazy,0,0,0,0,0,0,AAXX 27004 48376 11530 80000 10259 20247 39933 40078 52012 60434 71096 8582/ 333 20252 58003 70434
10:00 AM +07 on May 27,2017,2017,5,27,10,0,Asia/Bangkok,29,84,26,78,79,7.4,4.6,,,220,SW,5,3,1008,29.78,-999,-999,-9999,-9999,,,Mist,hazy,0,0,0,0,0,0,AAXX 27034 48376 21550 82204 10290 20258 39941 40084 51007 71062 8582/ 333 59011 69947
1:00 PM +07 on May 27,2017,2017,5,27,13,0,Asia/Bangkok,29,84,26,79,81,5.6,3.5,,,280,West,5,3,1007,29.74,-999,-999,-9999,-9999,,,Mist,hazy,0,0,0,0,0,0,AAXX 27064 48376 01550 72803 10290 20262 39926 40069 57014 60381 71062 84876 333 58001 60377 70394
4:00 PM +07 on May 27,2017,2017,5,27,16,0,Asia/Bangkok,28,83,26,80,87,5.6,3.5,,,310,NW,5,3,1004,29.67,-999,-999,-9999,-9999,,,Mist,hazy,0,0,0,0,0,0,AAXX 27094 48376 21550 63103 10283 20265 39903 40045 57024 71092 83963 333 59015 60036
7:00 PM +07 on May 27,2017,2017,5,27,19,0,Asia/Bangkok,28,83,27,80,89,0,0,,,,,5,3,1005,29.67,-999,-999,-9999,-9999,,,Mist,hazy,0,0,0,0,0,0,AAXX 27124 48376 11550 50000 10282 20268 39903 40046 51001 60412 71092 82436 333 10300 59020 70420
10:00 PM +07 on May 27,2017,2017,5,27,22,0,Asia/Bangkok,27,81,26,80,94,0,0,,,,,5,3,1007,29.75,-999,-999,-9999,-9999,,,Mist,hazy,0,0,0,0,0,0,AAXX 27154 48376 31550 60000 10271 20264 39929 40073 52026 71022 83556 333 59013
1:00 AM +07 on May 29,2017,2017,5,29,1,0,Asia/Bangkok,26,79,25,77,93,0,0,,,,,10,6,1007,29.75,-999,-999,-9999,-9999,,,Partly Cloudy,partlycloudy,0,0,0,0,0,0,AAXX 28184 48380 11560 80000 10262 20252 39981 40074 57001 60073 70262 82577 333 58002 70071
4:00 AM +07 on May 29,2017,2017,5,29,4,0,Asia/Bangkok,26,79,25,77,93,0,0,,,,,10,6,1006,29.73,-999,-999,-9999,-9999,,,Light Rain,rain,0,1,0,0,0,0,AAXX 28214 48380 21560 80000 10262 20252 39971 40065 57009 72122 8357/ 333 58005 69926
7:00 AM +07 on May 29,2017,2017,5,29,7,0,Asia/Bangkok,26,79,25,77,93,0,0,,,,,6,4,1007,29.74,-999,-999,-9999,-9999,,,Mist,hazy,0,0,0,0,0,0,AAXX 29004 48380 11556 80000 10262 20252 39975 40069 52004 60074 71062 8577/ 333 20255 59003 70073
10:00 AM +07 on May 29,2017,2017,5,29,10,0,Asia/Bangkok,28,82,26,79,87,3.7,2.3,,,220,SW,6,4,1008,29.77,-999,-999,-9999,-9999,,,Light Rain,rain,0,1,0,0,0,0,AAXX 29034 48380 21556 82202 10280 20259 39987 40080 50012 72162 8577/ 333 58004 60036
1:00 PM +07 on May 29,2017,2017,5,29,13,0,Asia/Bangkok,31,87,25,78,68,1.9,1.2,,,180,South,7,4,1006,29.73,-999,-999,-9999,-9999,,,Mist,hazy,0,0,0,0,0,0,AAXX 29064 48380 01557 71801 10308 20254 39973 40065 57014 60031 71062 85736 333 59002 69927 70102
4:00 PM +07 on May 29,2017,2017,5,29,16,0,Asia/Bangkok,28,82,25,77,81,1.9,1.2,,,130,SE,7,4,1005,29.67,-999,-999,-9999,-9999,,,Light Rain,rain,0,1,0,0,0,0,AAXX 29094 48380 21557 61301 10280 20251 39953 40046 57020 76062 83716 333 58003 69947
7:00 PM +07 on May 29,2017,2017,5,29,19,0,Asia/Bangkok,27,81,24,75,78,5.6,3.5,,,140,SE,7,4,1006,29.7,-999,-999,-9999,-9999,,,Mist,hazy,0,0,0,0,0,0,AAXX 29124 48380 11557 81403 10272 20240 39962 40055 52009 60032 71062 83747 333 10312 59004 70041
10:00 PM +07 on May 29,2017,2017,5,29,22,0,Asia/Bangkok,27,80,25,77,89,0,0,,,,,6,4,1007,29.74,-999,-999,-9999,-9999,,,Mist,hazy,0,0,0,0,0,0,AAXX 29154 48380 31556 80000 10267 20251 39978 40071 52016 71022 81747 333 59004
1:00 AM +07 on May 08,2017,2017,5,8,1,0,Asia/Bangkok,28,82,26,78,85,0,0,,,,,10,6,1012,29.88,-999,-999,-9999,-9999,,,Scattered Clouds,partlycloudy,0,0,0,0,0,0,AAXX 07184 48380 31460 20000 10278 20257 30023 40117 57005 71300 81935 333 58005 70103
4:00 AM +07 on May 08,2017,2017,5,8,4,0,Asia/Bangkok,26,78,22,72,76,5.6,3.5,,,300,WNW,10,6,1010,29.83,-999,-999,-9999,-9999,,,Light Thunderstorm,tstorms,0,0,0,0,1,0,AAXX 07214 48380 21560 83003 10258 20221 30005 40099 57019 72996 8457/ 333 59003 69905
7:00 AM +07 on May 08,2017,2017,5,8,7,0,Asia/Bangkok,25,77,23,73,85,3.7,2.3,,,310,NW,10,6,1012,29.88,-999,-999,-9999,-9999,,,Partly Cloudy,partlycloudy,0,0,0,0,0,0,AAXX 08004 48380 11560 53102 10248 20229 30022 40116 52017 60074 70196 81535 333 20243 59020 70070
10:00 AM +07 on May 08,2017,2017,5,8,10,0,Asia/Bangkok,30,86,23,74,60,5.6,3.5,,,340,NNW,10,6,1012,29.89,-999,-999,-9999,-9999,,,Scattered Clouds,partlycloudy,0,0,0,0,0,0,AAXX 08034 48380 32560 23403 10302 20234 30029 40122 52007 81231 333 59036
1:00 PM +07 on May 08,2017,2017,5,8,13,0,Asia/Bangkok,34,94,24,75,44,5.6,3.5,,,70,ENE,12,7,1009,29.81,-999,-999,-9999,-9999,,,Scattered Clouds,partlycloudy,0,0,0,0,0,0,AAXX 08064 48380 32462 20703 10343 20237 30000 40092 57029 81933 333 59031 79999
4:00 PM +07 on May 08,2017,2017,5,8,16,0,Asia/Bangkok,34,92,24,75,49,7.4,4.6,,,200,SSW,12,7,1006,29.73,-999,-999,-9999,-9999,,,Scattered Clouds,partlycloudy,0,0,0,0,0,0,AAXX 08094 48380 32462 62004 10335 20239 39974 40065 57026 81976 333 59018
7:00 PM +07 on May 08,2017,2017,5,8,19,0,Asia/Bangkok,32,89,25,78,62,3.7,2.3,,,270,West,10,6,1007,29.73,-999,-999,-9999,-9999,,,Scattered Clouds,partlycloudy,0,0,0,0,0,0,AAXX 08124 48380 32560 62702 10315 20254 39974 40066 54000 81236 333 10356 59018 79999
10:00 PM +07 on May 08,2017,2017,5,8,22,0,Asia/Bangkok,30,85,25,77,72,0,0,,,,,10,6,1009,29.79,-999,-999,-9999,-9999,,,Scattered Clouds,partlycloudy,0,0,0,0,0,0,AAXX 08154 48380 32560 60000 10296 20252 39993 40086 52020 81576 333 59036
1:00 AM +07 on May 12,2017,2017,5,12,1,0,Asia/Bangkok,28,82,25,77,81,3.7,2.3,,,90,East,5,3,1011,29.85,-999,-999,-9999,-9999,,,Mist,hazy,0,0,0,0,0,0,AAXX 11184 48376 31550 30902 10277 20250 39963 40107 56003 71000 82515 333 59003
4:00 AM +07 on May 12,2017,2017,5,12,4,0,Asia/Bangkok,28,82,25,77,81,0,0,,,,,5,3,1010,29.83,-999,-999,-9999,-9999,,,Mist,hazy,0,0,0,0,0,0,AAXX 11214 48376 31550 60000 10277 20251 39957 40101 56006 71020 83536 333 58001
7:00 AM +07 on May 12,2017,2017,5,12,7,0,Asia/Bangkok,27,81,25,78,86,0,0,,,,,4,2,1011,29.87,-999,-999,-9999,-9999,,,Mist,hazy,0,0,0,0,0,0,AAXX 12004 48376 31540 60000 10273 20253 39968 40113 52011 71020 83536 333 20268 58002
10:00 AM +07 on May 12,2017,2017,5,12,10,0,Asia/Bangkok,32,89,24,74,54,9.3,5.8,,,260,West,6,4,1012,29.87,-999,-999,-9999,-9999,,,Haze,hazy,0,0,0,0,0,0,AAXX 12034 48376 31556 52605 10317 20235 39973 40115 51004 70522 82236 333 59013
1:00 PM +07 on May 12,2017,2017,5,12,13,0,Asia/Bangkok,34,94,24,75,46,5.6,3.5,,,180,South,5,3,1009,29.79,-999,-999,-9999,-9999,,,Haze,hazy,0,0,0,0,0,0,AAXX 12064 48376 31550 51803 10342 20241 39947 40087 57026 70522 82966 333 59016
4:00 PM +07 on May 12,2017,2017,5,12,16,0,Asia/Bangkok,36,97,23,73,36,3.7,2.3,,,160,SSE,6,4,1006,29.71,-999,-999,-9999,-9999,,,Haze,hazy,0,0,0,0,0,0,AAXX 12094 48376 31556 61602 10362 20226 39920 40059 57027 70522 82236 333 59009
7:00 PM +07 on May 12,2017,2017,5,12,19,0,Asia/Bangkok,36,96,22,72,37,0,0,,,,,4,2,1006,29.73,-999,-999,-9999,-9999,,,Haze,hazy,0,0,0,0,0,0,AAXX 12124 48376 31540 60000 10358 20223 39926 40065 51006 70522 82536 333 10368 59011
10:00 PM +07 on May 12,2017,2017,5,12,22,0,Asia/Bangkok,29,85,24,75,66,0,0,,,,,4,2,1010,29.82,-999,-999,-9999,-9999,,,Mist,hazy,0,0,0,0,0,0,AAXX 12154 48376 31540 50000 10292 20240 39955 40098 52029 71022 82536 333 59011
1:00 AM +07 on May 26,2017,2017,5,26,1,0,Asia/Bangkok,29,84,26,79,80,0,0,,,,,4,2,1007,29.74,-999,-999,-9999,-9999,,,Mist,hazy,0,0,0,0,0,0,AAXX 25184 48376 31940 00000 10288 20260 39926 40069 56007 71000 333 58005
4:00 AM +07 on May 26,2017,2017,5,26,4,0,Asia/Bangkok,28,83,26,78,82,0,0,,,,,4,2,1007,29.73,-999,-999,-9999,-9999,,,Mist,hazy,0,0,0,0,0,0,AAXX 25214 48376 31940 00000 10282 20258 39925 40068 56001 71000 333 58008
7:00 AM +07 on May 26,2017,2017,5,26,7,0,Asia/Bangkok,27,81,26,78,89,0,0,,,,,5,3,1008,29.75,-999,-999,-9999,-9999,,,Mist,hazy,0,0,0,0,0,0,AAXX 26004 48376 31550 60000 10271 20257 39931 40075 51006 71020 82536 333 20267 58004
10:00 AM +07 on May 26,2017,2017,5,26,10,0,Asia/Bangkok,31,88,24,76,60,5.6,3.5,,,90,East,5,3,1010,29.81,-999,-999,-9999,-9999,,,Mist,hazy,0,0,0,0,0,0,AAXX 26034 48376 31550 80903 10310 20244 39953 40095 52022 71022 82876 333 58014
1:00 PM +07 on May 26,2017,2017,5,26,13,0,Asia/Bangkok,26,79,25,77,92,9.3,5.8,,,290,WNW,3,2,1007,29.73,-999,-999,-9999,-9999,,,Thunderstorms and Rain,tstorms,0,1,0,0,1,0,AAXX 26064 48376 01430 82905 10259 20250 39924 40068 57029 60421 79592 85976 333 58008 60426 70418
7:00 PM +07 on May 26,2017,2017,5,26,19,0,Asia/Bangkok,28,82,26,79,87,3.7,2.3,,,70,ENE,5,3,1007,29.73,-999,-999,-9999,-9999,,,Mist,hazy,0,0,0,0,0,0,AAXX 26124 48376 11550 70702 10277 20259 39923 40067 51007 60422 71092 84556 333 10352 58028 70422
10:00 PM +07 on May 26,2017,2017,5,26,22,0,Asia/Bangkok,27,81,26,78,88,0,0,,,,,5,3,1009,29.79,-999,-999,-9999,-9999,,,Mist,hazy,0,0,0,0,0,0,AAXX 26154 48376 31550 60000 10270 20256 39942 40086 52019 71022 83556 333 58010
1:00 AM +07 on June 03,2017,2017,6,3,1,0,Asia/Bangkok,29,84,24,76,71,3.7,2.3,,,260,West,4,2,1007,29.75,-999,-999,-9999,-9999,,,Mist,hazy,0,0,0,0,0,0,AAXX 02184 48376 31540 52602 10290 20244 39929 40072 56006 71022 82536 333 58001
4:00 AM +07 on June 03,2017,2017,6,3,4,0,Asia/Bangkok,28,82,24,75,74,5.6,3.5,,,270,West,4,2,1007,29.73,-999,-999,-9999,-9999,,,Mist,hazy,0,0,0,0,0,0,AAXX 02214 48376 31540 52703 10275 20239 39922 40066 56007 71022 82536 333 59002
7:00 AM +07 on June 03,2017,2017,6,3,7,0,Asia/Bangkok,28,83,24,76,73,5.6,3.5,,,270,West,5,3,1008,29.77,-999,-999,-9999,-9999,,,Mist,hazy,0,0,0,0,0,0,AAXX 03004 48376 31550 62703 10285 20243 39937 40080 52015 71022 82536 333 20250 59005
10:00 AM +07 on June 03,2017,2017,6,3,10,0,Asia/Bangkok,32,90,25,77,57,5.6,3.5,,,170,South,10,6,1008,29.78,-999,-999,-9999,-9999,,,Scattered Clouds,partlycloudy,0,0,0,0,0,0,AAXX 03034 48376 32560 61703 10323 20248 39944 40085 51007 82336 333 59010
1:00 PM +07 on June 03,2017,2017,6,3,13,0,Asia/Bangkok,34,93,26,79,55,5.6,3.5,,,130,SE,10,6,1007,29.73,-999,-999,-9999,-9999,,,Scattered Clouds,partlycloudy,0,0,0,0,0,0,AAXX 03064 48376 32560 21303 10341 20260 39925 40066 57018 82305 333 59006
4:00 PM +07 on June 03,2017,2017,6,3,16,0,Asia/Bangkok,33,92,23,74,47,16.7,10.4,,,280,West,10,6,1004,29.66,-999,-999,-9999,-9999,,,Scattered Clouds,partlycloudy,0,0,0,0,0,0,AAXX 03094 48376 32560 52809 10333 20234 39901 40042 57024 82966 333 59008
7:00 PM +07 on June 03,2017,2017,6,3,19,0,Asia/Bangkok,27,81,26,78,88,0,0,,,,,4,2,1007,29.73,-999,-999,-9999,-9999,,,Thunderstorms and Rain,tstorms,0,1,0,0,1,0,AAXX 03124 48376 01440 70000 10271 20255 39924 40068 52023 60122 79592 84976 333 10360 58014 60125 70118
10:00 PM +07 on June 03,2017,2017,6,3,22,0,Asia/Bangkok,27,80,26,78,92,0,0,,,,,4,2,1008,29.77,-999,-999,-9999,-9999,,,Mist,hazy,0,0,0,0,0,0,AAXX 03154 48376 21540 60000 10269 20256 39936 40080 52011 71092 82936 333 58002 69987
1:00 AM +07 on June 04,2017,2017,6,4,1,0,Asia/Bangkok,26,78,24,76,91,0,0,,,,,5,3,1007,29.73,-999,-999,-9999,-9999,,,Mist,hazy,0,0,0,0,0,0,AAXX 03184 48376 11550 30000 10255 20243 39924 40068 57012 60133 71092 82235 333 59003 70126
4:00 AM +07 on June 04,2017,2017,6,4,4,0,Asia/Bangkok,25,77,25,76,97,0,0,,,,,5,3,1006,29.71,-999,-999,-9999,-9999,,,Mist,hazy,0,0,0,0,0,0,AAXX 03214 48376 31550 20000 10252 20246 39914 40059 57010 71000 82505 333 59007
7:00 AM +07 on June 04,2017,2017,6,4,7,0,Asia/Bangkok,26,78,25,76,94,0,0,,,,,4,2,1007,29.74,-999,-999,-9999,-9999,,,Mist,hazy,0,0,0,0,0,0,AAXX 04004 48376 11540 60000 10257 20247 39926 40071 52012 60134 71020 83536 333 20249 59009 70126
10:00 AM +07 on June 04,2017,2017,6,4,10,0,Asia/Bangkok,29,85,26,78,76,5.6,3.5,,,110,ESE,5,3,1008,29.76,-999,-999,-9999,-9999,,,Mist,hazy,0,0,0,0,0,0,AAXX 04034 48376 31550 61103 10293 20258 39933 40076 51007 71022 83536 333 59009
1:00 PM +07 on June 04,2017,2017,6,4,13,0,Asia/Bangkok,33,91,24,76,53,16.7,10.4,,,270,West,8,5,1006,29.7,-999,-999,-9999,-9999,,,Haze,hazy,0,0,0,0,0,0,AAXX 04064 48376 31558 62709 10329 20244 39914 40055 57020 70522 83336 333 59011 70126
4:00 PM +07 on June 04,2017,2017,6,4,16,0,Asia/Bangkok,34,94,24,75,45,16.7,10.4,,,270,West,8,5,1003,29.62,-999,-999,-9999,-9999,,,Haze,hazy,0,0,0,0,0,0,AAXX 04094 48376 31558 62709 10342 20238 39890 40030 57023 70522 83936 333 59011
7:00 PM +07 on June 04,2017,2017,6,4,19,0,Asia/Bangkok,31,87,24,74,59,11.1,6.9,,,260,West,7,4,1005,29.67,-999,-999,-9999,-9999,,,Mist,hazy,0,0,0,0,0,0,AAXX 04124 48376 31557 52606 10307 20236 39905 40046 52014 71022 82336 333 10345 59022 70008
10:00 PM +07 on June 04,2017,2017,6,4,22,0,Asia/Bangkok,29,84,23,74,65,13,8.1,,,270,West,6,4,1007,29.73,-999,-999,-9999,-9999,,,Mist,hazy,0,0,0,0,0,0,AAXX 04154 48376 31556 22707 10290 20233 39925 40068 52020 71010 82205 333 59012
1:00 AM +07 on June 05,2017,2017,6,5,1,0,Asia/Bangkok,27,81,24,76,81,0,0,,,,,10,6,1006,29.73,-999,-999,-9999,-9999,,,Clear,clear,0,0,0,0,0,0,AAXX 04184 48380 32960 60000 10270 20245 39972 40065 57002 80006 333 59004
4:00 AM +07 on June 05,2017,2017,6,5,4,0,Asia/Bangkok,26,78,24,76,91,0,0,,,,,10,6,1006,29.71,-999,-999,-9999,-9999,,,,,0,0,0,0,0,0,AAXX 04214 48380 32960 00000 10257 20244 39966 40059 57006 333 59001
7:00 AM +07 on June 05,2017,2017,6,5,7,0,Asia/Bangkok,25,78,24,76,90,1.9,1.2,,,100,East,12,7,1007,29.74,-999,-999,-9999,-9999,,,Scattered Clouds,partlycloudy,0,0,0,0,0,0,AAXX 05004 48380 32562 51001 10254 20242 39976 40069 52010 81136 333 20250 59005
10:00 AM +07 on June 05,2017,2017,6,5,10,0,Asia/Bangkok,29,85,25,76,69,3.7,2.3,,,270,West,12,7,1008,29.76,-999,-999,-9999,-9999,,,Partly Cloudy,partlycloudy,0,0,0,0,0,0,AAXX 05034 48380 32562 62702 10292 20246 39985 40078 51010 83736 333 59006
1:00 PM +07 on June 05,2017,2017,6,5,13,0,Asia/Bangkok,32,90,25,77,57,7.4,4.6,,,60,ENE,14,9,1006,29.7,-999,-999,-9999,-9999,,,Mostly Cloudy,mostlycloudy,0,0,0,0,0,0,AAXX 05064 48380 32564 60604 10323 20248 39965 40056 57021 85132 333 59006
4:00 PM +07 on June 05,2017,2017,6,5,16,0,Asia/Bangkok,34,93,24,76,49,5.6,3.5,,,80,East,14,9,1002,29.61,-999,-999,-9999,-9999,,,Partly Cloudy,partlycloudy,0,0,0,0,0,0,AAXX 05094 48380 32564 50803 10337 20245 39934 40025 57031 84105 333 59009
7:00 PM +07 on June 05,2017,2017,6,5,19,0,Asia/Bangkok,30,86,20,68,45,1.9,1.2,,,200,SSW,11,7,1004,29.64,-999,-999,-9999,-9999,,,Thunderstorm,tstorms,0,0,0,0,1,0,AAXX 05124 48380 31561 72001 10299 20199 39943 40035 52009 71711 82936 333 10337 59012
10:00 PM +07 on June 05,2017,2017,6,5,22,0,Asia/Bangkok,26,79,23,74,80,3.7,2.3,,,220,SW,11,7,1007,29.75,-999,-999,-9999,-9999,,,Partly Cloudy,partlycloudy,0,0,0,0,0,0,AAXX 05154 48380 31561 62202 10262 20233 39980 40074 52037 70192 82716 333 58007
1:00 AM +07 on June 06,2017,2017,6,6,1,0,Asia/Bangkok,26,78,24,74,85,1.9,1.2,,,160,SSE,11,7,1007,29.73,-999,-999,-9999,-9999,,,Partly Cloudy,partlycloudy,0,0,0,0,0,0,AAXX 05184 48380 31561 61601 10256 20235 39974 40068 57006 70392 82736 333 58003
4:00 AM +07 on June 06,2017,2017,6,6,4,0,Asia/Bangkok,26,78,24,75,88,3.7,2.3,,,70,ENE,11,7,1006,29.71,-999,-999,-9999,-9999,,,Mostly Cloudy,mostlycloudy,0,0,0,0,0,0,AAXX 05214 48380 32561 70702 10255 20240 39965 40059 57009 85716 333 59001
7:00 AM +07 on June 06,2017,2017,6,6,7,0,Asia/Bangkok,26,78,25,76,94,0,0,,,,,10,6,1007,29.73,-999,-999,-9999,-9999,,,Mostly Cloudy,mostlycloudy,0,0,0,0,0,0,AAXX 06004 48380 32560 70000 10257 20247 39974 40068 52009 86535 333 20252 59001
10:00 AM +07 on June 06,2017,2017,6,6,10,0,Asia/Bangkok,30,85,25,77,71,3.7,2.3,,,70,ENE,12,7,1008,29.78,-999,-999,-9999,-9999,,,Partly Cloudy,partlycloudy,0,0,0,0,0,0,AAXX 06034 48380 32562 60702 10295 20249 39989 40082 52015 84535 333 58004
1:00 PM +07 on June 06,2017,2017,6,6,13,0,Asia/Bangkok,32,90,25,77,57,3.7,2.3,,,150,SSE,14,9,1006,29.7,-999,-999,-9999,-9999,,,Partly Cloudy,partlycloudy,0,0,0,0,0,0,AAXX 06064 48380 32564 41502 10322 20248 39965 40056 57024 83231 333 58000
4:00 PM +07 on June 06,2017,2017,6,6,16,0,Asia/Bangkok,32,90,25,77,57,3.7,2.3,,,150,SSE,14,9,1006,29.7,-999,-999,-9999,-9999,,,Scattered Clouds,partlycloudy,0,0,0,0,0,0,AAXX 06094 48380 32464 31502 10322 20248 39965 40056 54000 82933 333 58032
7:00 PM +07 on June 06,2017,2017,6,6,19,0,Asia/Bangkok,32,89,24,76,57,0,0,,,,,12,7,1004,29.65,-999,-999,-9999,-9999,,,Scattered Clouds,partlycloudy,0,0,0,0,0,0,AAXX 06124 48380 32462 20000 10318 20242 39950 40041 52003 81933 333 10333 58006
10:00 PM +07 on June 06,2017,2017,6,6,22,0,Asia/Bangkok,30,85,24,76,68,3.7,2.3,,,170,South,10,6,1006,29.73,-999,-999,-9999,-9999,,,Scattered Clouds,partlycloudy,0,0,0,0,0,0,AAXX 06154 48380 31460 41702 10297 20244 39973 40065 52023 71300 82935 333 59009
1:00 AM +07 on June 07,2017,2017,6,7,1,0,Asia/Bangkok,28,83,24,76,73,0,0,,,,,10,6,1006,29.73,-999,-999,-9999,-9999,,,Scattered Clouds,partlycloudy,0,0,0,0,0,0,AAXX 06184 48380 32560 70000 10283 20243 39972 40065 57001 82576 333 59003
4:00 AM +07 on June 07,2017,2017,6,7,4,0,Asia/Bangkok,26,79,24,76,88,0,0,,,,,10,6,1006,29.71,-999,-999,-9999,-9999,,,Scattered Clouds,partlycloudy,0,0,0,0,0,0,AAXX 06214 48380 32560 70000 10262 20245 39967 40061 57005 82576 333 58002
7:00 AM +07 on June 07,2017,2017,6,7,7,0,Asia/Bangkok,27,80,25,78,91,0,0,,,,,12,7,1008,29.75,-999,-999,-9999,-9999,,,Scattered Clouds,partlycloudy,0,0,0,0,0,0,AAXX 07004 48380 32562 70000 10268 20254 39982 40075 52015 82576 333 20262 58007
10:00 AM +07 on June 07,2017,2017,6,7,10,0,Asia/Bangkok,30,86,25,77,69,3.7,2.3,,,70,ENE,14,9,1009,29.79,-999,-999,-9999,-9999,,,Partly Cloudy,partlycloudy,0,0,0,0,0,0,AAXX 07034 48380 32564 60702 10298 20251 39995 40088 52013 84535 333 58006
1:00 PM +07 on June 07,2017,2017,6,7,13,0,Asia/Bangkok,31,88,24,75,57,0,0,,,,,14,9,1006,29.72,-999,-999,-9999,-9999,,,Partly Cloudy,partlycloudy,0,0,0,0,0,0,AAXX 07064 48380 01464 70000 10313 20237 39970 40062 57025 69901 70362 83976 333 58006 69906 79999
4:00 PM +07 on June 07,2017,2017,6,7,16,0,Asia/Bangkok,30,86,24,76,66,1.9,1.2,,,160,SSE,14,9,1005,29.67,-999,-999,-9999,-9999,,,Partly Cloudy,partlycloudy,0,0,0,0,0,0,AAXX 07094 48380 31464 71601 10299 20245 39954 40047 57016 71599 83976 333 58008
7:00 PM +07 on June 07,2017,2017,6,7,19,0,Asia/Bangkok,28,83,24,76,73,5.6,3.5,,,250,WSW,12,7,1006,29.7,-999,-999,-9999,-9999,,,Partly Cloudy,partlycloudy,0,0,0,0,0,0,AAXX 07124 48380 31562 82503 10282 20243 39966 40058 52011 70392 8457/ 333 10314 58017 79999
10:00 PM +07 on June 07,2017,2017,6,7,22,0,Asia/Bangkok,28,82,26,79,89,0,0,,,,,10,6,1007,29.75,-999,-999,-9999,-9999,,,Scattered Clouds,partlycloudy,0,0,0,0,0,0,AAXX 07154 48380 32560 70000 10275 20262 39979 40072 52013 82576 333 58007
1:00 AM +07 on June 08,2017,2017,6,8,1,0,Asia/Bangkok,26,79,24,75,83,0,0,,,,,4,2,1006,29.72,-999,-999,-9999,-9999,,,Mist,hazy,0,0,0,0,0,0,AAXX 07184 48376 31540 60000 10260 20238 39920 40064 56006 71092 83536 333 58001
4:00 AM +07 on June 08,2017,2017,6,8,4,0,Asia/Bangkok,26,79,24,76,88,0,0,,,,,5,3,1006,29.7,-999,-999,-9999,-9999,,,Mist,hazy,0,0,0,0,0,0,AAXX 07214 48376 31550 50000 10261 20245 39913 40057 56007 71022 82536 333 59003
7:00 AM +07 on June 08,2017,2017,6,8,7,0,Asia/Bangkok,26,79,24,76,87,0,0,,,,,4,2,1007,29.74,-999,-999,-9999,-9999,,,Mist,hazy,0,0,0,0,0,0,AAXX 08004 48376 31540 60000 10260 20243 39924 40069 52012 71022 83536 333 20257 59001
10:00 AM +07 on June 08,2017,2017,6,8,10,0,Asia/Bangkok,29,84,25,77,73,0,0,,,,,6,4,1008,29.76,-999,-999,-9999,-9999,,,Mist,hazy,0,0,0,0,0,0,AAXX 08034 48376 31556 70000 10289 20248 39935 40078 52011 71022 84536 333 59007
1:00 PM +07 on June 08,2017,2017,6,8,13,0,Asia/Bangkok,31,88,25,77,64,3.7,2.3,,,160,SSE,7,4,1006,29.7,-999,-999,-9999,-9999,,,Mist,hazy,0,0,0,0,0,0,AAXX 08064 48376 31557 71602 10310 20252 39916 40058 57019 71022 84976 333 59007
4:00 PM +07 on June 08,2017,2017,6,8,16,0,Asia/Bangkok,29,85,25,77,72,5.6,3.5,,,100,East,6,4,1004,29.65,-999,-999,-9999,-9999,,,Mist,hazy,0,0,0,0,0,0,AAXX 08094 48376 31556 61003 10294 20251 39896 40038 57021 71022 83576 333 58000
7:00 PM +07 on June 08,2017,2017,6,8,19,0,Asia/Bangkok,28,82,25,77,82,0,0,,,,,7,4,1004,29.67,-999,-999,-9999,-9999,,,Mist,hazy,0,0,0,0,0,0,AAXX 08124 48376 31557 70000 10278 20252 39902 40045 51006 71022 84536 333 10315 59010
10:00 PM +07 on June 08,2017,2017,6,8,22,0,Asia/Bangkok,27,81,25,77,84,0,0,,,,,6,4,1006,29.72,-999,-999,-9999,-9999,,,Mist,hazy,0,0,0,0,0,0,AAXX 08154 48376 31556 60000 10270 20250 39919 40063 52018 71022 82536 333 59008
1:00 AM +07 on June 09,2017,2017,6,9,1,0,Asia/Bangkok,26,79,25,77,91,0,0,,,,,6,4,1006,29.72,-999,-999,-9999,-9999,,,Mist,hazy,0,0,0,0,0,0,AAXX 08184 48376 31556 20000 10261 20249 39920 40064 54000 71020 82505 333 59001
4:00 AM +07 on June 09,2017,2017,6,9,4,0,Asia/Bangkok,26,78,25,76,94,0,0,,,,,5,3,1006,29.71,-999,-999,-9999,-9999,,,Mist,hazy,0,0,0,0,0,0,AAXX 08214 48376 31550 60000 10256 20247 39916 40060 56004 71020 83536 333 58004
7:00 AM +07 on June 09,2017,2017,6,9,7,0,Asia/Bangkok,26,79,25,77,92,0,0,,,,,8,5,1007,29.73,-999,-999,-9999,-9999,,,Mist,hazy,0,0,0,0,0,0,AAXX 09004 48376 31558 60000 10260 20250 39923 40067 51007 71020 83556 333 20254 59001
10:00 AM +07 on June 09,2017,2017,6,9,10,0,Asia/Bangkok,29,84,25,77,74,0,0,,,,,8,5,1007,29.75,-999,-999,-9999,-9999,,,Mist,hazy,0,0,0,0,0,0,AAXX 09034 48376 31558 60000 10290 20250 39929 40072 51006 71022 82236 333 59006
1:00 PM +07 on June 09,2017,2017,6,9,13,0,Asia/Bangkok,32,89,26,79,65,5.6,3.5,,,180,South,7,4,1005,29.68,-999,-999,-9999,-9999,,,Mist,hazy,0,0,0,0,0,0,AAXX 09064 48376 31557 71803 10317 20260 39910 40051 57019 71022 84976 333 59007
4:00 PM +07 on June 09,2017,2017,6,9,16,0,Asia/Bangkok,29,84,26,80,83,16.7,10.4,,,230,SW,2.5,2,1004,29.64,-999,-999,-9999,-9999,,,Thunderstorms and Rain,tstorms,0,1,0,0,1,0,AAXX 09094 48376 21425 82309 10290 20265 39895 40037 57015 79522 85976 333 59001 60045
7:00 PM +07 on June 09,2017,2017,6,9,19,0,Asia/Bangkok,26,78,25,77,96,0,0,,,,,3,2,1005,29.69,-999,-999,-9999,-9999,,,Thunderstorms and Rain,tstorms,0,1,0,0,1,0,AAXX 09124 48376 01430 80000 10256 20250 39908 40052 52013 60232 79592 85976 333 10338 58007 60197 70232
10:00 PM +07 on June 09,2017,2017,6,9,22,0,Asia/Bangkok,26,78,25,77,95,0,0,,,,,6,4,1009,29.79,-999,-999,-9999,-9999,,,Mist,hazy,0,0,0,0,0,0,AAXX 09154 48376 21556 70000 10256 20249 39942 40087 52034 71092 84936 333 58024 60047
1:00 AM +07 on June 16,2017,2017,6,16,1,0,Asia/Bangkok,26,79,24,75,83,0,0,,,,,4,2,1010,29.82,-999,-999,-9999,-9999,,,Mist,hazy,0,0,0,0,0,0,AAXX 15184 48376 31540 60000 10260 20238 39952 40097 56002 71022 82536 333 59007
4:00 AM +07 on June 16,2017,2017,6,16,4,0,Asia/Bangkok,26,78,24,75,86,0,0,,,,,5,3,1009,29.81,-999,-999,-9999,-9999,,,Mist,hazy,0,0,0,0,0,0,AAXX 15214 48376 31550 60000 10255 20237 39948 40092 56004 71022 82536 333 59003
10:00 AM +07 on June 16,2017,2017,6,16,10,0,Asia/Bangkok,30,87,23,74,57,5.6,3.5,,,260,West,7,4,1011,29.85,-999,-999,-9999,-9999,,,Mist,hazy,0,0,0,0,0,0,AAXX 16034 48376 31557 62603 10304 20233 39964 40107 51009 71022 83536 333 58003
1:00 PM +07 on June 16,2017,2017,6,16,13,0,Asia/Bangkok,33,91,23,74,48,13,8.1,,,260,West,8,5,1009,29.79,-999,-999,-9999,-9999,,,Haze,hazy,0,0,0,0,0,0,AAXX 16064 48376 31558 62607 10329 20231 39946 40087 57018 70522 83536 333 59013
4:00 PM +07 on June 16,2017,2017,6,16,16,0,Asia/Bangkok,33,91,23,73,47,13,8.1,,,270,West,7,4,1007,29.73,-999,-999,-9999,-9999,,,Haze,hazy,0,0,0,0,0,0,AAXX 16094 48376 31557 62707 10327 20230 39927 40068 57019 70522 82536 333 59013
7:00 PM +07 on June 16,2017,2017,6,16,19,0,Asia/Bangkok,31,87,23,74,57,7.4,4.6,,,250,WSW,7,4,1007,29.74,-999,-999,-9999,-9999,,,Mist,hazy,0,0,0,0,0,0,AAXX 16124 48376 31557 62504 10307 20233 39929 40071 51002 71022 83536 333 10338 59006
10:00 PM +07 on June 16,2017,2017,6,16,22,0,Asia/Bangkok,30,85,23,74,62,11.1,6.9,,,250,WSW,7,4,1009,29.81,-999,-999,-9999,-9999,,,Mist,hazy,0,0,0,0,0,0,AAXX 16154 48376 31557 32506 10297 20233 39951 40094 52022 71010 82535 333 59004
1:00 AM +07 on June 18,2017,2017,6,18,1,0,Asia/Bangkok,28,82,22,71,62,13,8.1,,,270,West,6,4,1007,29.73,-999,-999,-9999,-9999,,,Mist,hazy,0,0,0,0,0,0,AAXX 17184 48376 31556 62707 10276 20218 39924 40067 57014 71020 82536 333 59016
4:00 AM +07 on June 18,2017,2017,6,18,4,0,Asia/Bangkok,27,81,22,72,68,9.3,5.8,,,240,WSW,6,4,1006,29.7,-999,-999,-9999,-9999,,,Mist,hazy,0,0,0,0,0,0,AAXX 17214 48376 31556 22405 10273 20223 39913 40057 57010 71010 81505 333 59019
7:00 AM +07 on June 18,2017,2017,6,18,7,0,Asia/Bangkok,28,82,22,72,65,9.3,5.8,,,280,West,12,7,1006,29.7,-999,-999,-9999,-9999,,,Scattered Clouds,partlycloudy,0,0,0,0,0,0,AAXX 18004 48376 32562 22805 10279 20223 39915 40058 51002 81235 333 20266 59022
10:00 AM +07 on June 18,2017,2017,6,18,10,0,Asia/Bangkok,32,89,23,73,51,16.7,10.4,,,270,West,11,7,1006,29.73,-999,-999,-9999,-9999,,,Scattered Clouds,partlycloudy,0,0,0,0,0,0,AAXX 18034 48376 32561 22709 10315 20228 39923 40065 51008 81235 333 59014
1:00 PM +07 on June 18,2017,2017,6,18,13,0,Asia/Bangkok,34,92,23,74,47,13,8.1,,,280,West,12,7,1006,29.7,-999,-999,-9999,-9999,,,Scattered Clouds,partlycloudy,0,0,0,0,0,0,AAXX 18064 48376 32562 32807 10335 20234 39917 40058 56006 82235 333 59012
4:00 PM +07 on June 18,2017,2017,6,18,16,0,Asia/Bangkok,34,93,23,74,45,9.3,5.8,,,260,West,10,6,1003,29.63,-999,-999,-9999,-9999,,,Scattered Clouds,partlycloudy,0,0,0,0,0,0,AAXX 18094 48376 32560 32605 10340 20234 39894 40034 57023 82235 333 59011
7:00 PM +07 on June 18,2017,2017,6,18,19,0,Asia/Bangkok,30,86,23,74,59,14.8,9.2,,,280,West,7,4,1005,29.68,-999,-999,-9999,-9999,,,Mist,hazy,0,0,0,0,0,0,AAXX 18124 48376 31557 62808 10298 20231 39909 40051 52015 71020 82335 333 10343 59007
10:00 PM +07 on June 18,2017,2017,6,18,22,0,Asia/Bangkok,27,81,21,71,63,7.4,4.6,,,300,WNW,6,4,1008,29.76,-999,-999,-9999,-9999,,,Mist,hazy,0,0,0,0,0,0,AAXX 18154 48376 31556 63004 10274 20214 39934 40077 52025 71022 83536 333 59003
1:00 AM +07 on June 19,2017,2017,6,19,1,0,Asia/Bangkok,27,81,21,70,62,9.3,5.8,,,280,West,6,4,1007,29.73,-999,-999,-9999,-9999,,,Mist,hazy,0,0,0,0,0,0,AAXX 18184 48376 31556 62805 10271 20211 39924 40068 57010 71022 82536 333 58001
4:00 AM +07 on June 19,2017,2017,6,19,4,0,Asia/Bangkok,27,80,22,72,70,3.7,2.3,,,290,WNW,6,4,1006,29.71,-999,-999,-9999,-9999,,,Mist,hazy,0,0,0,0,0,0,AAXX 18214 48376 31556 62902 10268 20222 39916 40060 56008 71022 82336 333 58003
7:00 AM +07 on June 19,2017,2017,6,19,7,0,Asia/Bangkok,27,81,23,73,71,0,0,,,,,7,4,1007,29.75,-999,-999,-9999,-9999,,,Mist,hazy,0,0,0,0,0,0,AAXX 19004 48376 31557 60000 10270 20229 39928 40072 52012 71022 82536 333 20263 58013
10:00 AM +07 on June 19,2017,2017,6,19,10,0,Asia/Bangkok,29,85,22,72,57,16.7,10.4,,,270,West,8,5,1009,29.79,-999,-999,-9999,-9999,,,Mist,hazy,0,0,0,0,0,0,AAXX 19034 48376 31558 62709 10293 20222 39943 40086 52015 71022 83536 333 58021
4:00 PM +07 on June 19,2017,2017,6,19,16,0,Asia/Bangkok,32,89,22,71,46,13,8.1,,,260,West,10,6,1004,29.66,-999,-999,-9999,-9999,,,Scattered Clouds,partlycloudy,0,0,0,0,0,0,AAXX 19094 48376 32560 52607 10319 20217 39903 40044 57021 82236 333 58010
7:00 PM +07 on June 19,2017,2017,6,19,19,0,Asia/Bangkok,29,84,22,72,59,13,8.1,,,280,West,7,4,1006,29.7,-999,-999,-9999,-9999,,,Mist,hazy,0,0,0,0,0,0,AAXX 19124 48376 31557 62807 10289 20221 39914 40057 52011 71022 83536 333 10330 58006
10:00 PM +07 on June 19,2017,2017,6,19,22,0,Asia/Bangkok,27,81,23,73,72,11.1,6.9,,,270,West,7,4,1008,29.77,-999,-999,-9999,-9999,,,Light Rain,rain,0,1,0,0,0,0,AAXX 19154 48376 21557 72706 10270 20230 39935 40079 52021 72122 83576 333 58001 69925
1:00 AM +07 on June 20,2017,2017,6,20,1,0,Asia/Bangkok,26,80,24,74,79,13,8.1,,,270,West,7,4,1008,29.77,-999,-999,-9999,-9999,,,Mist,hazy,0,0,0,0,0,0,AAXX 19184 48376 11557 72707 10265 20236 39937 40081 51002 69923 71022 84576 333 58013 70002
4:00 AM +07 on June 20,2017,2017,6,20,4,0,Asia/Bangkok,25,77,23,73,85,0,0,,,,,6,4,1007,29.74,-999,-999,-9999,-9999,,,Light Rain,rain,0,1,0,0,0,0,AAXX 19214 48376 21556 80000 10252 20230 39926 40070 57011 76062 8452/ 333 58011 69967
7:00 AM +07 on June 20,2017,2017,6,20,7,0,Asia/Bangkok,25,78,24,74,85,0,0,,,,,6,4,1007,29.75,-999,-999,-9999,-9999,,,Mist,hazy,0,0,0,0,0,0,AAXX 20004 48376 01556 70000 10254 20235 39929 40074 51004 60014 71062 83576 333 20248 58003 69927 70010
10:00 AM +07 on June 20,2017,2017,6,20,10,0,Asia/Bangkok,31,88,23,74,54,14.8,9.2,,,260,West,9,6,1008,29.77,-999,-999,-9999,-9999,,,Haze,hazy,0,0,0,0,0,0,AAXX 20034 48376 31559 62608 10312 20232 39938 40080 51009 70522 83536 333 59005
1:00 PM +07 on June 20,2017,2017,6,20,13,0,Asia/Bangkok,31,88,23,73,52,11.1,6.9,,,270,West,9,6,1007,29.75,-999,-999,-9999,-9999,,,Haze,hazy,0,0,0,0,0,0,AAXX 20064 48376 31559 72706 10312 20227 39932 40074 56006 70522 83536 333 58009 70010
4:00 PM +07 on June 20,2017,2017,6,20,16,0,Asia/Bangkok,31,88,23,74,55,9.3,5.8,,,270,West,8,5,1005,29.68,-999,-999,-9999,-9999,,,Haze,hazy,0,0,0,0,0,0,AAXX 20094 48376 31558 62705 10310 20233 39907 40049 57025 70522 83536 333 58005
7:00 PM +07 on June 20,2017,2017,6,20,19,0,Asia/Bangkok,27,81,24,75,77,7.4,4.6,,,260,West,7,4,1006,29.72,-999,-999,-9999,-9999,,,Light Rain,rain,0,1,0,0,0,0,AAXX 20124 48376 01557 82604 10271 20239 39919 40063 52012 69942 72122 85576 333 10327 58006 69945 70014
10:00 PM +07 on June 20,2017,2017,6,20,22,0,Asia/Bangkok,26,79,23,74,79,7.4,4.6,,,220,SW,7,4,1008,29.76,-999,-999,-9999,-9999,,,Mist,hazy,0,0,0,0,0,0,AAXX 20154 48376 21557 62204 10263 20231 39933 40078 52015 71062 83536 333 59001 69966
1:00 AM +07 on June 21,2017,2017,6,21,1,0,Asia/Bangkok,26,79,23,74,81,0,0,,,,,7,4,1008,29.76,-999,-999,-9999,-9999,,,Mist,hazy,0,0,0,0,0,0,AAXX 20184 48376 11557 60000 10259 20234 39933 40077 56001 60013 71062 83536 333 59004 70018
4:00 AM +07 on June 21,2017,2017,6,21,4,0,Asia/Bangkok,26,78,24,76,90,0,0,,,,,7,4,1007,29.73,-999,-999,-9999,-9999,,,Mist,hazy,0,0,0,0,0,0,AAXX 20214 48376 31557 60000 10258 20242 39922 40067 57010 71022 82536 333 59004
7:00 AM +07 on June 21,2017,2017,6,21,7,0,Asia/Bangkok,26,79,24,74,82,0,0,,,,,7,4,1008,29.76,-999,-999,-9999,-9999,,,Mist,hazy,0,0,0,0,0,0,AAXX 21004 48376 11557 60000 10262 20236 39933 40077 52010 60014 71022 83536 333 20253 58003 70010
10:00 AM +07 on June 21,2017,2017,6,21,10,0,Asia/Bangkok,30,86,25,76,67,5.6,3.5,,,160,SSE,8,5,1008,29.78,-999,-999,-9999,-9999,,,Mist,hazy,0,0,0,0,0,0,AAXX 21034 48376 31558 71603 10300 20247 39939 40082 52007 71022 84556 333 58002
1:00 PM +07 on June 21,2017,2017,6,21,13,0,Asia/Bangkok,33,91,24,75,51,11.1,6.9,,,270,West,8,5,1006,29.72,-999,-999,-9999,-9999,,,Haze,hazy,0,0,0,0,0,0,AAXX 21064 48376 31558 62706 10327 20240 39921 40062 57018 70522 83536 333 59011 70010
4:00 PM +07 on June 21,2017,2017,6,21,16,0,Asia/Bangkok,31,87,24,75,61,9.3,5.8,,,260,West,9,6,1004,29.66,-999,-999,-9999,-9999,,,Mist,hazy,0,0,0,0,0,0,AAXX 21094 48376 31559 62605 10307 20241 39901 40043 57020 71022 83536 333 59006
7:00 PM +07 on June 21,2017,2017,6,21,19,0,Asia/Bangkok,30,85,22,72,57,22.2,13.8,,,280,West,3,2,1005,29.69,-999,-999,-9999,-9999,,,Overcast,cloudy,0,0,0,0,0,0,AAXX 21124 48376 31530 82812 10297 20223 39912 40054 52011 71622 85576 333 10347 59009 70006
10:00 PM +07 on June 21,2017,2017,6,21,22,0,Asia/Bangkok,28,82,24,75,73,0,0,,,,,7,4,1007,29.74,-999,-999,-9999,-9999,,,Mist,hazy,0,0,0,0,0,0,AAXX 21154 48376 31557 60000 10277 20238 39926 40069 52014 71022 83536 333 59009
1:00 AM +07 on June 22,2017,2017,6,22,1,0,Asia/Bangkok,27,81,24,75,78,13,8.1,,,280,West,6,4,1008,29.75,-999,-999,-9999,-9999,,,Mist,hazy,0,0,0,0,0,0,AAXX 21184 48376 31556 72807 10270 20240 39931 40075 51006 71022 84576 333 59002
4:00 AM +07 on June 22,2017,2017,6,22,4,0,Asia/Bangkok,26,78,24,75,89,0,0,,,,,7,4,1006,29.71,-999,-999,-9999,-9999,,,Mist,hazy,0,0,0,0,0,0,AAXX 21214 48376 31557 20000 10258 20241 39914 40059 57017 71010 82505 333 59008
7:00 AM +07 on June 22,2017,2017,6,22,7,0,Asia/Bangkok,27,80,24,76,83,0,0,,,,,8,5,1007,29.75,-999,-999,-9999,-9999,,,Mist,hazy,0,0,0,0,0,0,AAXX 22004 48376 31558 60000 10266 20243 39929 40073 52015 71021 83536 333 20254 59004
10:00 AM +07 on June 22,2017,2017,6,22,10,0,Asia/Bangkok,30,86,23,74,60,9.3,5.8,,,270,West,9,6,1008,29.78,-999,-999,-9999,-9999,,,Mist,hazy,0,0,0,0,0,0,AAXX 22034 48376 31559 62705 10301 20233 39940 40083 52011 71022 82536 333 58001
1:00 PM +07 on June 22,2017,2017,6,22,13,0,Asia/Bangkok,33,91,24,76,53,5.6,3.5,,,290,WNW,11,7,1007,29.73,-999,-999,-9999,-9999,,,Scattered Clouds,partlycloudy,0,0,0,0,0,0,AAXX 22064 48376 32561 62903 10330 20245 39927 40068 57014 82536 333 58005
4:00 PM +07 on June 22,2017,2017,6,22,16,0,Asia/Bangkok,34,93,23,73,43,16.7,10.4,,,260,West,10,6,1004,29.65,-999,-999,-9999,-9999,,,Scattered Clouds,partlycloudy,0,0,0,0,0,0,AAXX 22094 48376 32560 32609 10338 20228 39900 40041 57026 82305 333 59002
10:00 PM +07 on June 22,2017,2017,6,22,22,0,Asia/Bangkok,29,84,23,74,64,9.3,5.8,,,260,West,6,4,1007,29.75,-999,-999,-9999,-9999,,,Mist,hazy,0,0,0,0,0,0,AAXX 22154 48376 31556 22605 10290 20232 39930 40073 52022 71000 82505 333 58004
1:00 AM +07 on June 23,2017,2017,6,23,1,0,Asia/Bangkok,28,82,22,72,66,9.3,5.8,,,270,West,6,4,1008,29.75,-999,-999,-9999,-9999,,,Mist,hazy,0,0,0,0,0,0,AAXX 22184 48376 31556 22705 10280 20224 39932 40075 51002 71000 82505 333 58000
7:00 AM +07 on June 23,2017,2017,6,23,7,0,Asia/Bangkok,28,82,22,72,65,5.6,3.5,,,260,West,8,5,1006,29.73,-999,-999,-9999,-9999,,,Mist,hazy,0,0,0,0,0,0,AAXX 23004 48376 31558 32603 10276 20223 39922 40065 51004 71000 82535 333 20255 59008
10:00 AM +07 on June 23,2017,2017,6,23,10,0,Asia/Bangkok,32,90,22,72,47,7.4,4.6,,,280,West,12,7,1007,29.75,-999,-999,-9999,-9999,,,Scattered Clouds,partlycloudy,0,0,0,0,0,0,AAXX 23034 48376 32562 32804 10320 20225 39932 40074 52011 82535 333 59009
1:00 PM +07 on June 23,2017,2017,6,23,13,0,Asia/Bangkok,34,93,22,72,40,14.8,9.2,,,290,WNW,12,7,1006,29.7,-999,-999,-9999,-9999,,,Scattered Clouds,partlycloudy,0,0,0,0,0,0,AAXX 23064 48376 32562 62908 10340 20220 39918 40058 57015 82236 333 59010
4:00 PM +07 on June 23,2017,2017,6,23,16,0,Asia/Bangkok,34,93,23,73,44,13,8.1,,,260,West,10,6,1003,29.62,-999,-999,-9999,-9999,,,Scattered Clouds,partlycloudy,0,0,0,0,0,0,AAXX 23094 48376 32560 22607 10340 20230 39889 40029 57029 82205 333 59011
7:00 PM +07 on June 23,2017,2017,6,23,19,0,Asia/Bangkok,30,87,24,74,59,11.1,6.9,,,270,West,8,5,1003,29.63,-999,-999,-9999,-9999,,,Mist,hazy,0,0,0,0,0,0,AAXX 23124 48376 31558 22706 10305 20236 39891 40032 51001 71010 82505 333 10350 59017
10:00 PM +07 on June 23,2017,2017,6,23,22,0,Asia/Bangkok,28,83,22,72,61,5.6,3.5,,,260,West,6,4,1006,29.73,-999,-999,-9999,-9999,,,Mist,hazy,0,0,0,0,0,0,AAXX 23154 48376 31556 22603 10285 20221 39922 40065 52031 71000 82505 333 59008
1:00 AM +07 on June 24,2017,2017,6,24,1,0,Asia/Bangkok,28,83,22,71,59,14.8,9.2,,,280,West,6,4,1006,29.7,-999,-999,-9999,-9999,,,Mist,hazy,0,0,0,0,0,0,AAXX 23184 48376 31556 22808 10283 20216 39913 40056 56008 71000 81505 333 59019
4:00 AM +07 on June 24,2017,2017,6,24,4,0,Asia/Bangkok,28,82,22,72,63,5.6,3.5,,,280,West,6,4,1005,29.68,-999,-999,-9999,-9999,,,Mist,hazy,0,0,0,0,0,0,AAXX 23214 48376 31556 32803 10275 20220 39906 40049 56007 71000 81535 333 59012
7:00 AM +07 on June 24,2017,2017,6,24,7,0,Asia/Bangkok,28,82,22,72,65,0,0,,,,,7,4,1006,29.7,-999,-999,-9999,-9999,,,Mist,hazy,0,0,0,0,0,0,AAXX 24004 48376 31557 60000 10275 20223 39915 40058 51009 71020 82536 333 20260 59007
10:00 AM +07 on June 24,2017,2017,6,24,10,0,Asia/Bangkok,32,90,22,72,46,14.8,9.2,,,270,West,12,7,1006,29.71,-999,-999,-9999,-9999,,,Scattered Clouds,partlycloudy,0,0,0,0,0,0,AAXX 24034 48376 32562 22708 10320 20222 39918 40059 51003 82205 333 59015
1:00 PM +07 on June 24,2017,2017,6,24,13,0,Asia/Bangkok,33,92,23,73,45,14.8,9.2,,,280,West,12,7,1004,29.67,-999,-999,-9999,-9999,,,Scattered Clouds,partlycloudy,0,0,0,0,0,0,AAXX 24064 48376 32562 22808 10331 20228 39904 40045 57014 82205 333 59013
4:00 PM +07 on June 24,2017,2017,6,24,16,0,Asia/Bangkok,34,93,24,75,47,14.8,9.2,,,280,West,10,6,1002,29.59,-999,-999,-9999,-9999,,,Scattered Clouds,partlycloudy,0,0,0,0,0,0,AAXX 24094 48376 32560 52808 10340 20239 39880 40019 57025 82236 333 59010
7:00 PM +07 on June 24,2017,2017,6,24,19,0,Asia/Bangkok,30,86,23,74,59,14.8,9.2,,,250,WSW,8,5,1003,29.63,-999,-999,-9999,-9999,,,Mist,hazy,0,0,0,0,0,0,AAXX 24124 48376 31558 62508 10302 20231 39891 40032 52011 71020 83236 333 10344 58000
10:00 PM +07 on June 24,2017,2017,6,24,22,0,Asia/Bangkok,29,84,22,71,58,13,8.1,,,260,West,8,5,1006,29.71,-999,-999,-9999,-9999,,,Mist,hazy,0,0,0,0,0,0,AAXX 24154 48376 31558 62607 10290 20219 39917 40060 52026 71022 83536 333 59005
1:00 AM +07 on June 25,2017,2017,6,25,1,0,Asia/Bangkok,28,83,21,70,56,13,8.1,,,270,West,7,4,1006,29.7,-999,-999,-9999,-9999,,,Haze,hazy,0,0,0,0,0,0,AAXX 24184 48376 31557 22707 10285 20210 39912 40055 56004 70522 82505 333 59001
4:00 AM +07 on June 25,2017,2017,6,25,4,0,Asia/Bangkok,28,82,21,70,60,11.1,6.9,,,280,West,7,4,1005,29.68,-999,-999,-9999,-9999,,,Mist,hazy,0,0,0,0,0,0,AAXX 24214 48376 31557 32806 10280 20213 39906 40049 56007 71000 82535 333 59001
7:00 AM +07 on June 25,2017,2017,6,25,7,0,Asia/Bangkok,28,82,22,72,65,7.4,4.6,,,260,West,10,6,1005,29.69,-999,-999,-9999,-9999,,,Partly Cloudy,partlycloudy,0,0,0,0,0,0,AAXX 25004 48376 32560 62604 10276 20223 39909 40053 51004 83536 333 20270 59006
10:00 AM +07 on June 25,2017,2017,6,25,10,0,Asia/Bangkok,32,89,23,73,50,14.8,9.2,,,270,West,12,7,1006,29.72,-999,-999,-9999,-9999,,,Scattered Clouds,partlycloudy,0,0,0,0,0,0,AAXX 25034 48376 32562 32708 10318 20226 39921 40062 52011 82535 333 58003
1:00 PM +07 on June 25,2017,2017,6,25,13,0,Asia/Bangkok,34,93,22,72,42,14.8,9.2,,,280,West,10,6,1005,29.68,-999,-999,-9999,-9999,,,Partly Cloudy,partlycloudy,0,0,0,0,0,0,AAXX 25064 48376 32560 62808 10337 20225 39907 40048 57014 83936 333 58003
4:00 PM +07 on June 25,2017,2017,6,25,16,0,Asia/Bangkok,33,92,23,73,45,16.7,10.4,,,260,West,10,6,1002,29.6,-999,-999,-9999,-9999,,,Partly Cloudy,partlycloudy,0,0,0,0,0,0,AAXX 25094 48376 32560 72609 10333 20229 39884 40024 57024 84976 333 58004
7:00 PM +07 on June 25,2017,2017,6,25,19,0,Asia/Bangkok,29,85,22,72,58,14.8,9.2,,,260,West,10,6,1004,29.66,-999,-999,-9999,-9999,,,Thunderstorm,tstorms,0,0,0,0,1,0,AAXX 25124 48376 31560 72608 10293 20224 39901 40043 52017 71722 84976 333 10354 58011
10:00 PM +07 on June 25,2017,2017,6,25,22,0,Asia/Bangkok,28,83,22,72,61,14.8,9.2,,,260,West,8,5,1007,29.73,-999,-999,-9999,-9999,,,Mist,hazy,0,0,0,0,0,0,AAXX 25154 48376 21558 72608 10282 20220 39925 40068 52024 71062 84576 333 58009 69906
1:00 AM +07 on June 26,2017,2017,6,26,1,0,Asia/Bangkok,27,80,24,76,84,3.7,2.3,,,210,SSW,10,6,1008,29.75,-999,-999,-9999,-9999,,,Partly Cloudy,partlycloudy,0,0,0,0,0,0,AAXX 25184 48380 31560 72102 10267 20245 39982 40075 53002 70192 82576 333 58019 70004
4:00 AM +07 on June 26,2017,2017,6,26,4,0,Asia/Bangkok,26,79,25,76,89,0,0,,,,,10,6,1006,29.73,-999,-999,-9999,-9999,,,Overcast,cloudy,0,0,0,0,0,0,AAXX 25214 48380 32560 80000 10262 20246 39972 40065 57010 8257/ 333 58014
7:00 AM +07 on June 26,2017,2017,6,26,7,0,Asia/Bangkok,26,80,25,77,89,0,0,,,,,10,6,1007,29.75,-999,-999,-9999,-9999,,,Scattered Clouds,partlycloudy,0,0,0,0,0,0,AAXX 26004 48380 12560 60000 10264 20251 39979 40072 52007 69904 81555 333 20257 58010 79999
10:00 AM +07 on June 26,2017,2017,6,26,10,0,Asia/Bangkok,30,87,23,74,57,3.7,2.3,,,100,East,12,7,1008,29.77,-999,-999,-9999,-9999,,,Mostly Cloudy,mostlycloudy,0,0,0,0,0,0,AAXX 26034 48380 32562 61002 10305 20232 39988 40080 52009 85542 333 58013
1:00 PM +07 on June 26,2017,2017,6,26,13,0,Asia/Bangkok,33,91,24,75,50,5.6,3.5,,,20,NNE,12,7,1006,29.72,-999,-999,-9999,-9999,,,Partly Cloudy,partlycloudy,0,0,0,0,0,0,AAXX 26064 48380 32562 50203 10329 20237 39970 40062 57017 84542 333 58008 79999
4:00 PM +07 on June 26,2017,2017,6,26,16,0,Asia/Bangkok,28,82,26,78,85,5.6,3.5,,,330,NNW,5,3,1006,29.7,-999,-999,-9999,-9999,,,Thunderstorms and Rain,tstorms,0,1,0,0,1,0,AAXX 26094 48380 21550 83303 10276 20256 39962 40055 57008 79562 83977 333 58022 60126
7:00 PM +07 on June 26,2017,2017,6,26,19,0,Asia/Bangkok,28,82,26,78,85,0,0,,,,,10,6,1005,29.69,-999,-999,-9999,-9999,,,Partly Cloudy,partlycloudy,0,0,0,0,0,0,AAXX 26124 48380 01560 70000 10277 20257 39961 40053 57001 60132 70196 82576 333 10337 58005 69977 70125
1:00 AM +07 on June 27,2017,2017,6,27,1,0,Asia/Bangkok,26,80,25,78,91,0,0,,,,,10,6,1008,29.76,-999,-999,-9999,-9999,,,Scattered Clouds,partlycloudy,0,0,0,0,0,0,AAXX 26184 48380 32560 60000 10265 20254 39983 40076 52004 81546 333 58001 70125
4:00 AM +07 on June 27,2017,2017,6,27,4,0,Asia/Bangkok,26,79,25,77,93,0,0,,,,,10,6,1006,29.73,-999,-999,-9999,-9999,,,Scattered Clouds,partlycloudy,0,0,0,0,0,0,AAXX 26214 48380 32560 60000 10262 20252 39971 40065 57011 81546 333 59001
7:00 AM +07 on June 27,2017,2017,6,27,7,0,Asia/Bangkok,26,79,25,77,93,0,0,,,,,10,6,1007,29.75,-999,-999,-9999,-9999,,,Scattered Clouds,partlycloudy,0,0,0,0,0,0,AAXX 27004 48380 12560 60000 10259 20252 39979 40073 52008 60134 82555 333 20252 58000 70125
10:00 AM +07 on June 27,2017,2017,6,27,10,0,Asia/Bangkok,30,87,24,76,62,5.6,3.5,,,240,WSW,12,7,1008,29.77,-999,-999,-9999,-9999,,,Scattered Clouds,partlycloudy,0,0,0,0,0,0,AAXX 27034 48380 32562 52403 10303 20244 39988 40081 52009 82545 333 58000
1:00 PM +07 on June 27,2017,2017,6,27,13,0,Asia/Bangkok,33,91,24,75,50,7.4,4.6,,,100,East,15,9,1006,29.72,-999,-999,-9999,-9999,,,Partly Cloudy,partlycloudy,0,0,0,0,0,0,AAXX 27064 48380 32565 51004 10329 20237 39973 40064 57015 84943 333 58003 70125
4:00 PM +07 on June 27,2017,2017,6,27,16,0,Asia/Bangkok,29,84,24,76,71,9.3,5.8,,,210,SSW,6,4,1005,29.69,-999,-999,-9999,-9999,,,Thunderstorms and Rain,tstorms,0,1,0,0,1,0,AAXX 27094 48380 21556 72105 10288 20245 39962 40054 57011 79522 83976 333 59001 69935
7:00 PM +07 on June 27,2017,2017,6,27,19,0,Asia/Bangkok,27,81,26,78,88,3.7,2.3,,,230,SW,10,6,1005,29.69,-999,-999,-9999,-9999,,,Partly Cloudy,partlycloudy,0,0,0,0,0,0,AAXX 27124 48380 01560 72302 10272 20255 39960 40053 57002 60042 70296 82546 333 10332 58000 60047 70042
10:00 PM +07 on June 27,2017,2017,6,27,22,0,Asia/Bangkok,27,81,26,79,90,0,0,,,,,10,6,1007,29.74,-999,-999,-9999,-9999,,,Scattered Clouds,partlycloudy,0,0,0,0,0,0,AAXX 27154 48380 32560 30000 10270 20259 39977 40070 52016 81545 333 59002
1:00 AM +07 on June 28,2017,2017,6,28,1,0,Asia/Bangkok,26,80,26,78,91,0,0,,,,,10,6,1007,29.75,-999,-999,-9999,-9999,,,Scattered Clouds,partlycloudy,0,0,0,0,0,0,AAXX 27184 48380 32560 60000 10265 20255 39980 40073 52003 81546 333 59003 70042
4:00 AM +07 on June 28,2017,2017,6,28,4,0,Asia/Bangkok,26,80,26,78,93,0,0,,,,,10,6,1007,29.74,-999,-999,-9999,-9999,,,Scattered Clouds,partlycloudy,0,0,0,0,0,0,AAXX 27214 48380 32560 60000 10265 20258 39976 40069 57005 82546 333 58004
7:00 AM +07 on June 28,2017,2017,6,28,7,0,Asia/Bangkok,26,79,25,77,92,1.9,1.2,,,310,NW,10,6,1008,29.76,-999,-999,-9999,-9999,,,Overcast,cloudy,0,0,0,0,0,0,AAXX 28004 48380 12560 83101 10263 20251 39984 40077 52008 60044 85537 333 20258 58005 70042
10:00 AM +07 on June 28,2017,2017,6,28,10,0,Asia/Bangkok,30,86,24,76,64,3.7,2.3,,,330,NNW,12,7,1008,29.78,-999,-999,-9999,-9999,,,Scattered Clouds,partlycloudy,0,0,0,0,0,0,AAXX 28034 48380 32562 73302 10301 20242 39992 40085 51009 81102 333 58004
1:00 PM +07 on June 28,2017,2017,6,28,13,0,Asia/Bangkok,33,91,24,75,52,5.6,3.5,,,130,SE,12,7,1007,29.74,-999,-999,-9999,-9999,,,Scattered Clouds,partlycloudy,0,0,0,0,0,0,AAXX 28064 48380 32562 61303 10327 20241 39979 40070 57013 82102 333 58006 70042
4:00 PM +07 on June 28,2017,2017,6,28,16,0,Asia/Bangkok,34,93,24,74,46,0,0,,,,,12,7,1005,29.68,-999,-999,-9999,-9999,,,Partly Cloudy,partlycloudy,0,0,0,0,0,0,AAXX 28094 48380 32562 70000 10339 20236 39958 40049 57021 83107 333 59005
7:00 PM +07 on June 28,2017,2017,6,28,19,0,Asia/Bangkok,31,88,25,78,65,0,0,,,,,10,6,1006,29.7,-999,-999,-9999,-9999,,,Overcast,cloudy,0,0,0,0,0,0,AAXX 28124 48380 32560 80000 10313 20254 39964 40056 52006 84207 333 10345 58003
10:00 PM +07 on June 28,2017,2017,6,28,22,0,Asia/Bangkok,27,81,25,77,83,3.7,2.3,,,300,WNW,10,6,1008,29.78,-999,-999,-9999,-9999,,,Thunderstorm,tstorms,0,0,0,0,1,0,AAXX 28154 48380 21560 63002 10270 20248 39992 40085 52028 71798 83903 333 58015 69927
1:00 AM +07 on June 29,2017,2017,6,29,1,0,Asia/Bangkok,28,83,23,73,66,11.1,6.9,,,270,West,7,4,1007,29.75,-999,-999,-9999,-9999,,,Mist,hazy,0,0,0,0,0,0,AAXX 28184 48376 11557 62706 10281 20230 39930 40073 56009 60023 71062 83556 333 58002 70024
4:00 AM +07 on June 29,2017,2017,6,29,4,0,Asia/Bangkok,28,82,22,72,66,9.3,5.8,,,270,West,7,4,1006,29.72,-999,-999,-9999,-9999,,,Mist,hazy,0,0,0,0,0,0,AAXX 28214 48376 31557 62705 10277 20225 39920 40064 56009 71022 82536 333 58003
7:00 AM +07 on June 29,2017,2017,6,29,7,0,Asia/Bangkok,27,80,24,76,83,0,0,,,,,8,5,1008,29.77,-999,-999,-9999,-9999,,,Mist,hazy,0,0,0,0,0,0,AAXX 29004 48376 11558 70000 10266 20243 39935 40079 52014 60024 71022 84556 333 20262 58004 70024
10:00 AM +07 on June 29,2017,2017,6,29,10,0,Asia/Bangkok,30,86,24,76,65,0,0,,,,,8,5,1009,29.79,-999,-999,-9999,-9999,,,Mist,hazy,0,0,0,0,0,0,AAXX 29034 48376 31558 60000 10300 20243 39944 40087 52010 71022 82536 333 58007
1:00 PM +07 on June 29,2017,2017,6,29,13,0,Asia/Bangkok,32,90,25,77,59,3.7,2.3,,,170,South,7,4,1007,29.75,-999,-999,-9999,-9999,,,Mist,hazy,0,0,0,0,0,0,AAXX 29064 48376 31557 71702 10320 20252 39930 40072 57014 71022 83576 333 58005 70024
4:00 PM +07 on June 29,2017,2017,6,29,16,0,Asia/Bangkok,34,92,25,77,53,7.4,4.6,,,180,South,7,4,1004,29.66,-999,-999,-9999,-9999,,,Haze,hazy,0,0,0,0,0,0,AAXX 29094 48376 31557 61804 10335 20250 39903 40044 57027 70522 82936 333 59001
7:00 PM +07 on June 29,2017,2017,6,29,19,0,Asia/Bangkok,30,86,24,76,65,0,0,,,,,6,4,1005,29.68,-999,-999,-9999,-9999,,,Mist,hazy,0,0,0,0,0,0,AAXX 29124 48376 31556 70000 10298 20244 39909 40051 51005 71022 83576 333 10340 59007 70024
10:00 PM +07 on June 29,2017,2017,6,29,22,0,Asia/Bangkok,27,80,25,77,88,0,0,,,,,6,4,1007,29.75,-999,-999,-9999,-9999,,,Mist,hazy,0,0,0,0,0,0,AAXX 29154 48376 21556 60000 10267 20250 39929 40073 52021 71062 82576 333 59010 60027
1:00 AM +07 on June 30,2017,2017,6,30,1,0,Asia/Bangkok,26,80,25,77,86,0,0,,,,,7,4,1007,29.74,-999,-999,-9999,-9999,,,Mist,hazy,0,0,0,0,0,0,AAXX 29184 48376 11557 60000 10264 20248 39927 40071 56002 60023 71062 82536 333 59002 70016
4:00 AM +07 on June 30,2017,2017,6,30,4,0,Asia/Bangkok,26,80,25,77,89,0,0,,,,,7,4,1007,29.73,-999,-999,-9999,-9999,,,Mist,hazy,0,0,0,0,0,0,AAXX 29214 48376 31557 60000 10264 20251 39923 40067 56004 71022 82536 333 58003
7:00 AM +07 on June 30,2017,2017,6,30,7,0,Asia/Bangkok,26,79,25,77,90,0,0,,,,,6,4,1008,29.75,-999,-999,-9999,-9999,,,Mist,hazy,0,0,0,0,0,0,AAXX 30004 48376 11556 60000 10260 20248 39931 40075 51008 60024 71022 83536 333 20255 59004 70016
10:00 AM +07 on June 30,2017,2017,6,30,10,0,Asia/Bangkok,30,86,23,74,59,0,0,,,,,6,4,1008,29.77,-999,-999,-9999,-9999,,,Mist,hazy,0,0,0,0,0,0,AAXX 30034 48376 31556 60000 10300 20232 39936 40079 51006 71022 82556 333 59008
1:00 PM +07 on June 30,2017,2017,6,30,13,0,Asia/Bangkok,34,94,25,78,51,5.6,3.5,,,140,SE,7,4,1006,29.71,-999,-999,-9999,-9999,,,Haze,hazy,0,0,0,0,0,0,AAXX 30064 48376 31557 61403 10345 20254 39921 40061 57016 70522 82936 333 59011 70016
4:00 PM +07 on June 30,2017,2017,6,30,16,0,Asia/Bangkok,29,84,26,79,81,0,0,,,,,8,5,1004,29.67,-999,-999,-9999,-9999,,,Light Rain,rain,0,1,0,0,0,0,AAXX 30094 48376 21558 60000 10290 20262 39902 40045 57018 72162 82576 333 58001 60047
7:00 PM +07 on June 30,2017,2017,6,30,19,0,Asia/Bangkok,28,82,23,74,71,5.6,3.5,,,250,WSW,6,4,1005,29.69,-999,-999,-9999,-9999,,,Mist,hazy,0,0,0,0,0,0,AAXX 30124 48376 11556 72503 10278 20234 39910 40053 51008 60042 71062 83576 333 10348 58003 70054
10:00 PM +07 on June 30,2017,2017,6,30,22,0,Asia/Bangkok,26,79,25,76,89,0,0,,,,,4,2,1008,29.77,-999,-999,-9999,-9999,,,Light Rain,rain,0,1,0,0,0,0,AAXX 30154 48376 21540 60000 10260 20246 39936 40081 52026 76062 84576 333 58008 60016
1:00 AM +07 on June 01,2017,2017,6,1,1,0,Asia/Bangkok,26,78,25,77,96,0,0,,,,,3,2,1008,29.76,-999,-999,-9999,-9999,,,Mist,hazy,0,0,0,0,0,0,AAXX 31184 48376 01530 80000 10257 20250 39932 40077 57013 60053 71096 8552/ 333 59010 60027 70050
4:00 AM +07 on June 01,2017,2017,6,1,4,0,Asia/Bangkok,26,78,25,77,95,0,0,,,,,4,2,1006,29.73,-999,-999,-9999,-9999,,,Mist,hazy,0,0,0,0,0,0,AAXX 31214 48376 31540 80000 10256 20249 39921 40065 57011 71022 8552/ 333 59011
7:00 AM +07 on June 01,2017,2017,6,1,7,0,Asia/Bangkok,26,79,26,78,95,0,0,,,,,4,2,1008,29.77,-999,-999,-9999,-9999,,,Mist,hazy,0,0,0,0,0,0,AAXX 01004 48376 11540 70000 10261 20255 39937 40081 52016 60054 71022 84556 333 20251 59009 70050
10:00 AM +07 on June 01,2017,2017,6,1,10,0,Asia/Bangkok,30,85,26,79,78,0,0,,,,,5,3,1009,29.79,-999,-999,-9999,-9999,,,Mist,hazy,0,0,0,0,0,0,AAXX 01034 48376 31550 60000 10296 20262 39945 40088 51009 71022 82536 333 59016
1:00 PM +07 on June 01,2017,2017,6,1,13,0,Asia/Bangkok,33,91,26,79,61,0,0,,,,,5,3,1007,29.73,-999,-999,-9999,-9999,,,Mist,hazy,0,0,0,0,0,0,AAXX 01064 48376 31550 60000 10329 20261 39925 40066 57021 71022 82236 333 59016 70050
4:00 PM +07 on June 01,2017,2017,6,1,16,0,Asia/Bangkok,32,90,27,81,68,5.6,3.5,,,150,SSE,4,2,1004,29.66,-999,-999,-9999,-9999,,,Thunderstorm,tstorms,0,0,0,0,1,0,AAXX 01094 48376 31540 61503 10325 20270 39903 40044 57022 71722 83966 333 59002
7:00 PM +07 on June 01,2017,2017,6,1,19,0,Asia/Bangkok,26,79,25,76,89,0,0,,,,,3,2,1007,29.73,-999,-999,-9999,-9999,,,Mist,hazy,0,0,0,0,0,0,AAXX 01124 48376 01530 70000 10260 20246 39923 40068 52021 69982 71092 85576 333 10334 59002 69987 70053
10:00 PM +07 on June 01,2017,2017,6,1,22,0,Asia/Bangkok,26,79,25,77,93,0,0,,,,,4,2,1008,29.77,-999,-999,-9999,-9999,,,Mist,hazy,0,0,0,0,0,0,AAXX 01154 48376 21540 50000 10262 20252 39935 40079 52011 71062 82536 333 59011 69937
1:00 AM +07 on June 02,2017,2017,6,2,1,0,Asia/Bangkok,27,80,26,78,91,0,0,,,,,10,6,1007,29.75,-999,-999,-9999,-9999,,,Scattered Clouds,partlycloudy,0,0,0,0,0,0,AAXX 01184 48380 32560 60000 10268 20255 39980 40074 57006 81576 333 59006 70016
4:00 AM +07 on June 02,2017,2017,6,2,4,0,Asia/Bangkok,26,79,25,78,95,0,0,,,,,10,6,1007,29.73,-999,-999,-9999,-9999,,,Scattered Clouds,partlycloudy,0,0,0,0,0,0,AAXX 01214 48380 32560 60000 10263 20254 39974 40068 57006 81576 333 59003
7:00 AM +07 on June 02,2017,2017,6,2,7,0,Asia/Bangkok,27,81,26,78,89,3.7,2.3,,,110,ESE,10,6,1009,29.79,-999,-999,-9999,-9999,,,Scattered Clouds,partlycloudy,0,0,0,0,0,0,AAXX 02004 48380 12560 61102 10271 20257 39992 40086 52018 60024 82276 333 20262 59001 70016
10:00 AM +07 on June 02,2017,2017,6,2,10,0,Asia/Bangkok,30,86,25,77,69,5.6,3.5,,,60,ENE,12,7,1010,29.82,-999,-999,-9999,-9999,,,Scattered Clouds,partlycloudy,0,0,0,0,0,0,AAXX 02034 48380 32562 50603 10298 20251 30005 40097 52012 81545 333 58005
1:00 PM +07 on June 02,2017,2017,6,2,13,0,Asia/Bangkok,34,92,25,77,53,5.6,3.5,,,10,North,12,7,1008,29.76,-999,-999,-9999,-9999,,,Scattered Clouds,partlycloudy,0,0,0,0,0,0,AAXX 02064 48380 32562 30103 10336 20250 39986 40077 57019 82241 333 58004 70016
4:00 PM +07 on June 02,2017,2017,6,2,16,0,Asia/Bangkok,31,88,28,82,76,3.7,2.3,,,250,WSW,10,6,1005,29.68,-999,-999,-9999,-9999,,,Partly Cloudy,partlycloudy,0,0,0,0,0,0,AAXX 02094 48380 21560 42502 10312 20275 39960 40051 57026 70396 82943 333 58002 60037
7:00 PM +07 on June 02,2017,2017,6,2,19,0,Asia/Bangkok,30,85,26,79,76,0,0,,,,,10,6,1006,29.7,-999,-999,-9999,-9999,,,Thunderstorm,tstorms,0,0,0,0,1,0,AAXX 02124 48380 01560 60000 10297 20259 39965 40057 52005 60032 71796 82946 333 10339 59008 69915 70030
10:00 PM +07 on June 02,2017,2017,6,2,22,0,Asia/Bangkok,28,82,26,78,85,0,0,,,,,8,5,1008,29.78,-999,-999,-9999,-9999,,,Light Rain,rain,0,1,0,0,0,0,AAXX 02154 48380 21558 80000 10276 20256 39990 40083 52025 76092 8357/ 333 58004 69915
1:00 AM +07 on June 11,2017,2017,6,11,1,0,Asia/Bangkok,26,79,25,77,92,0,0,,,,,4,2,1008,29.78,-999,-999,-9999,-9999,,,Mist,hazy,0,0,0,0,0,0,AAXX 10184 48376 31540 80000 10260 20250 39940 40084 56002 71022 84576 333 58004 70060
4:00 AM +07 on June 11,2017,2017,6,11,4,0,Asia/Bangkok,26,79,25,77,92,0,0,,,,,4,2,1007,29.75,-999,-999,-9999,-9999,,,Mist,hazy,0,0,0,0,0,0,AAXX 10214 48376 31540 70000 10259 20250 39930 40074 57010 71022 83576 333 58009
7:00 AM +07 on June 11,2017,2017,6,11,7,0,Asia/Bangkok,26,78,25,78,99,0,0,,,,,5,3,1008,29.78,-999,-999,-9999,-9999,,,Light Rain,rain,0,1,0,0,0,0,AAXX 11004 48376 01550 80000 10258 20254 39938 40082 52008 60074 72162 84576 333 20256 58001 69987 70068
10:00 AM +07 on June 11,2017,2017,6,11,10,0,Asia/Bangkok,28,82,25,78,83,0,0,,,,,4,2,1009,29.81,-999,-999,-9999,-9999,,,Light Rain,rain,0,1,0,0,0,0,AAXX 11034 48376 21540 80000 10277 20253 39949 40093 52011 76162 84576 333 58008 69956
1:00 PM +07 on June 11,2017,2017,6,11,13,0,Asia/Bangkok,30,85,24,76,68,3.7,2.3,,,270,West,5,3,1009,29.79,-999,-999,-9999,-9999,,,Mist,hazy,0,0,0,0,0,0,AAXX 11064 48376 01550 72702 10295 20245 39945 40087 56005 69961 71062 83579 333 58017 69917 70074
4:00 PM +07 on June 11,2017,2017,6,11,16,0,Asia/Bangkok,30,86,25,77,68,9.3,5.8,,,260,West,5,3,1006,29.72,-999,-999,-9999,-9999,,,Mist,hazy,0,0,0,0,0,0,AAXX 11094 48376 31550 72605 10301 20250 39922 40064 57023 71022 83576 333 58011
7:00 PM +07 on June 11,2017,2017,6,11,19,0,Asia/Bangkok,28,83,26,80,87,0,0,,,,,4,2,1007,29.74,-999,-999,-9999,-9999,,,Mist,hazy,0,0,0,0,0,0,AAXX 11124 48376 31540 70000 10282 20265 39927 40070 51005 71022 83576 333 10310 58008 70014
10:00 PM +07 on June 11,2017,2017,6,11,22,0,Asia/Bangkok,27,81,26,79,92,0,0,,,,,4,2,1008,29.78,-999,-999,-9999,-9999,,,Mist,hazy,0,0,0,0,0,0,AAXX 11154 48376 31540 60000 10273 20262 39941 40085 52014 71022 82536 333 59001
1:00 AM +07 on June 15,2017,2017,6,15,1,0,Asia/Bangkok,26,79,22,72,74,0,0,,,,,5,3,1010,29.84,-999,-999,-9999,-9999,,,Mist,hazy,0,0,0,0,0,0,AAXX 14184 48376 31550 60000 10263 20223 39959 40103 56003 71022 83536 333 58018
4:00 AM +07 on June 15,2017,2017,6,15,4,0,Asia/Bangkok,26,79,24,75,85,3.7,2.3,,,60,ENE,5,3,1010,29.81,-999,-999,-9999,-9999,,,Mist,hazy,0,0,0,0,0,0,AAXX 14214 48376 31550 60602 10260 20241 39950 40095 56008 71022 82536 333 58007
7:00 AM +07 on June 15,2017,2017,6,15,7,0,Asia/Bangkok,26,79,24,75,85,0,0,,,,,4,2,1010,29.83,-999,-999,-9999,-9999,,,Mist,hazy,0,0,0,0,0,0,AAXX 15004 48376 31540 70000 10259 20240 39956 40100 51005 71022 83576 333 20254 58013
1:00 PM +07 on June 15,2017,2017,6,15,13,0,Asia/Bangkok,31,88,22,71,47,13,8.1,,,270,West,6,4,1010,29.83,-999,-999,-9999,-9999,,,Haze,hazy,0,0,0,0,0,0,AAXX 15064 48376 31556 72707 10310 20215 39958 40100 56003 70522 83576 333 58014
4:00 PM +07 on June 15,2017,2017,6,15,16,0,Asia/Bangkok,31,88,21,70,47,9.3,5.8,,,280,West,5,3,1008,29.77,-999,-999,-9999,-9999,,,Haze,hazy,0,0,0,0,0,0,AAXX 15094 48376 31550 62805 10310 20213 39939 40081 57019 70522 83536 333 58014
7:00 PM +07 on June 15,2017,2017,6,15,19,0,Asia/Bangkok,30,85,22,72,56,0,0,,,,,4,2,1008,29.76,-999,-999,-9999,-9999,,,Haze,hazy,0,0,0,0,0,0,AAXX 15124 48376 31540 60000 10297 20220 39935 40077 56004 70522 82536 333 10315 58000
10:00 PM +07 on June 15,2017,2017,6,15,22,0,Asia/Bangkok,28,82,22,72,64,3.7,2.3,,,260,West,4,2,1010,29.82,-999,-999,-9999,-9999,,,Mist,hazy,0,0,0,0,0,0,AAXX 15154 48376 31540 52602 10280 20221 39954 40098 52020 71022 82536 333 59008
1:00 AM +07 on June 14,2017,2017,6,14,1,0,Asia/Bangkok,26,78,25,77,94,0,0,,,,,5,3,1009,29.8,-999,-999,-9999,-9999,,,Light Rain,rain,0,1,0,0,0,0,AAXX 13184 48380 01550 80000 10255 20248 39997 40091 57002 60023 76162 8657/ 333 58017 60026 70020
4:00 AM +07 on June 14,2017,2017,6,14,4,0,Asia/Bangkok,26,79,25,77,90,0,0,,,,,10,6,1009,29.79,-999,-999,-9999,-9999,,,Partly Cloudy,partlycloudy,0,0,0,0,0,0,AAXX 13214 48380 21460 80000 10262 20248 39993 40086 57004 70262 8377/ 333 58016 69907
7:00 AM +07 on June 14,2017,2017,6,14,7,0,Asia/Bangkok,26,79,25,77,91,5.6,3.5,,,140,SE,10,6,1009,29.8,-999,-999,-9999,-9999,,,Partly Cloudy,partlycloudy,0,0,0,0,0,0,AAXX 14004 48380 11560 81403 10263 20249 39995 40089 54000 60024 70262 82577 333 20253 58010 70020
10:00 AM +07 on June 14,2017,2017,6,14,10,0,Asia/Bangkok,29,85,25,77,71,3.7,2.3,,,350,North,15,9,1010,29.81,-999,-999,-9999,-9999,,,Scattered Clouds,partlycloudy,0,0,0,0,0,0,AAXX 14034 48380 32565 43502 10292 20249 30003 40095 52007 82545 333 58001
1:00 PM +07 on June 14,2017,2017,6,14,13,0,Asia/Bangkok,32,90,25,77,57,5.6,3.5,,,20,NNE,15,9,1009,29.8,-999,-999,-9999,-9999,,,Mostly Cloudy,mostlycloudy,0,0,0,0,0,0,AAXX 14064 48380 32565 70203 10322 20248 39999 40090 57004 85546 333 58014 70020
4:00 PM +07 on June 14,2017,2017,6,14,16,0,Asia/Bangkok,33,91,24,76,53,7.4,4.6,,,90,East,15,9,1007,29.75,-999,-999,-9999,-9999,,,Scattered Clouds,partlycloudy,0,0,0,0,0,0,AAXX 14094 48380 32565 30904 10330 20245 39981 40072 57018 82943 333 58010
7:00 PM +07 on June 14,2017,2017,6,14,19,0,Asia/Bangkok,30,86,24,76,66,7.4,4.6,,,130,SE,10,6,1008,29.76,-999,-999,-9999,-9999,,,Thunderstorm,tstorms,0,0,0,0,1,0,AAXX 14124 48380 01560 81304 10302 20245 39983 40076 52003 69902 71762 84976 333 10333 58005 69906 70020
10:00 PM +07 on June 14,2017,2017,6,14,22,0,Asia/Bangkok,26,80,25,77,89,0,0,,,,,5,3,1011,29.86,-999,-999,-9999,-9999,,,Thunderstorms and Rain,tstorms,0,1,0,0,1,0,AAXX 14154 48380 21550 80000 10265 20251 30018 40112 52035 79599 8492/ 333 58021 60197
1:00 AM +07 on June 17,2017,2017,6,17,1,0,Asia/Bangkok,28,83,22,72,62,14.8,9.2,,,270,West,6,4,1008,29.78,-999,-999,-9999,-9999,,,Mist,hazy,0,0,0,0,0,0,AAXX 16184 48376 31556 22708 10284 20223 39940 40084 57011 71010 82505 333 59013
4:00 AM +07 on June 17,2017,2017,6,17,4,0,Asia/Bangkok,28,83,22,72,63,11.1,6.9,,,280,West,6,4,1008,29.76,-999,-999,-9999,-9999,,,Mist,hazy,0,0,0,0,0,0,AAXX 16214 48376 31556 62806 10282 20224 39932 40076 56008 71020 83536 333 59017
7:00 AM +07 on June 17,2017,2017,6,17,7,0,Asia/Bangkok,27,81,23,73,71,5.6,3.5,,,240,WSW,7,4,1008,29.77,-999,-999,-9999,-9999,,,Mist,hazy,0,0,0,0,0,0,AAXX 17004 48376 31557 72403 10274 20228 39937 40080 51004 71020 84536 333 20268 59020
10:00 AM +07 on June 17,2017,2017,6,17,10,0,Asia/Bangkok,30,87,24,75,59,14.8,9.2,,,270,West,10,6,1008,29.77,-999,-999,-9999,-9999,,,Scattered Clouds,partlycloudy,0,0,0,0,0,0,AAXX 17034 48376 32560 62708 10305 20237 39936 40079 54000 82536 333 59028
1:00 PM +07 on June 17,2017,2017,6,17,13,0,Asia/Bangkok,32,89,25,76,59,9.3,5.8,,,270,West,10,6,1007,29.74,-999,-999,-9999,-9999,,,Scattered Clouds,partlycloudy,0,0,0,0,0,0,AAXX 17064 48376 32560 52705 10318 20247 39928 40070 56009 82536 333 59018
4:00 PM +07 on June 17,2017,2017,6,17,16,0,Asia/Bangkok,34,93,24,76,49,14.8,9.2,,,250,WSW,8,5,1004,29.67,-999,-999,-9999,-9999,,,Haze,hazy,0,0,0,0,0,0,AAXX 17094 48376 31558 32508 10340 20243 39905 40045 57023 70510 82235 333 59023
7:00 PM +07 on June 17,2017,2017,6,17,19,0,Asia/Bangkok,29,84,23,74,64,14.8,9.2,,,270,West,8,5,1006,29.7,-999,-999,-9999,-9999,,,Mist,hazy,0,0,0,0,0,0,AAXX 17124 48376 31558 32708 10290 20232 39915 40058 52010 71010 82235 333 10350 59013
10:00 PM +07 on June 17,2017,2017,6,17,22,0,Asia/Bangkok,29,84,22,72,59,11.1,6.9,,,260,West,7,4,1008,29.77,-999,-999,-9999,-9999,,,Mist,hazy,0,0,0,0,0,0,AAXX 17154 48376 31557 22606 10288 20221 39937 40081 52022 71000 82205 333 59014
1:00 AM +07 on June 10,2017,2017,6,10,1,0,Asia/Bangkok,25,78,25,77,95,0,0,,,,,5,3,1008,29.77,-999,-999,-9999,-9999,,,Mist,hazy,0,0,0,0,0,0,AAXX 09184 48376 11550 80000 10253 20249 39935 40080 56007 60273 71092 84576 333 58016 70272
4:00 AM +07 on June 10,2017,2017,6,10,4,0,Asia/Bangkok,25,78,25,77,94,0,0,,,,,4,2,1006,29.73,-999,-999,-9999,-9999,,,Mist,hazy,0,0,0,0,0,0,AAXX 09214 48376 31540 80000 10254 20248 39921 40065 57014 71022 84576 333 58005
7:00 AM +07 on June 10,2017,2017,6,10,7,0,Asia/Bangkok,26,78,25,77,95,0,0,,,,,3,2,1008,29.77,-999,-999,-9999,-9999,,,Mist,hazy,0,0,0,0,0,0,AAXX 10004 48376 11530 80000 10256 20249 39936 40081 52015 60274 71022 8552/ 333 20253 58014 70272
10:00 AM +07 on June 10,2017,2017,6,10,10,0,Asia/Bangkok,27,81,24,75,78,0,0,,,,,4,2,1008,29.78,-999,-999,-9999,-9999,,,Mist,hazy,0,0,0,0,0,0,AAXX 10034 48376 31540 70000 10273 20241 39941 40085 51005 71022 83576 333 58013
1:00 PM +07 on June 10,2017,2017,6,10,13,0,Asia/Bangkok,31,87,26,78,69,0,0,,,,,7,4,1007,29.74,-999,-999,-9999,-9999,,,Mist,hazy,0,0,0,0,0,0,AAXX 10064 48376 31557 60000 10308 20257 39928 40070 57013 71022 83336 333 58019 70272
4:00 PM +07 on June 10,2017,2017,6,10,16,0,Asia/Bangkok,29,84,25,77,73,11.1,6.9,,,270,West,4,2,1005,29.69,-999,-999,-9999,-9999,,,Mist,hazy,0,0,0,0,0,0,AAXX 10094 48376 21540 82706 10288 20248 39910 40053 57018 71062 84576 333 58016 60067
7:00 PM +07 on June 10,2017,2017,6,10,19,0,Asia/Bangkok,28,82,24,74,72,9.3,5.8,,,270,West,4,2,1006,29.72,-999,-999,-9999,-9999,,,Mist,hazy,0,0,0,0,0,0,AAXX 10124 48376 11540 72705 10280 20236 39919 40062 51009 60062 71062 83576 333 10310 58011 70100
10:00 PM +07 on June 10,2017,2017,6,10,22,0,Asia/Bangkok,26,80,25,77,89,0,0,,,,,4,2,1009,29.79,-999,-999,-9999,-9999,,,Mist,hazy,0,0,0,0,0,0,AAXX 10154 48376 31540 70000 10265 20251 39942 40086 52023 71022 83576 333 59001
1:00 AM +07 on June 13,2017,2017,6,13,1,0,Asia/Bangkok,28,83,23,73,65,7.4,4.6,,,260,West,5,3,1008,29.77,-999,-999,-9999,-9999,,,Mist,hazy,0,0,0,0,0,0,AAXX 12184 48376 31550 22604 10282 20229 39936 40079 54000 71020 82205 333 59011
4:00 AM +07 on June 13,2017,2017,6,13,4,0,Asia/Bangkok,27,80,24,75,80,0,0,,,,,5,3,1006,29.73,-999,-999,-9999,-9999,,,Mist,hazy,0,0,0,0,0,0,AAXX 12214 48376 31550 60000 10266 20238 39921 40065 57015 71020 83536 333 59020
7:00 AM +07 on June 13,2017,2017,6,13,7,0,Asia/Bangkok,27,80,24,76,83,5.6,3.5,,,280,West,6,4,1008,29.76,-999,-999,-9999,-9999,,,Mist,hazy,0,0,0,0,0,0,AAXX 13004 48376 31556 82803 10269 20243 39933 40076 52011 71020 8552/ 333 20261 59006
10:00 AM +07 on June 13,2017,2017,6,13,10,0,Asia/Bangkok,30,86,25,77,68,0,0,,,,,6,4,1009,29.81,-999,-999,-9999,-9999,,,Mist,hazy,0,0,0,0,0,0,AAXX 13034 48376 31556 60000 10300 20250 39950 40093 52018 71022 83536 333 58006
1:00 PM +07 on June 13,2017,2017,6,13,13,0,Asia/Bangkok,32,90,25,77,58,3.7,2.3,,,170,South,7,4,1008,29.77,-999,-999,-9999,-9999,,,Mist,hazy,0,0,0,0,0,0,AAXX 13064 48376 31557 61702 10323 20251 39937 40079 57013 71022 82336 333 58003
4:00 PM +07 on June 13,2017,2017,6,13,16,0,Asia/Bangkok,27,81,25,78,87,11.1,6.9,,,300,WNW,2,1,1008,29.75,-999,-999,-9999,-9999,,,Thunderstorms and Rain,tstorms,0,1,0,0,1,0,AAXX 13094 48376 21420 83006 10273 20254 39931 40075 56006 79522 85976 333 58022 60225
7:00 PM +07 on June 13,2017,2017,6,13,19,0,Asia/Bangkok,28,82,24,76,77,9.3,5.8,,,270,West,7,4,1007,29.75,-999,-999,-9999,-9999,,,Mist,hazy,0,0,0,0,0,0,AAXX 13124 48376 01557 72705 10277 20244 39931 40074 54000 60262 71092 84976 333 10333 58018 60057 70264
10:00 PM +07 on June 13,2017,2017,6,13,22,0,Asia/Bangkok,28,82,24,74,72,5.6,3.5,,,260,West,6,4,1009,29.81,-999,-999,-9999,-9999,,,Mist,hazy,0,0,0,0,0,0,AAXX 13154 48376 31556 62603 10277 20235 39948 40092 52017 71022 83536 333 58013
1:00 AM +07 on June 12,2017,2017,6,12,1,0,Asia/Bangkok,26,80,25,77,89,0,0,,,,,4,2,1009,29.8,-999,-999,-9999,-9999,,,Mist,hazy,0,0,0,0,0,0,AAXX 11184 48376 31540 60000 10265 20251 39946 40090 51005 71022 82536 333 58006 70014
4:00 AM +07 on June 12,2017,2017,6,12,4,0,Asia/Bangkok,26,78,24,75,86,0,0,,,,,4,2,1008,29.78,-999,-999,-9999,-9999,,,Mist,hazy,0,0,0,0,0,0,AAXX 11214 48376 31540 60000 10255 20237 39940 40085 56006 71022 82536 333 58011
7:00 AM +07 on June 12,2017,2017,6,12,7,0,Asia/Bangkok,25,77,24,74,90,0,0,,,,,4,2,1008,29.78,-999,-999,-9999,-9999,,,Mist,hazy,0,0,0,0,0,0,AAXX 12004 48376 11540 60000 10248 20236 39937 40082 56003 69964 71022 82336 333 20243 58000 70006
10:00 AM +07 on June 12,2017,2017,6,12,10,0,Asia/Bangkok,30,85,23,74,62,7.4,4.6,,,80,East,8,5,1009,29.79,-999,-999,-9999,-9999,,,Mist,hazy,0,0,0,0,0,0,AAXX 12034 48376 31558 60804 10297 20233 39945 40087 51007 71022 83536 333 59006
1:00 PM +07 on June 12,2017,2017,6,12,13,0,Asia/Bangkok,33,92,24,76,51,5.6,3.5,,,340,NNW,7,4,1008,29.76,-999,-999,-9999,-9999,,,Haze,hazy,0,0,0,0,0,0,AAXX 12064 48376 31557 23403 10333 20243 39935 40076 57010 70520 82205 333 59012
4:00 PM +07 on June 12,2017,2017,6,12,16,0,Asia/Bangkok,33,92,26,79,57,11.1,6.9,,,320,NW,7,4,1005,29.69,-999,-999,-9999,-9999,,,Mist,hazy,0,0,0,0,0,0,AAXX 12094 48376 31557 23206 10332 20259 39912 40052 57023 71000 82205 333 59012
7:00 PM +07 on June 12,2017,2017,6,12,19,0,Asia/Bangkok,31,88,24,75,57,14.8,9.2,,,260,West,6,4,1006,29.7,-999,-999,-9999,-9999,,,Mist,hazy,0,0,0,0,0,0,AAXX 12124 48376 31556 62608 10311 20238 39914 40056 51003 71020 82236 333 10341 59014
10:00 PM +07 on June 12,2017,2017,6,12,22,0,Asia/Bangkok,29,85,24,76,67,5.6,3.5,,,20,NNE,6,4,1008,29.77,-999,-999,-9999,-9999,,,Mist,hazy,0,0,0,0,0,0,AAXX 12154 48376 31556 50203 10292 20242 39936 40079 52022 71022 82536 333 59006
1:00 AM +07 on July 02,2017,2017,7,2,1,0,Asia/Bangkok,26,78,25,77,94,0,0,,,,,6,4,1008,29.76,-999,-999,-9999,-9999,,,Mist,hazy,0,0,0,0,0,0,AAXX 01184 48376 31556 60000 10255 20248 39933 40078 56007 71022 82536 333 58004 70040
4:00 AM +07 on July 02,2017,2017,7,2,4,0,Asia/Bangkok,25,77,24,76,95,0,0,,,,,6,4,1008,29.76,-999,-999,-9999,-9999,,,Mist,hazy,0,0,0,0,0,0,AAXX 01214 48376 31556 60000 10250 20244 39931 40076 56002 71022 82536 333 58005
7:00 AM +07 on July 02,2017,2017,7,2,7,0,Asia/Bangkok,25,77,24,76,95,0,0,,,,,5,3,1009,29.8,-999,-999,-9999,-9999,,,Mist,hazy,0,0,0,0,0,0,AAXX 02004 48376 11550 80000 10250 20243 39945 40090 52013 60044 71022 8452/ 333 20243 58010 70040
10:00 AM +07 on July 02,2017,2017,7,2,10,0,Asia/Bangkok,28,83,25,77,78,3.7,2.3,,,190,South,6,4,1009,29.81,-999,-999,-9999,-9999,,,Mist,hazy,0,0,0,0,0,0,AAXX 02034 48376 31556 61902 10285 20251 39950 40094 51006 71022 82536 333 58008
1:00 PM +07 on July 02,2017,2017,7,2,13,0,Asia/Bangkok,28,82,24,76,77,9.3,5.8,,,290,WNW,4,2,1009,29.8,-999,-999,-9999,-9999,,,Light Rain,rain,0,1,0,0,0,0,AAXX 02064 48376 01540 82905 10276 20244 39946 40090 56004 69921 76022 8552/ 333 58013 69925 70036
4:00 PM +07 on July 02,2017,2017,7,2,16,0,Asia/Bangkok,30,86,24,74,61,7.4,4.6,,,270,West,7,4,1007,29.73,-999,-999,-9999,-9999,,,Mist,hazy,0,0,0,0,0,0,AAXX 02094 48376 21557 62704 10300 20236 39925 40067 57021 71062 82936 333 58014 69907
7:00 PM +07 on July 02,2017,2017,7,2,19,0,Asia/Bangkok,28,83,22,72,63,7.4,4.6,,,270,West,6,4,1007,29.74,-999,-999,-9999,-9999,,,Mist,hazy,0,0,0,0,0,0,AAXX 02124 48376 11556 62704 10285 20225 39927 40070 51003 69922 71062 82536 333 10308 58003 70002
10:00 PM +07 on July 02,2017,2017,7,2,22,0,Asia/Bangkok,27,81,24,74,75,0,0,,,,,5,3,1008,29.78,-999,-999,-9999,-9999,,,Mist,hazy,0,0,0,0,0,0,AAXX 02154 48376 31550 50000 10270 20235 39939 40083 52012 71022 82536 333 59002
1:00 AM +07 on July 01,2017,2017,7,1,1,0,Asia/Bangkok,25,77,24,76,95,5.6,3.5,,,190,South,6,4,1007,29.75,-999,-999,-9999,-9999,,,Mist,hazy,0,0,0,0,0,0,AAXX 30184 48376 01556 81903 10250 20243 39929 40074 56008 60073 71062 8552/ 333 58003 60027 70072
4:00 AM +07 on July 01,2017,2017,7,1,4,0,Asia/Bangkok,26,79,25,76,90,0,0,,,,,6,4,1007,29.75,-999,-999,-9999,-9999,,,Mist,hazy,0,0,0,0,0,0,AAXX 30214 48376 31556 80000 10260 20247 39927 40072 56001 71022 8452/ 333 58005
7:00 AM +07 on July 01,2017,2017,7,1,7,0,Asia/Bangkok,25,77,25,76,97,0,0,,,,,6,4,1008,29.77,-999,-999,-9999,-9999,,,Mist,hazy,0,0,0,0,0,0,AAXX 01004 48376 11556 60000 10250 20246 39935 40080 51007 60074 71022 82536 333 20245 58005 70072
10:00 AM +07 on July 01,2017,2017,7,1,10,0,Asia/Bangkok,29,84,25,76,72,0,0,,,,,7,4,1009,29.79,-999,-999,-9999,-9999,,,Mist,hazy,0,0,0,0,0,0,AAXX 01034 48376 31557 60000 10290 20247 39943 40086 51008 71022 82536 333 58007
1:00 PM +07 on July 01,2017,2017,7,1,13,0,Asia/Bangkok,30,86,24,75,63,5.6,3.5,,,270,West,5,3,1008,29.76,-999,-999,-9999,-9999,,,Mist,hazy,0,0,0,0,0,0,AAXX 01064 48376 01550 82703 10298 20239 39935 40077 56008 69961 71062 83576 333 58016 69966 70078
4:00 PM +07 on July 01,2017,2017,7,1,16,0,Asia/Bangkok,27,81,25,77,85,0,0,,,,,5,3,1005,29.69,-999,-999,-9999,-9999,,,Mist,hazy,0,0,0,0,0,0,AAXX 01094 48376 21550 70000 10272 20252 39909 40053 57025 71062 83976 333 58008 60037
7:00 PM +07 on July 01,2017,2017,7,1,19,0,Asia/Bangkok,27,80,25,77,88,0,0,,,,,6,4,1007,29.73,-999,-999,-9999,-9999,,,Mist,hazy,0,0,0,0,0,0,AAXX 01124 48376 11556 60000 10266 20250 39924 40068 52014 60042 71062 82536 333 10307 58014 70074
10:00 PM +07 on July 01,2017,2017,7,1,22,0,Asia/Bangkok,26,78,25,76,93,0,0,,,,,6,4,1008,29.78,-999,-999,-9999,-9999,,,Mist,hazy,0,0,0,0,0,0,AAXX 01154 48376 31556 60000 10258 20246 39941 40085 52017 71022 82536 333 58004
1:00 AM +07 on July 05,2017,2017,7,5,1,0,Asia/Bangkok,24,76,24,75,94,0,0,,,,,10,6,1009,29.8,-999,-999,-9999,-9999,,,Partly Cloudy,partlycloudy,0,0,0,0,0,0,AAXX 04184 48380 11560 80000 10244 20237 39996 40090 52002 60183 70262 8572/ 333 58008 70184
4:00 AM +07 on July 05,2017,2017,7,5,4,0,Asia/Bangkok,24,76,23,74,91,1.9,1.2,,,70,ENE,10,6,1008,29.77,-999,-999,-9999,-9999,,,Overcast,cloudy,0,0,0,0,0,0,AAXX 04214 48380 32560 80701 10242 20232 39984 40079 57012 8372/ 333 58012
7:00 AM +07 on July 05,2017,2017,7,5,7,0,Asia/Bangkok,24,76,24,75,95,0,0,,,,,10,6,1009,29.8,-999,-999,-9999,-9999,,,Overcast,cloudy,0,0,0,0,0,0,AAXX 05004 48380 12560 80000 10245 20238 39995 40089 52010 60184 8572/ 333 20238 58005 70184
10:00 AM +07 on July 05,2017,2017,7,5,10,0,Asia/Bangkok,28,82,24,75,73,3.7,2.3,,,280,West,10,6,1010,29.82,-999,-999,-9999,-9999,,,Overcast,cloudy,0,0,0,0,0,0,AAXX 05034 48380 32560 82802 10275 20237 30005 40098 50010 85717 333 58011
1:00 PM +07 on July 05,2017,2017,7,5,13,0,Asia/Bangkok,30,86,25,77,67,0,0,,,,,12,7,1008,29.78,-999,-999,-9999,-9999,,,Partly Cloudy,partlycloudy,0,0,0,0,0,0,AAXX 05064 48380 32562 70000 10302 20248 39990 40082 57015 84136 333 58002 70184
4:00 PM +07 on July 05,2017,2017,7,5,16,0,Asia/Bangkok,26,78,24,75,89,3.7,2.3,,,10,North,10,6,1006,29.72,-999,-999,-9999,-9999,,,Light Rain,rain,0,1,0,0,0,0,AAXX 05094 48380 21560 80102 10256 20241 39969 40063 57021 72162 83217 333 58001 60066
7:00 PM +07 on July 05,2017,2017,7,5,19,0,Asia/Bangkok,25,78,24,75,89,1.9,1.2,,,260,West,10,6,1007,29.73,-999,-999,-9999,-9999,,,Partly Cloudy,partlycloudy,0,0,0,0,0,0,AAXX 05124 48380 01560 82601 10254 20241 39972 40066 52003 60062 70262 83737 333 10310 59004 69927 70066
10:00 PM +07 on July 05,2017,2017,7,5,22,0,Asia/Bangkok,25,77,24,76,94,0,0,,,,,10,6,1009,29.79,-999,-999,-9999,-9999,,,Partly Cloudy,partlycloudy,0,0,0,0,0,0,AAXX 05154 48380 21560 70000 10252 20242 39993 40087 52021 70162 83736 333 59001 69907
1:00 AM +07 on July 06,2017,2017,7,6,1,0,Asia/Bangkok,25,78,24,76,92,0,0,,,,,10,6,1009,29.8,-999,-999,-9999,-9999,,,Light Rain,rain,0,1,0,0,0,0,AAXX 05184 48380 01560 80000 10254 20245 39997 40091 52003 60063 72162 8572/ 333 58000 69915 70063
4:00 AM +07 on July 06,2017,2017,7,6,4,0,Asia/Bangkok,25,77,24,76,96,0,0,,,,,10,6,1008,29.76,-999,-999,-9999,-9999,,,Partly Cloudy,partlycloudy,0,0,0,0,0,0,AAXX 05214 48380 21560 80000 10251 20245 39983 40076 57014 70262 83607 333 59002 69917
7:00 AM +07 on July 06,2017,2017,7,6,7,0,Asia/Bangkok,25,78,25,76,94,0,0,,,,,10,6,1008,29.78,-999,-999,-9999,-9999,,,Partly Cloudy,partlycloudy,0,0,0,0,0,0,AAXX 06004 48380 11560 80000 10253 20247 39989 40083 52006 60064 70262 8257/ 333 20250 59006 70064
10:00 AM +07 on July 06,2017,2017,7,6,10,0,Asia/Bangkok,29,84,24,75,68,3.7,2.3,,,160,SSE,12,7,1010,29.81,-999,-999,-9999,-9999,,,Scattered Clouds,partlycloudy,0,0,0,0,0,0,AAXX 06034 48380 32562 61602 10290 20239 30002 40095 52013 82536 333 59003
1:00 PM +07 on July 06,2017,2017,7,6,13,0,Asia/Bangkok,31,88,25,76,61,5.6,3.5,,,290,WNW,12,7,1008,29.78,-999,-999,-9999,-9999,,,Partly Cloudy,partlycloudy,0,0,0,0,0,0,AAXX 06064 48380 31462 72903 10310 20246 39992 40085 57010 71622 84976 333 58002 70064
4:00 PM +07 on July 06,2017,2017,7,6,16,0,Asia/Bangkok,28,82,24,76,76,0,0,,,,,12,7,1006,29.7,-999,-999,-9999,-9999,,,Partly Cloudy,partlycloudy,0,0,0,0,0,0,AAXX 06094 48380 21462 60000 10275 20243 39963 40056 57029 70192 82976 333 59006 69927
7:00 PM +07 on July 06,2017,2017,7,6,19,0,Asia/Bangkok,27,81,24,74,75,0,0,,,,,10,6,1006,29.7,-999,-999,-9999,-9999,,,Light Rain,rain,0,1,0,0,0,0,AAXX 06124 48380 01560 80000 10270 20236 39962 40055 56001 69992 76192 8557/ 333 10318 59010 69976 70011
10:00 PM +07 on July 06,2017,2017,7,6,22,0,Asia/Bangkok,27,80,24,76,82,0,0,,,,,10,6,1008,29.78,-999,-999,-9999,-9999,,,Partly Cloudy,partlycloudy,0,0,0,0,0,0,AAXX 06154 48380 21560 70000 10267 20242 39990 40084 52028 70162 82576 333 59003 69907
1:00 AM +07 on July 07,2017,2017,7,7,1,0,Asia/Bangkok,27,81,21,70,61,7.4,4.6,,,250,WSW,8,5,1008,29.76,-999,-999,-9999,-9999,,,Mist,hazy,0,0,0,0,0,0,AAXX 06184 48376 31558 62504 10270 20210 39933 40077 56003 71021 83536 333 59015
4:00 AM +07 on July 07,2017,2017,7,7,4,0,Asia/Bangkok,27,81,21,69,59,11.1,6.9,,,260,West,8,5,1006,29.73,-999,-999,-9999,-9999,,,Mist,hazy,0,0,0,0,0,0,AAXX 06214 48376 31558 62606 10270 20206 39921 40065 57012 71022 83536 333 59010
7:00 AM +07 on July 07,2017,2017,7,7,7,0,Asia/Bangkok,27,81,21,70,62,9.3,5.8,,,280,West,10,6,1007,29.75,-999,-999,-9999,-9999,,,Partly Cloudy,partlycloudy,0,0,0,0,0,0,AAXX 07004 48376 32560 72805 10272 20212 39930 40074 51009 84576 333 20265 59008
10:00 AM +07 on July 07,2017,2017,7,7,10,0,Asia/Bangkok,29,85,22,72,58,11.1,6.9,,,280,West,12,7,1009,29.79,-999,-999,-9999,-9999,,,Partly Cloudy,partlycloudy,0,0,0,0,0,0,AAXX 07034 48376 32562 62806 10294 20225 39944 40087 52013 83556 333 59007
1:00 PM +07 on July 07,2017,2017,7,7,13,0,Asia/Bangkok,31,88,24,75,58,14.8,9.2,,,290,WNW,10,6,1008,29.77,-999,-999,-9999,-9999,,,Partly Cloudy,partlycloudy,0,0,0,0,0,0,AAXX 07064 48376 32560 72908 10309 20239 39937 40079 56006 84576 333 58002
4:00 PM +07 on July 07,2017,2017,7,7,16,0,Asia/Bangkok,32,89,23,74,53,9.3,5.8,,,210,SSW,10,6,1005,29.68,-999,-999,-9999,-9999,,,Partly Cloudy,partlycloudy,0,0,0,0,0,0,AAXX 07094 48376 32560 62105 10318 20234 39910 40051 57027 83956 333 58004
7:00 PM +07 on July 07,2017,2017,7,7,19,0,Asia/Bangkok,29,85,23,74,62,5.6,3.5,,,260,West,10,6,1006,29.71,-999,-999,-9999,-9999,,,Overcast,cloudy,0,0,0,0,0,0,AAXX 07124 48376 32560 82603 10294 20233 39917 40059 51007 84876 333 10323 58004
10:00 PM +07 on July 07,2017,2017,7,7,22,0,Asia/Bangkok,28,82,23,73,68,5.6,3.5,,,220,SW,10,6,1009,29.8,-999,-999,-9999,-9999,,,Partly Cloudy,partlycloudy,0,0,0,0,0,0,AAXX 07154 48376 32560 62203 10277 20229 39947 40091 52030 83556 333 58011
1:00 AM +07 on July 08,2017,2017,7,8,1,0,Asia/Bangkok,27,80,23,73,74,5.6,3.5,,,210,SSW,8,5,1008,29.78,-999,-999,-9999,-9999,,,Mist,hazy,0,0,0,0,0,0,AAXX 07184 48376 31558 62103 10266 20228 39939 40083 56008 71022 83536 333 58006
4:00 AM +07 on July 08,2017,2017,7,8,4,0,Asia/Bangkok,27,81,23,73,70,9.3,5.8,,,250,WSW,7,4,1007,29.74,-999,-999,-9999,-9999,,,Mist,hazy,0,0,0,0,0,0,AAXX 07214 48376 31557 82505 10270 20226 39928 40071 57011 71022 85576 333 58007
7:00 AM +07 on July 08,2017,2017,7,8,7,0,Asia/Bangkok,27,81,22,72,68,7.4,4.6,,,280,West,9,6,1009,29.79,-999,-999,-9999,-9999,,,Mist,hazy,0,0,0,0,0,0,AAXX 08004 48376 31559 82804 10270 20224 39942 40086 52014 71022 84876 333 20259 58011
10:00 AM +07 on July 08,2017,2017,7,8,10,0,Asia/Bangkok,31,87,22,72,53,11.1,6.9,,,280,West,10,6,1009,29.81,-999,-999,-9999,-9999,,,Scattered Clouds,partlycloudy,0,0,0,0,0,0,AAXX 08034 48376 32560 52806 10306 20224 39951 40094 52010 82256 333 58007
1:00 PM +07 on July 08,2017,2017,7,8,13,0,Asia/Bangkok,33,92,25,77,53,11.1,6.9,,,200,SSW,10,6,1008,29.76,-999,-999,-9999,-9999,,,Partly Cloudy,partlycloudy,0,0,0,0,0,0,AAXX 08064 48376 32560 62006 10331 20249 39937 40078 57014 83256 333 59001
4:00 PM +07 on July 08,2017,2017,7,8,16,0,Asia/Bangkok,33,91,22,72,46,11.1,6.9,,,280,West,10,6,1005,29.69,-999,-999,-9999,-9999,,,Scattered Clouds,partlycloudy,0,0,0,0,0,0,AAXX 08094 48376 32560 52806 10327 20225 39911 40052 57026 82336 333 58001
7:00 PM +07 on July 08,2017,2017,7,8,19,0,Asia/Bangkok,30,85,22,71,55,16.7,10.4,,,260,West,10,6,1007,29.73,-999,-999,-9999,-9999,,,Partly Cloudy,partlycloudy,0,0,0,0,0,0,AAXX 08124 48376 32560 62609 10296 20219 39925 40067 52013 83536 333 10347 58008
10:00 PM +07 on July 08,2017,2017,7,8,22,0,Asia/Bangkok,27,80,24,75,82,5.6,3.5,,,180,South,10,6,1010,29.83,-999,-999,-9999,-9999,,,Partly Cloudy,partlycloudy,0,0,0,0,0,0,AAXX 08154 48376 31560 81803 10266 20241 39956 40100 52031 70392 84976 333 58010
1:00 AM +07 on July 09,2017,2017,7,9,1,0,Asia/Bangkok,26,78,24,75,87,0,0,,,,,8,5,1010,29.83,-999,-999,-9999,-9999,,,Mist,hazy,0,0,0,0,0,0,AAXX 08184 48376 31558 60000 10257 20238 39954 40099 56002 71092 83556 333 58016
4:00 AM +07 on July 09,2017,2017,7,9,4,0,Asia/Bangkok,27,81,22,71,64,9.3,5.8,,,250,WSW,8,5,1008,29.78,-999,-999,-9999,-9999,,,Mist,hazy,0,0,0,0,0,0,AAXX 08214 48376 31558 82505 10270 20216 39941 40085 57013 71022 85576 333 58014
7:00 AM +07 on July 09,2017,2017,7,9,7,0,Asia/Bangkok,25,77,24,75,92,5.6,3.5,,,180,South,10,6,1010,29.83,-999,-999,-9999,-9999,,,Overcast,cloudy,0,0,0,0,0,0,AAXX 09004 48376 32560 81803 10252 20239 39954 40099 52013 85576 333 20246 58013
10:00 AM +07 on July 09,2017,2017,7,9,10,0,Asia/Bangkok,31,88,24,75,58,0,0,,,,,10,6,1010,29.84,-999,-999,-9999,-9999,,,Scattered Clouds,partlycloudy,0,0,0,0,0,0,AAXX 09034 48376 32560 60000 10309 20240 39963 40105 51009 82536 333 58012
1:00 PM +07 on July 09,2017,2017,7,9,13,0,Asia/Bangkok,32,90,23,74,50,14.8,9.2,,,270,West,10,6,1009,29.8,-999,-999,-9999,-9999,,,Partly Cloudy,partlycloudy,0,0,0,0,0,0,AAXX 09064 48376 32560 72708 10324 20231 39949 40091 57014 84536 333 58012
4:00 PM +07 on July 09,2017,2017,7,9,16,0,Asia/Bangkok,32,90,23,73,49,13,8.1,,,270,West,10,6,1007,29.74,-999,-999,-9999,-9999,,,Partly Cloudy,partlycloudy,0,0,0,0,0,0,AAXX 09094 48376 32560 72707 10322 20229 39930 40071 57019 84556 333 58019
7:00 PM +07 on July 09,2017,2017,7,9,19,0,Asia/Bangkok,31,87,23,73,55,9.3,5.8,,,270,West,10,6,1008,29.75,-999,-999,-9999,-9999,,,Overcast,cloudy,0,0,0,0,0,0,AAXX 09124 48376 32560 82705 10308 20228 39932 40075 52002 85576 333 10335 58007
10:00 PM +07 on July 09,2017,2017,7,9,22,0,Asia/Bangkok,29,84,23,74,65,5.6,3.5,,,230,SW,10,6,1010,29.83,-999,-999,-9999,-9999,,,Overcast,cloudy,0,0,0,0,0,0,AAXX 09154 48376 32560 82303 10287 20233 39956 40099 52023 85576 333 59001
1:00 AM +07 on July 10,2017,2017,7,10,1,0,Asia/Bangkok,25,76,24,75,94,3.7,2.3,,,220,SW,6,4,1010,29.84,-999,-999,-9999,-9999,,,Light Rain,rain,0,1,0,0,0,0,AAXX 09184 48380 01556 82202 10246 20237 30011 40105 57005 60493 76199 8552/ 333 58006 60197 70490
4:00 AM +07 on July 10,2017,2017,7,10,4,0,Asia/Bangkok,25,76,24,75,96,0,0,,,,,10,6,1008,29.78,-999,-999,-9999,-9999,,,Partly Cloudy,partlycloudy,0,0,0,0,0,0,AAXX 09214 48380 21560 80000 10246 20239 39989 40083 57022 70262 8357/ 333 59010 60027
7:00 AM +07 on July 10,2017,2017,7,10,7,0,Asia/Bangkok,25,76,24,75,95,0,0,,,,,10,6,1010,29.83,-999,-999,-9999,-9999,,,Partly Cloudy,partlycloudy,0,0,0,0,0,0,AAXX 10004 48380 11560 80000 10247 20238 30006 40101 52018 60514 70262 8572/ 333 20242 58001 70506
10:00 AM +07 on July 10,2017,2017,7,10,10,0,Asia/Bangkok,28,82,25,76,79,0,0,,,,,10,6,1010,29.84,-999,-999,-9999,-9999,,,Overcast,cloudy,0,0,0,0,0,0,AAXX 10034 48380 32560 80000 10280 20247 30011 40105 50005 8572/ 333 59007
1:00 PM +07 on July 10,2017,2017,7,10,13,0,Asia/Bangkok,30,87,25,76,63,1.9,1.2,,,100,East,12,7,1009,29.81,-999,-999,-9999,-9999,,,Light Rain,rain,0,1,0,0,0,0,AAXX 10064 48380 01562 81001 10303 20246 30000 40092 57011 69901 72162 84117 333 58001 69907 70506
4:00 PM +07 on July 10,2017,2017,7,10,16,0,Asia/Bangkok,31,88,24,76,59,0,0,,,,,12,7,1007,29.74,-999,-999,-9999,-9999,,,Overcast,cloudy,0,0,0,0,0,0,AAXX 10094 48380 32562 80000 10309 20242 39978 40070 57022 8312/ 333 58003
7:00 PM +07 on July 10,2017,2017,7,10,19,0,Asia/Bangkok,26,80,24,75,81,5.6,3.5,,,330,NNW,5,3,1007,29.75,-999,-999,-9999,-9999,,,Light Rain,rain,0,1,0,0,0,0,AAXX 10124 48380 01550 83303 10265 20240 39979 40072 54000 60012 76022 8472/ 333 10313 58001 60015 70453
10:00 PM +07 on July 10,2017,2017,7,10,22,0,Asia/Bangkok,25,77,24,75,92,1.9,1.2,,,350,North,5,3,1009,29.81,-999,-999,-9999,-9999,,,Light Rain,rain,0,1,0,0,0,0,AAXX 10154 48380 21550 83501 10250 20240 30000 40094 52021 76166 8472/ 333 59015 60027
1:00 AM +07 on July 11,2017,2017,7,11,1,0,Asia/Bangkok,25,77,24,75,91,0,0,,,,,5,3,1008,29.76,-999,-999,-9999,-9999,,,Mist,hazy,0,0,0,0,0,0,AAXX 10184 48376 01550 80000 10250 20238 39932 40077 57018 60083 71062 8552/ 333 59022 60037 70082
4:00 AM +07 on July 11,2017,2017,7,11,4,0,Asia/Bangkok,25,77,24,75,92,0,0,,,,,4,2,1007,29.73,-999,-999,-9999,-9999,,,Light Rain,rain,0,1,0,0,0,0,AAXX 10214 48376 21540 80000 10248 20239 39922 40066 57011 72122 8552/ 333 59012 69965
7:00 AM +07 on July 11,2017,2017,7,11,7,0,Asia/Bangkok,25,76,24,75,96,0,0,,,,,7,4,1007,29.73,-999,-999,-9999,-9999,,,Light Rain,rain,0,1,0,0,0,0,AAXX 11004 48376 01557 70000 10246 20239 39921 40066 56001 60104 72162 84556 333 20240 59033 60016 70102
10:00 AM +07 on July 11,2017,2017,7,11,10,0,Asia/Bangkok,27,81,25,77,84,5.6,3.5,,,190,South,8,5,1008,29.78,-999,-999,-9999,-9999,,,Mist,hazy,0,0,0,0,0,0,AAXX 11034 48376 31558 81903 10273 20250 39938 40082 52017 71022 84876 333 59008
4:00 PM +07 on July 11,2017,2017,7,11,16,0,Asia/Bangkok,28,83,25,78,79,5.6,3.5,,,150,SSE,7,4,1005,29.67,-999,-999,-9999,-9999,,,Partly Cloudy,partlycloudy,0,0,0,0,0,0,AAXX 11094 48376 31557 71503 10284 20253 39904 40047 57027 71522 84576 333 59006
7:00 PM +07 on July 11,2017,2017,7,11,19,0,Asia/Bangkok,28,82,26,78,85,5.6,3.5,,,190,South,5,3,1006,29.72,-999,-999,-9999,-9999,,,Mist,hazy,0,0,0,0,0,0,AAXX 11124 48376 31550 81903 10277 20257 39919 40063 52015 71022 8652/ 333 10298 59016 70092
10:00 PM +07 on July 11,2017,2017,7,11,22,0,Asia/Bangkok,26,78,24,75,87,5.6,3.5,,,290,WNW,5,3,1008,29.78,-999,-999,-9999,-9999,,,Light Rain,rain,0,1,0,0,0,0,AAXX 11154 48376 21550 82903 10257 20238 39939 40084 52020 72162 8652/ 333 59011 60016
1:00 AM +07 on July 12,2017,2017,7,12,1,0,Asia/Bangkok,26,78,25,76,93,0,0,,,,,6,4,1008,29.76,-999,-999,-9999,-9999,,,Light Rain,rain,0,1,0,0,0,0,AAXX 11184 48380 01556 80000 10258 20246 39984 40078 52001 60033 76166 8572/ 333 59006 69947 70040
4:00 AM +07 on July 12,2017,2017,7,12,4,0,Asia/Bangkok,25,78,24,76,91,0,0,,,,,5,3,1007,29.75,-999,-999,-9999,-9999,,,Light Rain,rain,0,1,0,0,0,0,AAXX 11214 48380 21550 80000 10253 20244 39980 40074 57005 76166 8572/ 333 58004 60037
7:00 AM +07 on July 12,2017,2017,7,12,7,0,Asia/Bangkok,24,76,24,75,95,0,0,,,,,6,4,1008,29.77,-999,-999,-9999,-9999,,,Light Rain,rain,0,1,0,0,0,0,AAXX 12004 48380 01456 80000 10245 20238 39986 40080 52006 60084 76166 8657/ 333 20243 58008 60027 70082
10:00 AM +07 on July 12,2017,2017,7,12,10,0,Asia/Bangkok,26,79,24,76,88,3.7,2.3,,,60,ENE,8,5,1009,29.8,-999,-999,-9999,-9999,,,Light Rain,rain,0,1,0,0,0,0,AAXX 12034 48380 21458 80602 10261 20245 39996 40090 52011 76166 8657/ 333 58008 60027
1:00 PM +07 on July 12,2017,2017,7,12,13,0,Asia/Bangkok,27,80,24,75,82,0,0,,,,,8,5,1008,29.78,-999,-999,-9999,-9999,,,Light Rain,rain,0,1,0,0,0,0,AAXX 12064 48380 01458 80000 10266 20241 39991 40084 57006 60041 76166 8677/ 333 58006 60027 70113
7:00 PM +07 on July 12,2017,2017,7,12,19,0,Asia/Bangkok,29,84,26,79,82,0,0,,,,,10,6,1006,29.73,-999,-999,-9999,-9999,,,Partly Cloudy,partlycloudy,0,0,0,0,0,0,AAXX 12124 48380 11460 70000 10288 20263 39973 40065 52006 60042 70262 82976 333 10295 58009 70103
10:00 PM +07 on July 12,2017,2017,7,12,22,0,Asia/Bangkok,26,78,25,77,95,1.9,1.2,,,70,ENE,8,5,1009,29.79,-999,-999,-9999,-9999,,,Light Rain,rain,0,1,0,0,0,0,AAXX 12154 48380 21558 80701 10258 20249 39994 40088 52021 76022 8557/ 333 58011 60025
1:00 AM +07 on July 13,2017,2017,7,13,1,0,Asia/Bangkok,26,78,24,76,92,0,0,,,,,5,3,1008,29.77,-999,-999,-9999,-9999,,,Mist,hazy,0,0,0,0,0,0,AAXX 12184 48376 11550 70000 10255 20245 39934 40079 56008 69903 71062 83576 333 58004 70064
4:00 AM +07 on July 13,2017,2017,7,13,4,0,Asia/Bangkok,25,77,24,75,93,0,0,,,,,5,3,1008,29.75,-999,-999,-9999,-9999,,,Mist,hazy,0,0,0,0,0,0,AAXX 12214 48376 31550 70000 10250 20241 39930 40075 56005 71022 83576 333 58000
7:00 AM +07 on July 13,2017,2017,7,13,7,0,Asia/Bangkok,25,77,24,76,94,0,0,,,,,6,4,1008,29.76,-999,-999,-9999,-9999,,,Mist,hazy,0,0,0,0,0,0,AAXX 13004 48376 11556 60000 10251 20242 39933 40078 51003 69904 71022 82536 333 20244 59003 79999
10:00 AM +07 on July 13,2017,2017,7,13,10,0,Asia/Bangkok,30,86,25,76,67,3.7,2.3,,,120,ESE,8,5,1008,29.78,-999,-999,-9999,-9999,,,Mist,hazy,0,0,0,0,0,0,AAXX 13034 48376 31558 61202 10300 20247 39942 40085 52010 71022 82236 333 59002
1:00 PM +07 on July 13,2017,2017,7,13,13,0,Asia/Bangkok,31,88,25,76,61,5.6,3.5,,,90,East,7,4,1007,29.74,-999,-999,-9999,-9999,,,Light Rain,rain,0,1,0,0,0,0,AAXX 13064 48376 01557 70903 10311 20247 39927 40069 57016 69921 72122 82976 333 59007 69926 70002
4:00 PM +07 on July 13,2017,2017,7,13,16,0,Asia/Bangkok,31,87,26,78,69,3.7,2.3,,,170,South,7,4,1004,29.66,-999,-999,-9999,-9999,,,Mist,hazy,0,0,0,0,0,0,AAXX 13094 48376 21557 61702 10308 20257 39902 40044 57024 71062 82936 333 59009 69947
7:00 PM +07 on July 13,2017,2017,7,13,19,0,Asia/Bangkok,28,82,24,76,77,5.6,3.5,,,190,South,6,4,1006,29.71,-999,-999,-9999,-9999,,,Mist,hazy,0,0,0,0,0,0,AAXX 13124 48376 11556 61903 10280 20244 39915 40059 52013 69962 71062 82936 333 10316 59002 70006
10:00 PM +07 on July 13,2017,2017,7,13,22,0,Asia/Bangkok,27,81,24,75,77,0,0,,,,,6,4,1008,29.77,-999,-999,-9999,-9999,,,Mist,hazy,0,0,0,0,0,0,AAXX 13154 48376 31556 60000 10271 20238 39936 40080 52021 71022 82536 333 59006
1:00 AM +07 on July 18,2017,2017,7,18,1,0,Asia/Bangkok,25,76,24,75,94,0,0,,,,,4,2,1006,29.71,-999,-999,-9999,-9999,,,Mist,hazy,0,0,0,0,0,0,AAXX 17184 48376 01540 80000 10246 20237 39914 40059 51004 60023 71062 8552/ 333 58017 69937 70023
4:00 AM +07 on July 18,2017,2017,7,18,4,0,Asia/Bangkok,24,76,24,75,96,0,0,,,,,4,2,1005,29.67,-999,-999,-9999,-9999,,,Mist,hazy,0,0,0,0,0,0,AAXX 17214 48376 31540 80000 10245 20239 39902 40047 56012 71022 84576 333 58031
7:00 AM +07 on July 18,2017,2017,7,18,7,0,Asia/Bangkok,25,77,24,76,95,0,0,,,,,2,1,1006,29.73,-999,-999,-9999,-9999,,,Light Rain,rain,0,1,0,0,0,0,AAXX 18004 48376 01520 80000 10248 20244 39920 40065 52018 60044 76162 8652/ 333 20241 58036 60016 70035
10:00 AM +07 on July 18,2017,2017,7,18,10,0,Asia/Bangkok,28,82,26,78,85,5.6,3.5,,,60,ENE,7,4,1008,29.77,-999,-999,-9999,-9999,,,Mist,hazy,0,0,0,0,0,0,AAXX 18034 48376 31557 80603 10275 20257 39938 40081 52017 71022 84876 333 58045
1:00 PM +07 on July 18,2017,2017,7,18,13,0,Asia/Bangkok,30,86,23,74,60,5.6,3.5,,,270,West,7,4,1008,29.75,-999,-999,-9999,-9999,,,Mist,hazy,0,0,0,0,0,0,AAXX 18064 48376 31557 62703 10300 20233 39933 40075 56005 71022 82536 333 58049 70035
4:00 PM +07 on July 18,2017,2017,7,18,16,0,Asia/Bangkok,31,87,24,74,59,9.3,5.8,,,280,West,6,4,1006,29.71,-999,-999,-9999,-9999,,,Mist,hazy,0,0,0,0,0,0,AAXX 18094 48376 31556 62805 10308 20236 39918 40060 57015 71022 83536 333 58046
7:00 PM +07 on July 18,2017,2017,7,18,19,0,Asia/Bangkok,30,85,23,74,62,0,0,,,,,7,4,1007,29.73,-999,-999,-9999,-9999,,,Mist,hazy,0,0,0,0,0,0,AAXX 18124 48376 31557 80000 10295 20232 39925 40067 51007 71022 8652/ 333 10316 58037 70033
10:00 PM +07 on July 18,2017,2017,7,18,22,0,Asia/Bangkok,26,80,25,77,88,0,0,,,,,5,3,1011,29.85,-999,-999,-9999,-9999,,,Light Rain,rain,0,1,0,0,0,0,AAXX 18154 48376 21550 80000 10264 20250 39961 40106 52036 76062 8652/ 333 58050 69967
1:00 AM +07 on July 19,2017,2017,7,19,1,0,Asia/Bangkok,26,79,25,76,89,0,0,,,,,4,2,1010,29.83,-999,-999,-9999,-9999,,,Light Rain,rain,0,1,0,0,0,0,AAXX 18184 48376 01540 80000 10260 20246 39954 40099 56007 60013 76062 8652/ 333 58039 69965 70024
4:00 AM +07 on July 19,2017,2017,7,19,4,0,Asia/Bangkok,25,77,24,76,95,0,0,,,,,4,2,1008,29.78,-999,-999,-9999,-9999,,,Light Rain,rain,0,1,0,0,0,0,AAXX 18214 48376 21540 80000 10252 20243 39940 40085 57014 76162 8652/ 333 58038 69946
7:00 AM +07 on July 19,2017,2017,7,19,7,0,Asia/Bangkok,25,77,25,76,98,0,0,,,,,3.5,2,1010,29.82,-999,-999,-9999,-9999,,,Light Rain,rain,0,1,0,0,0,0,AAXX 19004 48376 01535 80000 10251 20247 39953 40098 52012 60034 76062 8652/ 333 20244 58033 60025 70034
10:00 AM +07 on July 19,2017,2017,7,19,10,0,Asia/Bangkok,28,83,24,74,69,9.3,5.8,,,260,West,8,5,1010,29.83,-999,-999,-9999,-9999,,,Mist,hazy,0,0,0,0,0,0,AAXX 19034 48376 21558 82605 10285 20236 39955 40099 51003 71062 84876 333 58018 60037
1:00 PM +07 on July 19,2017,2017,7,19,13,0,Asia/Bangkok,30,86,23,74,59,14.8,9.2,,,280,West,10,6,1008,29.78,-999,-999,-9999,-9999,,,Partly Cloudy,partlycloudy,0,0,0,0,0,0,AAXX 19064 48376 11560 82808 10301 20231 39940 40082 57016 60031 70262 84876 333 58007 70068
4:00 PM +07 on July 19,2017,2017,7,19,16,0,Asia/Bangkok,31,87,24,74,58,13,8.1,,,280,West,10,6,1005,29.68,-999,-999,-9999,-9999,,,Partly Cloudy,partlycloudy,0,0,0,0,0,0,AAXX 19094 48376 32560 62807 10306 20235 39907 40049 57032 83556 333 59011
7:00 PM +07 on July 19,2017,2017,7,19,19,0,Asia/Bangkok,29,84,23,74,64,14.8,9.2,,,270,West,8,5,1006,29.7,-999,-999,-9999,-9999,,,Mist,hazy,0,0,0,0,0,0,AAXX 19124 48376 31558 62708 10290 20232 39915 40057 51007 71022 83536 333 10316 59010 70068
10:00 PM +07 on July 19,2017,2017,7,19,22,0,Asia/Bangkok,27,81,23,73,72,0,0,,,,,8,5,1008,29.77,-999,-999,-9999,-9999,,,Mist,hazy,0,0,0,0,0,0,AAXX 19154 48376 31558 60000 10273 20230 39936 40079 52021 71022 83536 333 59026
1:00 AM +07 on July 21,2017,2017,7,21,1,0,Asia/Bangkok,26,79,22,72,74,7.4,4.6,,,280,West,4,2,1007,29.74,-999,-999,-9999,-9999,,,Mist,hazy,0,0,0,0,0,0,AAXX 20184 48376 31540 82804 10262 20223 39927 40071 56004 71022 8552/ 333 59001 70002
4:00 AM +07 on July 21,2017,2017,7,21,4,0,Asia/Bangkok,26,79,22,72,74,7.4,4.6,,,250,WSW,4,2,1006,29.7,-999,-999,-9999,-9999,,,Mist,hazy,0,0,0,0,0,0,AAXX 20214 48376 31540 82504 10260 20223 39913 40058 57013 71022 8652/ 333 59002
7:00 AM +07 on July 21,2017,2017,7,21,7,0,Asia/Bangkok,27,80,22,72,70,3.7,2.3,,,240,WSW,4,2,1006,29.73,-999,-999,-9999,-9999,,,Mist,hazy,0,0,0,0,0,0,AAXX 21004 48376 31540 82402 10266 20221 39921 40065 51008 71022 8652/ 333 20255 59004
10:00 AM +07 on July 21,2017,2017,7,21,10,0,Asia/Bangkok,28,82,23,74,70,7.4,4.6,,,270,West,5,3,1009,29.79,-999,-999,-9999,-9999,,,Mist,hazy,0,0,0,0,0,0,AAXX 21034 48376 31550 82704 10280 20233 39944 40088 52023 71022 8652/ 333 58009
1:00 PM +07 on July 21,2017,2017,7,21,13,0,Asia/Bangkok,30,87,23,74,58,13,8.1,,,260,West,8,5,1007,29.73,-999,-999,-9999,-9999,,,Mist,hazy,0,0,0,0,0,0,AAXX 21064 48376 31558 82607 10305 20234 39926 40068 57018 71022 83876 333 58003
4:00 PM +07 on July 21,2017,2017,7,21,16,0,Asia/Bangkok,30,87,23,73,55,11.1,6.9,,,260,West,8,5,1005,29.68,-999,-999,-9999,-9999,,,Haze,hazy,0,0,0,0,0,0,AAXX 21094 48376 31558 72606 10305 20228 39907 40049 57019 70522 82876 333 58007
7:00 PM +07 on July 21,2017,2017,7,21,19,0,Asia/Bangkok,28,83,23,73,64,11.1,6.9,,,270,West,5,3,1006,29.7,-999,-999,-9999,-9999,,,Mist,hazy,0,0,0,0,0,0,AAXX 21124 48376 31550 72706 10285 20226 39912 40055 51005 71022 83536 333 10315 58004
10:00 PM +07 on July 21,2017,2017,7,21,22,0,Asia/Bangkok,28,82,23,73,68,5.6,3.5,,,240,WSW,5,3,1008,29.78,-999,-999,-9999,-9999,,,Mist,hazy,0,0,0,0,0,0,AAXX 21154 48376 31550 62403 10275 20228 39940 40084 52028 71022 82536 333 58010
1:00 AM +07 on July 23,2017,2017,7,23,1,0,Asia/Bangkok,26,79,25,77,91,0,0,,,,,7,4,1009,29.8,-999,-999,-9999,-9999,,,Mist,hazy,0,0,0,0,0,0,AAXX 22184 48376 31557 60000 10263 20249 39947 40091 57011 71022 83556 333 58012
4:00 AM +07 on July 23,2017,2017,7,23,4,0,Asia/Bangkok,26,79,22,72,72,7.4,4.6,,,250,WSW,7,4,1008,29.78,-999,-999,-9999,-9999,,,Mist,hazy,0,0,0,0,0,0,AAXX 22214 48376 31557 62504 10262 20220 39937 40082 56009 71022 82536 333 58012
7:00 AM +07 on July 23,2017,2017,7,23,7,0,Asia/Bangkok,26,78,22,72,76,0,0,,,,,8,5,1009,29.79,-999,-999,-9999,-9999,,,Mist,hazy,0,0,0,0,0,0,AAXX 23004 48376 31558 60000 10257 20221 39941 40086 51004 71022 82536 333 20253 58001
10:00 AM +07 on July 23,2017,2017,7,23,10,0,Asia/Bangkok,30,86,23,73,57,11.1,6.9,,,310,NW,10,6,1009,29.81,-999,-999,-9999,-9999,,,Partly Cloudy,partlycloudy,0,0,0,0,0,0,AAXX 23034 48376 32560 63106 10300 20227 39950 40093 51009 83556 333 59001
1:00 PM +07 on July 23,2017,2017,7,23,13,0,Asia/Bangkok,30,86,23,73,57,11.1,6.9,,,270,West,10,6,1008,29.78,-999,-999,-9999,-9999,,,Partly Cloudy,partlycloudy,0,0,0,0,0,0,AAXX 23064 48376 32560 62706 10300 20227 39941 40083 56009 83536 333 58010
4:00 PM +07 on July 23,2017,2017,7,23,16,0,Asia/Bangkok,29,85,23,73,61,9.3,5.8,,,270,West,10,6,1006,29.72,-999,-999,-9999,-9999,,,Overcast,cloudy,0,0,0,0,0,0,AAXX 23094 48376 32560 82705 10293 20230 39919 40062 57022 84876 333 58008
10:00 PM +07 on July 23,2017,2017,7,23,22,0,Asia/Bangkok,27,81,23,74,72,5.6,3.5,,,280,West,8,5,1009,29.79,-999,-999,-9999,-9999,,,Mist,hazy,0,0,0,0,0,0,AAXX 23154 48376 21558 62803 10271 20231 39943 40087 52021 71062 82536 333 59014 69907
1:00 AM +07 on July 24,2017,2017,7,24,1,0,Asia/Bangkok,27,80,26,78,93,0,0,,,,,12,7,1008,29.78,-999,-999,-9999,-9999,,,Partly Cloudy,partlycloudy,0,0,0,0,0,0,AAXX 23184 48380 11662 80000 10269 20258 39988 40082 57005 69903 70262 83707 333 59011 79999
4:00 AM +07 on July 24,2017,2017,7,24,4,0,Asia/Bangkok,26,79,25,77,92,0,0,,,,,12,7,1007,29.73,-999,-999,-9999,-9999,,,Overcast,cloudy,0,0,0,0,0,0,AAXX 23214 48380 32562 80000 10260 20250 39974 40068 57014 84707 333 59016
7:00 AM +07 on July 24,2017,2017,7,24,7,0,Asia/Bangkok,26,79,25,77,91,0,0,,,,,12,7,1008,29.76,-999,-999,-9999,-9999,,,Scattered Clouds,partlycloudy,0,0,0,0,0,0,AAXX 24004 48380 12562 70000 10262 20249 39984 40077 52009 69904 81576 333 20257 59013 79999
10:00 AM +07 on July 24,2017,2017,7,24,10,0,Asia/Bangkok,31,88,24,76,59,5.6,3.5,,,180,South,14,9,1008,29.76,-999,-999,-9999,-9999,,,Scattered Clouds,partlycloudy,0,0,0,0,0,0,AAXX 24034 48380 32564 61803 10311 20242 39984 40076 52001 81236 333 59021
1:00 PM +07 on July 24,2017,2017,7,24,13,0,Asia/Bangkok,33,91,23,74,49,11.1,6.9,,,300,WNW,14,9,1006,29.72,-999,-999,-9999,-9999,,,Scattered Clouds,partlycloudy,0,0,0,0,0,0,AAXX 24064 48380 32564 73006 10328 20234 39971 40062 57013 82276 333 59016 79999
4:00 PM +07 on July 24,2017,2017,7,24,16,0,Asia/Bangkok,34,92,23,74,47,7.4,4.6,,,350,North,16,10,1003,29.63,-999,-999,-9999,-9999,,,Scattered Clouds,partlycloudy,0,0,0,0,0,0,AAXX 24094 48380 32466 53504 10335 20233 39942 40033 57029 82936 333 59029
7:00 PM +07 on July 24,2017,2017,7,24,19,0,Asia/Bangkok,30,87,25,76,64,9.3,5.8,,,330,NNW,14,9,1004,29.65,-999,-999,-9999,-9999,,,Overcast,cloudy,0,0,0,0,0,0,AAXX 24124 48380 32564 83305 10304 20247 39947 40039 52005 8357/ 333 10346 59024 79999
10:00 PM +07 on July 24,2017,2017,7,24,22,0,Asia/Bangkok,28,82,24,76,78,0,0,,,,,10,6,1007,29.75,-999,-999,-9999,-9999,,,Light Rain,rain,0,1,0,0,0,0,AAXX 24154 48380 21560 80000 10277 20245 39979 40072 52033 76022 8657/ 333 59015 69935
1:00 AM +07 on July 25,2017,2017,7,25,1,0,Asia/Bangkok,26,80,25,77,86,0,0,,,,,9,6,1006,29.72,-999,-999,-9999,-9999,,,Light Rain,rain,0,1,0,0,0,0,AAXX 24184 48380 01559 80000 10265 20248 39969 40062 57011 69983 76166 8657/ 333 59020 69957 70008
4:00 AM +07 on July 25,2017,2017,7,25,4,0,Asia/Bangkok,26,78,24,76,91,1.9,1.2,,,80,East,10,6,1004,29.65,-999,-999,-9999,-9999,,,Partly Cloudy,partlycloudy,0,0,0,0,0,0,AAXX 24214 48380 21560 80801 10256 20244 39947 40040 57022 70262 8457/ 333 59027 69917
7:00 AM +07 on July 25,2017,2017,7,25,7,0,Asia/Bangkok,26,79,25,77,90,0,0,,,,,12,7,1005,29.68,-999,-999,-9999,-9999,,,Partly Cloudy,partlycloudy,0,0,0,0,0,0,AAXX 25004 48380 11562 80000 10260 20248 39955 40048 52008 69994 70262 82577 333 20256 59029 70009
10:00 AM +07 on July 25,2017,2017,7,25,10,0,Asia/Bangkok,27,81,26,78,88,1.9,1.2,,,320,NW,10,6,1006,29.72,-999,-999,-9999,-9999,,,Light Rain,rain,0,1,0,0,0,0,AAXX 25034 48380 21560 83201 10272 20255 39969 40062 52014 76162 8657/ 333 59014 69967
1:00 PM +07 on July 25,2017,2017,7,25,13,0,Asia/Bangkok,28,83,26,78,82,3.7,2.3,,,220,SW,10,6,1005,29.68,-999,-999,-9999,-9999,,,Light Rain,rain,0,1,0,0,0,0,AAXX 25064 48380 01560 82202 10284 20257 39956 40049 57013 60011 76166 8657/ 333 59013 69947 70019
4:00 PM +07 on July 25,2017,2017,7,25,16,0,Asia/Bangkok,31,88,27,80,71,3.7,2.3,,,140,SE,12,7,1002,29.59,-999,-999,-9999,-9999,,,Partly Cloudy,partlycloudy,0,0,0,0,0,0,AAXX 25094 48380 21562 61402 10312 20266 39928 40019 57028 70162 82576 333 59014 69907
7:00 PM +07 on July 25,2017,2017,7,25,19,0,Asia/Bangkok,30,85,26,79,79,1.9,1.2,,,230,SW,12,7,1002,29.61,-999,-999,-9999,-9999,,,Mostly Cloudy,mostlycloudy,0,0,0,0,0,0,AAXX 25124 48380 11462 72301 10295 20263 39933 40025 53005 60012 71662 85976 333 10317 59014 70019
10:00 PM +07 on July 25,2017,2017,7,25,22,0,Asia/Bangkok,28,83,26,80,87,0,0,,,,,10,6,1004,29.66,-999,-999,-9999,-9999,,,Partly Cloudy,partlycloudy,0,0,0,0,0,0,AAXX 25154 48380 21560 80000 10283 20265 39952 40044 52019 70362 8657/ 333 59028 69907
1:00 AM +07 on July 26,2017,2017,7,26,1,0,Asia/Bangkok,28,82,23,73,68,11.1,6.9,,,270,West,4,2,1003,29.63,-999,-999,-9999,-9999,,,Mist,hazy,0,0,0,0,0,0,AAXX 25184 48376 31540 62706 10280 20229 39891 40033 57011 71022 82536 333 59026
4:00 AM +07 on July 26,2017,2017,7,26,4,0,Asia/Bangkok,26,79,25,76,90,0,0,,,,,2,1,1004,29.64,-999,-999,-9999,-9999,,,Light Rain,rain,0,1,0,0,0,0,AAXX 25214 48376 21520 80000 10260 20247 39891 40035 54000 76022 8652/ 333 59006 60035
7:00 AM +07 on July 26,2017,2017,7,26,7,0,Asia/Bangkok,25,78,24,75,89,0,0,,,,,4,2,1004,29.64,-999,-999,-9999,-9999,,,Mist,hazy,0,0,0,0,0,0,AAXX 26004 48376 01540 80000 10254 20241 39891 40035 54000 60044 71062 8552/ 333 20246 59012 60017 70043
10:00 AM +07 on July 26,2017,2017,7,26,10,0,Asia/Bangkok,29,84,24,75,69,0,0,,,,,7,4,1004,29.66,-999,-999,-9999,-9999,,,Mist,hazy,0,0,0,0,0,0,AAXX 26034 48376 31557 80000 10290 20241 39900 40043 52010 71022 8552/ 333 59015
1:00 PM +07 on July 26,2017,2017,7,26,13,0,Asia/Bangkok,34,92,25,77,54,11.1,6.9,,,250,WSW,10,6,1003,29.61,-999,-999,-9999,-9999,,,Partly Cloudy,partlycloudy,0,0,0,0,0,0,AAXX 26064 48376 32560 62506 10336 20252 39886 40026 57014 83556 333 59017 70043
4:00 PM +07 on July 26,2017,2017,7,26,16,0,Asia/Bangkok,31,89,24,76,57,18.5,11.5,,,270,West,7,4,1000,29.55,-999,-999,-9999,-9999,,,Light Rain,rain,0,1,0,0,0,0,AAXX 26094 48376 21557 62710 10314 20243 39864 40005 57022 72122 82936 333 59009 69925
7:00 PM +07 on July 26,2017,2017,7,26,19,0,Asia/Bangkok,28,83,24,76,73,3.7,2.3,,,330,NNW,2,1,1003,29.61,-999,-999,-9999,-9999,,,Thunderstorms and Rain,tstorms,0,1,0,0,1,0,AAXX 26124 48376 01420 83302 10285 20242 39884 40026 52019 69972 79592 84976 333 10340 58002 69955 70050
10:00 PM +07 on July 26,2017,2017,7,26,22,0,Asia/Bangkok,26,78,25,77,96,0,0,,,,,3,2,1005,29.68,-999,-999,-9999,-9999,,,Light Rain,rain,0,1,0,0,0,0,AAXX 26154 48376 21430 80000 10258 20251 39906 40050 52022 76196 85976 333 58006 60146
1:00 AM +07 on July 27,2017,2017,7,27,1,0,Asia/Bangkok,27,80,24,75,82,0,0,,,,,7,4,1004,29.65,-999,-999,-9999,-9999,,,Mist,hazy,0,0,0,0,0,0,AAXX 26184 48376 01557 80000 10267 20241 39896 40039 57010 60173 71096 85576 333 58006 60037 70216
4:00 AM +07 on July 27,2017,2017,7,27,4,0,Asia/Bangkok,27,80,23,73,75,0,0,,,,,7,4,1003,29.63,-999,-999,-9999,-9999,,,Mist,hazy,0,0,0,0,0,0,AAXX 26214 48376 31557 60000 10267 20230 39891 40034 56005 71022 83556 333 58000
10:00 AM +07 on July 27,2017,2017,7,27,10,0,Asia/Bangkok,30,87,24,75,60,16.7,10.4,,,250,WSW,10,6,1005,29.67,-999,-999,-9999,-9999,,,Scattered Clouds,partlycloudy,0,0,0,0,0,0,AAXX 27034 48376 32560 52509 10303 20238 39905 40047 51008 82236 333 58005
1:00 PM +07 on July 27,2017,2017,7,27,13,0,Asia/Bangkok,33,91,23,74,49,18.5,11.5,,,270,West,10,6,1003,29.63,-999,-999,-9999,-9999,,,Scattered Clouds,partlycloudy,0,0,0,0,0,0,AAXX 27064 48376 32560 22710 10330 20233 39892 40032 57014 82205 333 58006 70173
4:00 PM +07 on July 27,2017,2017,7,27,16,0,Asia/Bangkok,30,86,27,80,79,5.6,3.5,,,20,NNE,4,2,1002,29.58,-999,-999,-9999,-9999,,,Thunderstorms and Rain,tstorms,0,1,0,0,1,0,AAXX 27094 48376 21440 80203 10298 20269 39874 40015 57018 79592 85976 333 58010 69965
7:00 PM +07 on July 27,2017,2017,7,27,19,0,Asia/Bangkok,30,87,24,75,61,7.4,4.6,,,250,WSW,10,6,1003,29.61,-999,-999,-9999,-9999,,,Partly Cloudy,partlycloudy,0,0,0,0,0,0,AAXX 27124 48376 11560 62504 10304 20241 39884 40026 52010 69962 70192 84236 333 10345 59001 70172
10:00 PM +07 on July 27,2017,2017,7,27,22,0,Asia/Bangkok,28,83,22,72,61,13,8.1,,,250,WSW,10,6,1005,29.68,-999,-999,-9999,-9999,,,Partly Cloudy,partlycloudy,0,0,0,0,0,0,AAXX 27154 48376 32560 62507 10282 20221 39907 40050 52023 83536 333 58000
1:00 AM +07 on July 28,2017,2017,7,28,1,0,Asia/Bangkok,28,82,22,72,64,14.8,9.2,,,250,WSW,8,5,1005,29.68,-999,-999,-9999,-9999,,,Mist,hazy,0,0,0,0,0,0,AAXX 27184 48376 31558 82508 10279 20221 39906 40049 56001 71022 85576 333 58010 70006
4:00 AM +07 on July 28,2017,2017,7,28,4,0,Asia/Bangkok,28,82,22,72,66,11.1,6.9,,,260,West,8,5,1004,29.65,-999,-999,-9999,-9999,,,Mist,hazy,0,0,0,0,0,0,AAXX 27214 48376 31558 82606 10278 20225 39897 40040 56009 71022 85576 333 58006
7:00 AM +07 on July 28,2017,2017,7,28,7,0,Asia/Bangkok,28,82,23,74,70,7.4,4.6,,,260,West,8,5,1006,29.7,-999,-999,-9999,-9999,,,Mist,hazy,0,0,0,0,0,0,AAXX 28004 48376 11558 72604 10277 20232 39913 40056 52016 69964 71022 85576 333 20267 58015 70006
10:00 AM +07 on July 28,2017,2017,7,28,10,0,Asia/Bangkok,30,86,23,73,58,5.6,3.5,,,280,West,10,6,1007,29.73,-999,-999,-9999,-9999,,,Scattered Clouds,partlycloudy,0,0,0,0,0,0,AAXX 28034 48376 32560 62803 10301 20230 39924 40067 52011 82536 333 58019
1:00 PM +07 on July 28,2017,2017,7,28,13,0,Asia/Bangkok,34,93,25,77,52,11.1,6.9,,,310,NW,10,6,1005,29.67,-999,-999,-9999,-9999,,,Scattered Clouds,partlycloudy,0,0,0,0,0,0,AAXX 28064 48376 32560 63106 10340 20251 39907 40047 57018 82336 333 58014 70006
4:00 PM +07 on July 28,2017,2017,7,28,16,0,Asia/Bangkok,30,86,26,78,72,11.1,6.9,,,210,SSW,10,6,1004,29.64,-999,-999,-9999,-9999,,,Scattered Clouds,partlycloudy,0,0,0,0,0,0,AAXX 28094 48376 32560 62106 10302 20257 39894 40036 57013 82956 333 58020
7:00 PM +07 on July 28,2017,2017,7,28,19,0,Asia/Bangkok,30,86,24,75,63,11.1,6.9,,,250,WSW,10,6,1005,29.67,-999,-999,-9999,-9999,,,Scattered Clouds,partlycloudy,0,0,0,0,0,0,AAXX 28124 48376 32560 62506 10298 20240 39904 40046 52010 82536 333 10342 58020
10:00 PM +07 on July 28,2017,2017,7,28,22,0,Asia/Bangkok,28,83,23,74,68,11.1,6.9,,,270,West,7,4,1007,29.73,-999,-999,-9999,-9999,,,Mist,hazy,0,0,0,0,0,0,AAXX 28154 48376 31557 62706 10285 20234 39924 40067 52020 71022 83536 333 58018
1:00 AM +07 on July 29,2017,2017,7,29,1,0,Asia/Bangkok,28,83,22,72,61,18.5,11.5,,,270,West,6,4,1006,29.72,-999,-999,-9999,-9999,,,Mist,hazy,0,0,0,0,0,0,AAXX 28184 48376 31556 62710 10282 20220 39919 40062 56005 71022 82536 333 58013
4:00 AM +07 on July 29,2017,2017,7,29,4,0,Asia/Bangkok,28,82,22,72,65,9.3,5.8,,,270,West,6,4,1006,29.7,-999,-999,-9999,-9999,,,Mist,hazy,0,0,0,0,0,0,AAXX 28214 48376 31556 62705 10275 20223 39913 40057 56006 71022 83536 333 58017
7:00 AM +07 on July 29,2017,2017,7,29,7,0,Asia/Bangkok,27,81,22,72,68,7.4,4.6,,,260,West,8,5,1006,29.71,-999,-999,-9999,-9999,,,Mist,hazy,0,0,0,0,0,0,AAXX 29004 48376 31558 62604 10274 20224 39917 40061 51004 71022 82556 333 20267 58004
10:00 AM +07 on July 29,2017,2017,7,29,10,0,Asia/Bangkok,30,86,23,74,60,11.1,6.9,,,260,West,10,6,1007,29.74,-999,-999,-9999,-9999,,,Scattered Clouds,partlycloudy,0,0,0,0,0,0,AAXX 29034 48376 32560 62606 10298 20233 39928 40070 52010 82536 333 58004
1:00 PM +07 on July 29,2017,2017,7,29,13,0,Asia/Bangkok,34,93,24,75,47,11.1,6.9,,,270,West,12,7,1005,29.68,-999,-999,-9999,-9999,,,Scattered Clouds,partlycloudy,0,0,0,0,0,0,AAXX 29064 48376 32562 62706 10340 20240 39910 40050 57018 82936 333 58003
4:00 PM +07 on July 29,2017,2017,7,29,16,0,Asia/Bangkok,33,91,24,76,53,11.1,6.9,,,210,SSW,10,6,1003,29.62,-999,-999,-9999,-9999,,,Scattered Clouds,partlycloudy,0,0,0,0,0,0,AAXX 29094 48376 32560 62106 10330 20245 39888 40029 57022 82956 333 59007
7:00 PM +07 on July 29,2017,2017,7,29,19,0,Asia/Bangkok,30,86,24,75,63,11.1,6.9,,,260,West,10,6,1004,29.64,-999,-999,-9999,-9999,,,Scattered Clouds,partlycloudy,0,0,0,0,0,0,AAXX 29124 48376 32560 62606 10301 20239 39894 40036 51006 82536 333 10356 59010
10:00 PM +07 on July 29,2017,2017,7,29,22,0,Asia/Bangkok,28,83,24,75,70,7.4,4.6,,,230,SW,8,5,1006,29.71,-999,-999,-9999,-9999,,,Mist,hazy,0,0,0,0,0,0,AAXX 29154 48376 31558 62304 10285 20237 39917 40059 52023 71022 82536 333 59008
1:00 AM +07 on July 30,2017,2017,7,30,1,0,Asia/Bangkok,27,80,26,78,93,0,0,,,,,10,6,1005,29.69,-999,-999,-9999,-9999,,,Clear,clear,0,0,0,0,0,0,AAXX 29184 48380 32960 20000 10268 20258 39960 40053 57006 80001 333 59015 70252
4:00 AM +07 on July 30,2017,2017,7,30,4,0,Asia/Bangkok,26,79,25,77,90,0,0,,,,,10,6,1004,29.65,-999,-999,-9999,-9999,,,Overcast,cloudy,0,0,0,0,0,0,AAXX 29214 48380 32960 80000 10260 20248 39946 40040 57013 80007 333 59019
7:00 AM +07 on July 30,2017,2017,7,30,7,0,Asia/Bangkok,26,79,25,77,92,3.7,2.3,,,240,WSW,12,7,1005,29.68,-999,-999,-9999,-9999,,,Overcast,cloudy,0,0,0,0,0,0,AAXX 30004 48380 12562 82402 10260 20250 39958 40051 52011 60254 8357/ 333 20254 59012 70250
10:00 AM +07 on July 30,2017,2017,7,30,10,0,Asia/Bangkok,30,85,25,77,71,5.6,3.5,,,310,NW,14,9,1006,29.72,-999,-999,-9999,-9999,,,Overcast,cloudy,0,0,0,0,0,0,AAXX 30034 48380 32564 83103 10297 20249 39970 40063 52013 8257/ 333 59010
1:00 PM +07 on July 30,2017,2017,7,30,13,0,Asia/Bangkok,33,91,25,77,55,0,0,,,,,14,9,1004,29.67,-999,-999,-9999,-9999,,,Partly Cloudy,partlycloudy,0,0,0,0,0,0,AAXX 30064 48380 32564 60000 10327 20249 39954 40045 57017 84536 333 59013 70250
4:00 PM +07 on July 30,2017,2017,7,30,16,0,Asia/Bangkok,33,91,24,76,52,11.1,6.9,,,120,ESE,14,9,1002,29.6,-999,-999,-9999,-9999,,,Scattered Clouds,partlycloudy,0,0,0,0,0,0,AAXX 30094 48380 31464 61206 10326 20242 39931 40023 57022 71622 82976 333 59019
7:00 PM +07 on July 30,2017,2017,7,30,19,0,Asia/Bangkok,26,78,24,75,89,1.9,1.2,,,230,SW,10,6,1004,29.65,-999,-999,-9999,-9999,,,Light Rain,rain,0,1,0,0,0,0,AAXX 30124 48380 01560 82301 10257 20241 39947 40040 52015 60022 72196 8657/ 333 10335 59001 60026 70022
10:00 PM +07 on July 30,2017,2017,7,30,22,0,Asia/Bangkok,26,78,24,76,91,0,0,,,,,10,6,1006,29.7,-999,-999,-9999,-9999,,,Rain,rain,0,1,0,0,0,0,AAXX 30154 48380 21560 80000 10255 20243 39962 40056 52015 76262 8557/ 333 59003 60057
1:00 AM +07 on July 31,2017,2017,7,31,1,0,Asia/Bangkok,28,82,23,73,69,16.7,10.4,,,270,West,7,4,1005,29.68,-999,-999,-9999,-9999,,,Mist,hazy,0,0,0,0,0,0,AAXX 30184 48376 31557 32709 10280 20230 39905 40048 57007 71010 82535 333 59002
4:00 AM +07 on July 31,2017,2017,7,31,4,0,Asia/Bangkok,28,82,22,72,66,9.3,5.8,,,270,West,7,4,1004,29.65,-999,-999,-9999,-9999,,,Mist,hazy,0,0,0,0,0,0,AAXX 30214 48376 31557 52705 10280 20224 39896 40039 56009 71011 82535 333 59001
7:00 AM +07 on July 31,2017,2017,7,31,7,0,Asia/Bangkok,28,83,24,74,69,11.1,6.9,,,270,West,8,5,1006,29.7,-999,-999,-9999,-9999,,,Mist,hazy,0,0,0,0,0,0,AAXX 31004 48376 31558 62706 10283 20235 39912 40055 52016 71021 84536 333 20272 58006
10:00 AM +07 on July 31,2017,2017,7,31,10,0,Asia/Bangkok,32,89,24,75,56,16.7,10.4,,,260,West,8,5,1007,29.74,-999,-999,-9999,-9999,,,Mist,hazy,0,0,0,0,0,0,AAXX 31034 48376 31558 72609 10315 20240 39929 40071 52018 71022 84836 333 58009
1:00 PM +07 on July 31,2017,2017,7,31,13,0,Asia/Bangkok,31,87,25,77,65,14.8,9.2,,,280,West,8,5,1006,29.71,-999,-999,-9999,-9999,,,Mist,hazy,0,0,0,0,0,0,AAXX 31064 48376 01558 62808 10307 20249 39918 40060 57012 60021 71062 84536 333 58014 60026 70020
4:00 PM +07 on July 31,2017,2017,7,31,16,0,Asia/Bangkok,32,90,24,75,52,14.8,9.2,,,280,West,7,4,1004,29.65,-999,-999,-9999,-9999,,,Haze,hazy,0,0,0,0,0,0,AAXX 31094 48376 31557 32808 10322 20237 39897 40038 57021 70510 82535 333 58014
7:00 PM +07 on July 31,2017,2017,7,31,19,0,Asia/Bangkok,30,86,23,74,60,14.8,9.2,,,290,WNW,7,4,1005,29.68,-999,-999,-9999,-9999,,,Mist,hazy,0,0,0,0,0,0,AAXX 31124 48376 31557 62908 10298 20233 39907 40049 52010 71021 84536 333 10326 58012 70020
10:00 PM +07 on July 31,2017,2017,7,31,22,0,Asia/Bangkok,29,84,24,74,66,9.3,5.8,,,250,WSW,7,4,1008,29.75,-999,-999,-9999,-9999,,,Mist,hazy,0,0,0,0,0,0,AAXX 31154 48376 31557 62505 10288 20236 39932 40075 52025 71022 84536 333 58020
1:00 AM +07 on July 02,2017,2017,7,2,1,0,Asia/Bangkok,25,77,24,75,93,3.7,2.3,,,100,East,10,6,1008,29.78,-999,-999,-9999,-9999,,,Partly Cloudy,partlycloudy,0,0,0,0,0,0,AAXX 01184 48380 11560 81002 10250 20241 39991 40085 57005 60473 70262 8257/ 333 58004 70473
4:00 AM +07 on July 02,2017,2017,7,2,4,0,Asia/Bangkok,25,77,25,76,97,5.6,3.5,,,160,SSE,10,6,1008,29.77,-999,-999,-9999,-9999,,,Overcast,cloudy,0,0,0,0,0,0,AAXX 01214 48380 32560 81603 10252 20246 39986 40079 57006 8557/ 333 58006
7:00 AM +07 on July 02,2017,2017,7,2,7,0,Asia/Bangkok,26,78,25,77,96,0,0,,,,,10,6,1009,29.8,-999,-999,-9999,-9999,,,Overcast,cloudy,0,0,0,0,0,0,AAXX 02004 48380 12560 80000 10257 20250 39998 40091 52012 60474 8457/ 333 20244 58007 70473
10:00 AM +07 on July 02,2017,2017,7,2,10,0,Asia/Bangkok,29,84,24,76,71,5.6,3.5,,,200,SSW,12,7,1009,29.81,-999,-999,-9999,-9999,,,Overcast,cloudy,0,0,0,0,0,0,AAXX 02034 48380 32562 82003 10287 20245 30001 40094 52003 86576 333 58000
1:00 PM +07 on July 02,2017,2017,7,2,13,0,Asia/Bangkok,31,88,25,77,63,5.6,3.5,,,280,West,12,7,1008,29.78,-999,-999,-9999,-9999,,,Partly Cloudy,partlycloudy,0,0,0,0,0,0,AAXX 02064 48380 32562 72803 10312 20250 39992 40084 57009 83576 333 58008 70473
4:00 PM +07 on July 02,2017,2017,7,2,16,0,Asia/Bangkok,32,90,23,73,49,9.3,5.8,,,300,WNW,15,9,1006,29.72,-999,-999,-9999,-9999,,,Scattered Clouds,partlycloudy,0,0,0,0,0,0,AAXX 02094 48380 32565 63005 10320 20228 39971 40062 57021 82946 333 58006
7:00 PM +07 on July 02,2017,2017,7,2,19,0,Asia/Bangkok,30,86,24,75,63,5.6,3.5,,,110,ESE,10,6,1007,29.73,-999,-999,-9999,-9999,,,Scattered Clouds,partlycloudy,0,0,0,0,0,0,AAXX 02124 48380 32560 61103 10298 20240 39974 40066 52004 82576 333 10325 59004 70002
10:00 PM +07 on July 02,2017,2017,7,2,22,0,Asia/Bangkok,27,80,24,76,82,0,0,,,,,10,6,1008,29.78,-999,-999,-9999,-9999,,,Scattered Clouds,partlycloudy,0,0,0,0,0,0,AAXX 02154 48380 32560 60000 10267 20242 39991 40085 52017 81546 333 59005
1:00 AM +07 on July 03,2017,2017,7,3,1,0,Asia/Bangkok,26,78,23,74,84,0,0,,,,,5,3,1008,29.76,-999,-999,-9999,-9999,,,Mist,hazy,0,0,0,0,0,0,AAXX 02184 48376 31550 60000 10258 20233 39932 40076 56008 71022 82536 333 59002 70002
4:00 AM +07 on July 03,2017,2017,7,3,4,0,Asia/Bangkok,25,78,24,75,87,0,0,,,,,6,4,1007,29.75,-999,-999,-9999,-9999,,,Mist,hazy,0,0,0,0,0,0,AAXX 02214 48376 31556 60000 10253 20238 39927 40072 56004 71022 82536 333 59004
7:00 AM +07 on July 03,2017,2017,7,3,7,0,Asia/Bangkok,26,78,25,77,94,0,0,,,,,4,2,1008,29.78,-999,-999,-9999,-9999,,,Mist,hazy,0,0,0,0,0,0,AAXX 03004 48376 11540 70000 10255 20248 39941 40085 52013 69924 71022 83576 333 20244 59004 70002
10:00 AM +07 on July 03,2017,2017,7,3,10,0,Asia/Bangkok,30,86,25,76,66,0,0,,,,,5,3,1009,29.79,-999,-999,-9999,-9999,,,Mist,hazy,0,0,0,0,0,0,AAXX 03034 48376 31550 70000 10300 20246 39946 40088 51005 71022 83576 333 59005
1:00 PM +07 on July 03,2017,2017,7,3,13,0,Asia/Bangkok,31,88,24,75,58,7.4,4.6,,,250,WSW,5,3,1007,29.74,-999,-999,-9999,-9999,,,Mist,hazy,0,0,0,0,0,0,AAXX 03064 48376 31550 62504 10310 20240 39927 40069 57018 71022 82936 333 59021 79999
4:00 PM +07 on July 03,2017,2017,7,3,16,0,Asia/Bangkok,28,82,23,73,68,7.4,4.6,,,280,West,6,4,1006,29.71,-999,-999,-9999,-9999,,,Light Rain,rain,0,1,0,0,0,0,AAXX 03094 48376 21556 72804 10277 20229 39917 40060 57010 72162 83976 333 59007 69976
7:00 PM +07 on July 03,2017,2017,7,3,19,0,Asia/Bangkok,28,82,22,72,65,13,8.1,,,270,West,4,2,1006,29.72,-999,-999,-9999,-9999,,,Mist,hazy,0,0,0,0,0,0,AAXX 03124 48376 11540 82707 10276 20223 39919 40063 51002 69972 71062 84976 333 10317 59008 70007
1:00 AM +07 on July 04,2017,2017,7,4,1,0,Asia/Bangkok,26,79,24,75,84,0,0,,,,,5,3,1008,29.76,-999,-999,-9999,-9999,,,Mist,hazy,0,0,0,0,0,0,AAXX 03184 48376 31550 60000 10262 20239 39933 40078 56009 71022 82536 333 58002 70007
4:00 AM +07 on July 04,2017,2017,7,4,4,0,Asia/Bangkok,25,77,24,75,91,0,0,,,,,5,3,1006,29.73,-999,-999,-9999,-9999,,,Mist,hazy,0,0,0,0,0,0,AAXX 03214 48376 31550 80000 10251 20238 39920 40065 57013 71022 8552/ 333 59007
7:00 AM +07 on July 04,2017,2017,7,4,7,0,Asia/Bangkok,25,77,24,76,94,0,0,,,,,4,2,1008,29.76,-999,-999,-9999,-9999,,,Mist,hazy,0,0,0,0,0,0,AAXX 04004 48376 11540 80000 10251 20242 39933 40078 52012 69974 71022 8552/ 333 20246 59008 70007
10:00 AM +07 on July 04,2017,2017,7,4,10,0,Asia/Bangkok,27,81,26,80,94,0,0,,,,,5,3,1009,29.79,-999,-999,-9999,-9999,,,Light Rain,rain,0,1,0,0,0,0,AAXX 04034 48376 21550 80000 10270 20264 39942 40087 52010 76022 8552/ 333 59002 69905
1:00 PM +07 on July 04,2017,2017,7,4,13,0,Asia/Bangkok,29,84,26,78,78,7.4,4.6,,,180,South,4,2,1008,29.76,-999,-999,-9999,-9999,,,Mist,hazy,0,0,0,0,0,0,AAXX 04064 48376 01540 81804 10290 20256 39933 40076 57010 69921 71062 85576 333 58007 69926 70009
4:00 PM +07 on July 04,2017,2017,7,4,16,0,Asia/Bangkok,26,80,25,76,85,7.4,4.6,,,270,West,3,2,1007,29.73,-999,-999,-9999,-9999,,,Light Rain,rain,0,1,0,0,0,0,AAXX 04094 48376 21530 82704 10265 20246 39922 40066 57011 76022 8552/ 333 58005 60045
7:00 PM +07 on July 04,2017,2017,7,4,19,0,Asia/Bangkok,26,78,23,74,84,3.7,2.3,,,280,West,2,1,1007,29.73,-999,-999,-9999,-9999,,,Mist,hazy,0,0,0,0,0,0,AAXX 04124 48376 01520 72802 10255 20233 39922 40067 51001 60062 71062 83576 333 10300 58004 60027 70058
10:00 PM +07 on July 04,2017,2017,7,4,22,0,Asia/Bangkok,26,78,24,75,88,0,0,,,,,2,1,1008,29.78,-999,-999,-9999,-9999,,,Light Rain,rain,0,1,0,0,0,0,AAXX 04154 48376 21520 80000 10256 20240 39937 40082 52015 76022 8552/ 333 59004 69935
1:00 AM +07 on July 14,2017,2017,7,14,1,0,Asia/Bangkok,28,82,23,74,69,9.3,5.8,,,280,West,5,3,1007,29.75,-999,-999,-9999,-9999,,,Mist,hazy,0,0,0,0,0,0,AAXX 13184 48376 31550 72805 10275 20231 39930 40073 56007 71022 83576 333 59006 70006
4:00 AM +07 on July 14,2017,2017,7,14,4,0,Asia/Bangkok,27,80,23,73,74,3.7,2.3,,,280,West,5,3,1006,29.72,-999,-999,-9999,-9999,,,Mist,hazy,0,0,0,0,0,0,AAXX 13214 48376 31550 62802 10266 20228 39919 40063 57011 71022 82536 333 59012
7:00 AM +07 on July 14,2017,2017,7,14,7,0,Asia/Bangkok,26,80,23,73,74,0,0,,,,,8,5,1006,29.73,-999,-999,-9999,-9999,,,Mist,hazy,0,0,0,0,0,0,AAXX 14004 48376 11558 60000 10265 20228 39921 40065 51002 69964 71022 82536 333 20258 59012 70006
10:00 AM +07 on July 14,2017,2017,7,14,10,0,Asia/Bangkok,30,85,24,76,68,5.6,3.5,,,200,SSW,10,6,1008,29.76,-999,-999,-9999,-9999,,,Partly Cloudy,partlycloudy,0,0,0,0,0,0,AAXX 14034 48376 32560 62003 10295 20245 39934 40077 52013 83536 333 59008
1:00 PM +07 on July 14,2017,2017,7,14,13,0,Asia/Bangkok,32,89,24,76,57,5.6,3.5,,,220,SW,10,6,1006,29.71,-999,-999,-9999,-9999,,,Partly Cloudy,partlycloudy,0,0,0,0,0,0,AAXX 14064 48376 32560 62203 10315 20242 39919 40060 57015 84836 333 59008 70004
4:00 PM +07 on July 14,2017,2017,7,14,16,0,Asia/Bangkok,32,89,26,78,64,0,0,,,,,10,6,1003,29.63,-999,-999,-9999,-9999,,,Light Rain,rain,0,1,0,0,0,0,AAXX 14094 48376 21560 60000 10318 20258 39893 40034 57026 72122 84836 333 59010 69925
7:00 PM +07 on July 14,2017,2017,7,14,19,0,Asia/Bangkok,26,79,25,76,89,5.6,3.5,,,200,SSW,8,5,1005,29.69,-999,-999,-9999,-9999,,,Thunderstorm,tstorms,0,0,0,0,1,0,AAXX 14124 48376 01558 72003 10263 20246 39909 40053 52016 69942 71796 85976 333 10334 59006 69927 70004
10:00 PM +07 on July 14,2017,2017,7,14,22,0,Asia/Bangkok,25,78,23,74,84,9.3,5.8,,,250,WSW,5,3,1008,29.76,-999,-999,-9999,-9999,,,Light Rain,rain,0,1,0,0,0,0,AAXX 14154 48376 21550 82505 10253 20234 39931 40076 52023 76162 85576 333 59004 60016
1:00 AM +07 on July 17,2017,2017,7,17,1,0,Asia/Bangkok,27,81,23,73,70,11.1,6.9,,,260,West,6,4,1004,29.66,-999,-999,-9999,-9999,,,Mist,hazy,0,0,0,0,0,0,AAXX 16184 48376 31556 52606 10270 20226 39899 40042 56007 71022 82536 333 59015 70012
4:00 AM +07 on July 17,2017,2017,7,17,4,0,Asia/Bangkok,27,81,22,72,68,13,8.1,,,260,West,6,4,1002,29.58,-999,-999,-9999,-9999,,,Mist,hazy,0,0,0,0,0,0,AAXX 16214 48376 31556 62607 10274 20224 39873 40016 57025 71022 82536 333 59028
7:00 AM +07 on July 17,2017,2017,7,17,7,0,Asia/Bangkok,28,82,22,72,66,0,0,,,,,6,4,1003,29.62,-999,-999,-9999,-9999,,,Mist,hazy,0,0,0,0,0,0,AAXX 17004 48376 11556 60000 10277 20224 39886 40029 52012 60014 71022 83536 333 20266 59024 70012
10:00 AM +07 on July 17,2017,2017,7,17,10,0,Asia/Bangkok,29,85,23,73,61,14.8,9.2,,,260,West,8,5,1004,29.64,-999,-999,-9999,-9999,,,Mist,hazy,0,0,0,0,0,0,AAXX 17034 48376 31558 62608 10293 20230 39894 40036 51008 71022 82556 333 59014
1:00 PM +07 on July 17,2017,2017,7,17,13,0,Asia/Bangkok,30,86,23,73,57,18.5,11.5,,,270,West,6,4,1003,29.61,-999,-999,-9999,-9999,,,Mist,hazy,0,0,0,0,0,0,AAXX 17064 48376 31556 72710 10300 20228 39884 40026 57010 71022 82936 333 59011 70012
4:00 PM +07 on July 17,2017,2017,7,17,16,0,Asia/Bangkok,29,84,22,71,58,16.7,10.4,,,270,West,5,3,1001,29.57,-999,-999,-9999,-9999,,,Light Rain,rain,0,1,0,0,0,0,AAXX 17094 48376 21550 82709 10289 20219 39871 40014 57013 76022 85576 333 58003 69925
7:00 PM +07 on July 17,2017,2017,7,17,19,0,Asia/Bangkok,28,82,22,72,65,14.8,9.2,,,270,West,4,2,1003,29.62,-999,-999,-9999,-9999,,,Mist,hazy,0,0,0,0,0,0,AAXX 17124 48376 01540 82708 10275 20223 39888 40031 52016 69922 71062 8552/ 333 10310 58002 69907 70002
10:00 PM +07 on July 17,2017,2017,7,17,22,0,Asia/Bangkok,25,77,24,74,90,0,0,,,,,4,2,1006,29.7,-999,-999,-9999,-9999,,,Light Rain,rain,0,1,0,0,0,0,AAXX 17154 48376 21540 80000 10248 20236 39911 40055 52023 76062 8652/ 333 58006 60026
1:00 AM +07 on July 15,2017,2017,7,15,1,0,Asia/Bangkok,25,77,24,74,90,0,0,,,,,4,2,1007,29.75,-999,-999,-9999,-9999,,,Light Rain,rain,0,1,0,0,0,0,AAXX 14184 48376 01540 80000 10248 20236 39928 40073 56003 60023 76066 8552/ 333 59001 69945 70022
4:00 AM +07 on July 15,2017,2017,7,15,4,0,Asia/Bangkok,25,77,24,75,91,0,0,,,,,6,4,1006,29.71,-999,-999,-9999,-9999,,,Mist,hazy,0,0,0,0,0,0,AAXX 14214 48376 21556 80000 10248 20238 39915 40060 57012 71062 85576 333 59003 69927
10:00 AM +07 on July 15,2017,2017,7,15,10,0,Asia/Bangkok,26,79,22,72,75,11.1,6.9,,,280,West,5,3,1008,29.78,-999,-999,-9999,-9999,,,Light Rain,rain,0,1,0,0,0,0,AAXX 15034 48376 21550 82806 10263 20224 39937 40082 52010 76165 8672/ 333 58005 60017
1:00 PM +07 on July 15,2017,2017,7,15,13,0,Asia/Bangkok,29,84,22,71,57,16.7,10.4,,,270,West,10,6,1006,29.72,-999,-999,-9999,-9999,,,Partly Cloudy,partlycloudy,0,0,0,0,0,0,AAXX 15064 48376 01560 72709 10291 20218 39920 40062 57018 60021 70162 85576 333 58002 69967 70042
4:00 PM +07 on July 15,2017,2017,7,15,16,0,Asia/Bangkok,30,87,22,72,53,18.5,11.5,,,260,West,10,6,1004,29.65,-999,-999,-9999,-9999,,,Partly Cloudy,partlycloudy,0,0,0,0,0,0,AAXX 15094 48376 32560 62610 10304 20223 39897 40039 57022 83236 333 58005
7:00 PM +07 on July 15,2017,2017,7,15,19,0,Asia/Bangkok,29,84,22,72,58,11.1,6.9,,,280,West,10,6,1005,29.67,-999,-999,-9999,-9999,,,Scattered Clouds,partlycloudy,0,0,0,0,0,0,AAXX 15124 48376 32560 52806 10287 20220 39905 40047 51007 82236 333 10309 59005 70038
10:00 PM +07 on July 15,2017,2017,7,15,22,0,Asia/Bangkok,27,81,22,72,67,5.6,3.5,,,270,West,8,5,1007,29.73,-999,-999,-9999,-9999,,,Mist,hazy,0,0,0,0,0,0,AAXX 15154 48376 31558 32703 10274 20222 39922 40066 52018 71010 82235 333 59010
1:00 AM +07 on July 22,2017,2017,7,22,1,0,Asia/Bangkok,27,81,23,73,71,7.4,4.6,,,270,West,4,2,1008,29.77,-999,-999,-9999,-9999,,,Mist,hazy,0,0,0,0,0,0,AAXX 21184 48376 31540 62704 10274 20228 39936 40079 56004 71022 82536 333 58009
4:00 AM +07 on July 22,2017,2017,7,22,4,0,Asia/Bangkok,26,80,24,75,79,0,0,,,,,4,2,1007,29.74,-999,-999,-9999,-9999,,,Mist,hazy,0,0,0,0,0,0,AAXX 21214 48376 31540 60000 10265 20237 39925 40069 57010 71022 82536 333 58012
7:00 AM +07 on July 22,2017,2017,7,22,7,0,Asia/Bangkok,26,79,24,76,88,0,0,,,,,6,4,1008,29.78,-999,-999,-9999,-9999,,,Mist,hazy,0,0,0,0,0,0,AAXX 22004 48376 31556 60000 10262 20245 39940 40085 52015 71022 82536 333 20253 58020
10:00 AM +07 on July 22,2017,2017,7,22,10,0,Asia/Bangkok,30,85,24,75,66,0,0,,,,,10,6,1009,29.81,-999,-999,-9999,-9999,,,Partly Cloudy,partlycloudy,0,0,0,0,0,0,AAXX 22034 48376 32560 70000 10296 20240 39951 40094 52011 84576 333 58006
1:00 PM +07 on July 22,2017,2017,7,22,13,0,Asia/Bangkok,33,92,24,75,49,11.1,6.9,,,280,West,10,6,1007,29.75,-999,-999,-9999,-9999,,,Partly Cloudy,partlycloudy,0,0,0,0,0,0,AAXX 22064 48376 32560 62806 10334 20238 39933 40073 57019 83236 333 58006
4:00 PM +07 on July 22,2017,2017,7,22,16,0,Asia/Bangkok,31,88,23,73,52,16.7,10.4,,,270,West,10,6,1005,29.69,-999,-999,-9999,-9999,,,Partly Cloudy,partlycloudy,0,0,0,0,0,0,AAXX 22094 48376 31160 52709 10309 20227 39912 40054 57020 70192 82966 333 58005
7:00 PM +07 on July 22,2017,2017,7,22,19,0,Asia/Bangkok,29,84,23,74,65,9.3,5.8,,,270,West,7,4,1008,29.76,-999,-999,-9999,-9999,,,Mist,hazy,0,0,0,0,0,0,AAXX 22124 48376 31557 82705 10291 20234 39935 40078 52022 71092 8652/ 333 10338 58023
10:00 PM +07 on July 22,2017,2017,7,22,22,0,Asia/Bangkok,27,81,24,75,77,0,0,,,,,7,4,1010,29.83,-999,-999,-9999,-9999,,,Mist,hazy,0,0,0,0,0,0,AAXX 22154 48376 31557 80000 10271 20238 39957 40101 52022 71022 85576 333 58018
1:00 AM +07 on July 16,2017,2017,7,16,1,0,Asia/Bangkok,25,78,23,74,82,0,0,,,,,7,4,1006,29.7,-999,-999,-9999,-9999,,,Mist,hazy,0,0,0,0,0,0,AAXX 15184 48376 31557 60000 10253 20231 39913 40057 57010 71021 83556 333 59015 70020
4:00 AM +07 on July 16,2017,2017,7,16,4,0,Asia/Bangkok,26,79,22,72,72,5.6,3.5,,,290,WNW,7,4,1004,29.67,-999,-999,-9999,-9999,,,Mist,hazy,0,0,0,0,0,0,AAXX 15214 48376 31557 62903 10262 20220 39901 40045 57012 71022 83536 333 59015
7:00 AM +07 on July 16,2017,2017,7,16,7,0,Asia/Bangkok,25,77,23,73,85,0,0,,,,,10,6,1005,29.69,-999,-999,-9999,-9999,,,Scattered Clouds,partlycloudy,0,0,0,0,0,0,AAXX 16004 48376 12560 50000 10251 20230 39909 40053 51008 60024 82436 333 20244 59020 70018
10:00 AM +07 on July 16,2017,2017,7,16,10,0,Asia/Bangkok,31,87,24,75,60,9.3,5.8,,,250,WSW,10,6,1005,29.68,-999,-999,-9999,-9999,,,Scattered Clouds,partlycloudy,0,0,0,0,0,0,AAXX 16034 48376 32560 62505 10308 20239 39909 40051 54000 82536 333 59031
1:00 PM +07 on July 16,2017,2017,7,16,13,0,Asia/Bangkok,32,90,24,74,51,5.6,3.5,,,310,NW,12,7,1004,29.64,-999,-999,-9999,-9999,,,Scattered Clouds,partlycloudy,0,0,0,0,0,0,AAXX 16064 48376 32562 63103 10320 20235 39896 40037 57013 82236 333 59026
4:00 PM +07 on July 16,2017,2017,7,16,16,0,Asia/Bangkok,32,90,24,75,53,11.1,6.9,,,280,West,10,6,1001,29.57,-999,-999,-9999,-9999,,,Partly Cloudy,partlycloudy,0,0,0,0,0,0,AAXX 16094 48376 21560 62806 10320 20240 39870 40011 57026 70262 82336 333 59028 60017
7:00 PM +07 on July 16,2017,2017,7,16,19,0,Asia/Bangkok,29,83,23,74,68,13,8.1,,,270,West,8,5,1003,29.62,-999,-999,-9999,-9999,,,Mist,hazy,0,0,0,0,0,0,AAXX 16124 48376 01558 72707 10286 20234 39886 40028 52016 60012 71062 82936 333 10335 59019 69907 70012
10:00 PM +07 on July 16,2017,2017,7,16,22,0,Asia/Bangkok,28,82,22,72,66,9.3,5.8,,,270,West,6,4,1005,29.68,-999,-999,-9999,-9999,,,Mist,hazy,0,0,0,0,0,0,AAXX 16154 48376 31556 62705 10275 20225 39906 40049 52020 71022 82536 333 59017
1:00 AM +07 on July 20,2017,2017,7,20,1,0,Asia/Bangkok,27,81,25,78,86,0,0,,,,,10,6,1007,29.74,-999,-999,-9999,-9999,,,Scattered Clouds,partlycloudy,0,0,0,0,0,0,AAXX 19184 48380 32560 70000 10270 20253 39976 40069 57010 82276 333 59028 70003
4:00 AM +07 on July 20,2017,2017,7,20,4,0,Asia/Bangkok,27,80,25,78,91,0,0,,,,,10,6,1006,29.71,-999,-999,-9999,-9999,,,Overcast,cloudy,0,0,0,0,0,0,AAXX 19214 48380 32560 80000 10267 20254 39966 40059 57010 83677 333 59030
7:00 AM +07 on July 20,2017,2017,7,20,7,0,Asia/Bangkok,26,78,24,74,85,3.7,2.3,,,160,SSE,12,7,1007,29.75,-999,-999,-9999,-9999,,,Overcast,cloudy,0,0,0,0,0,0,AAXX 20004 48380 32562 81602 10257 20235 39979 40073 52014 8557/ 333 20255 59020
10:00 AM +07 on July 20,2017,2017,7,20,10,0,Asia/Bangkok,28,83,24,76,73,3.7,2.3,,,80,East,14,9,1008,29.78,-999,-999,-9999,-9999,,,Overcast,cloudy,0,0,0,0,0,0,AAXX 20034 48380 32564 80802 10283 20243 39990 40083 52011 8357/ 333 59016
1:00 PM +07 on July 20,2017,2017,7,20,13,0,Asia/Bangkok,30,86,25,76,66,3.7,2.3,,,310,NW,14,9,1006,29.72,-999,-999,-9999,-9999,,,Overcast,cloudy,0,0,0,0,0,0,AAXX 20064 48380 32564 83102 10302 20246 39971 40064 57018 8252/ 333 59020
4:00 PM +07 on July 20,2017,2017,7,20,16,0,Asia/Bangkok,26,78,24,75,88,5.6,3.5,,,140,SE,8,5,1005,29.69,-999,-999,-9999,-9999,,,Thunderstorms and Rain,tstorms,0,1,0,0,1,0,AAXX 20094 48380 21458 81403 10255 20239 39961 40054 57011 79592 8697/ 333 58000 60035
7:00 PM +07 on July 20,2017,2017,7,20,19,0,Asia/Bangkok,25,78,24,76,91,3.7,2.3,,,230,SW,10,6,1005,29.68,-999,-999,-9999,-9999,,,Light Rain,rain,0,1,0,0,0,0,AAXX 20124 48380 01560 82302 10254 20244 39957 40050 56004 60072 76196 8657/ 333 10313 58000 60047 70067
10:00 PM +07 on July 20,2017,2017,7,20,22,0,Asia/Bangkok,26,78,25,76,94,1.9,1.2,,,270,West,10,6,1008,29.76,-999,-999,-9999,-9999,,,Partly Cloudy,partlycloudy,0,0,0,0,0,0,AAXX 20154 48380 21560 82701 10256 20247 39984 40078 52027 70262 8457/ 333 59001 69927
1:00 AM +07 on August 01,2017,2017,8,1,1,0,Asia/Bangkok,27,81,23,73,71,7.4,4.6,,,290,WNW,7,4,1006,29.72,-999,-999,-9999,-9999,,,Mist,hazy,0,0,0,0,0,0,AAXX 31184 48376 31557 52904 10273 20229 39920 40064 57012 71022 82536 333 58015 70020
4:00 AM +07 on August 01,2017,2017,8,1,4,0,Asia/Bangkok,27,81,24,74,75,5.6,3.5,,,250,WSW,7,4,1005,29.69,-999,-999,-9999,-9999,,,Mist,hazy,0,0,0,0,0,0,AAXX 31214 48376 31557 32503 10273 20235 39910 40054 57010 71010 82535 333 58015
7:00 AM +07 on August 01,2017,2017,8,1,7,0,Asia/Bangkok,28,82,23,74,70,9.3,5.8,,,260,West,7,4,1006,29.71,-999,-999,-9999,-9999,,,Mist,hazy,0,0,0,0,0,0,AAXX 01004 48376 11557 32605 10280 20233 39917 40060 51007 60024 71010 82235 333 20267 58005 70020
10:00 AM +07 on August 01,2017,2017,8,1,10,0,Asia/Bangkok,30,86,24,75,62,13,8.1,,,260,West,8,5,1008,29.76,-999,-999,-9999,-9999,,,Mist,hazy,0,0,0,0,0,0,AAXX 01034 48376 31558 62607 10302 20237 39936 40078 52019 71020 82236 333 58007
1:00 PM +07 on August 01,2017,2017,8,1,13,0,Asia/Bangkok,31,88,24,75,57,14.8,9.2,,,250,WSW,8,5,1007,29.74,-999,-999,-9999,-9999,,,Mist,hazy,0,0,0,0,0,0,AAXX 01064 48376 31558 62508 10310 20238 39928 40070 56008 71020 82836 333 58011
4:00 PM +07 on August 01,2017,2017,8,1,16,0,Asia/Bangkok,31,87,26,78,69,9.3,5.8,,,270,West,6,4,1005,29.68,-999,-999,-9999,-9999,,,Light Rain,rain,0,1,0,0,0,0,AAXX 01094 48376 21556 72705 10307 20256 39907 40049 57022 72122 84576 333 58010 69905
10:00 PM +07 on August 01,2017,2017,8,1,22,0,Asia/Bangkok,29,83,23,73,66,11.1,6.9,,,270,West,5,3,1008,29.77,-999,-999,-9999,-9999,,,Mist,hazy,0,0,0,0,0,0,AAXX 01154 48376 31550 62706 10286 20230 39937 40080 52024 71022 82536 333 58006
1:00 AM +07 on August 02,2017,2017,8,2,1,0,Asia/Bangkok,28,82,25,76,79,0,0,,,,,10,6,1007,29.73,-999,-999,-9999,-9999,,,Scattered Clouds,partlycloudy,0,0,0,0,0,0,AAXX 01183 48380 32560 60000 10276 20247 39974 40067 57012 82546 333 58006 70004
4:00 AM +07 on August 02,2017,2017,8,2,4,0,Asia/Bangkok,27,80,25,77,87,0,0,,,,,10,6,1005,29.69,-999,-999,-9999,-9999,,,Scattered Clouds,partlycloudy,0,0,0,0,0,0,AAXX 01214 48380 32560 30000 10266 20249 39960 40053 57014 81545 333 59001
7:00 AM +07 on August 02,2017,2017,8,2,7,0,Asia/Bangkok,26,80,25,77,89,0,0,,,,,10,6,1006,29.72,-999,-999,-9999,-9999,,,Overcast,cloudy,0,0,0,0,0,0,AAXX 02003 48380 12560 80000 10264 20251 39970 40064 52011 69944 83576 333 20258 58001 70004
10:00 AM +07 on August 02,2017,2017,8,2,10,0,Asia/Bangkok,30,85,24,76,68,3.7,2.3,,,350,North,10,6,1008,29.76,-999,-999,-9999,-9999,,,Overcast,cloudy,0,0,0,0,0,0,AAXX 02034 48380 32560 83502 10295 20245 39985 40077 52015 84576 333 58000
1:00 PM +07 on August 02,2017,2017,8,2,13,0,Asia/Bangkok,31,88,23,74,55,3.7,2.3,,,40,NE,10,6,1006,29.73,-999,-999,-9999,-9999,,,Partly Cloudy,partlycloudy,0,0,0,0,0,0,AAXX 02063 48380 32560 70402 10310 20233 39973 40065 57012 83576 333 59003
4:00 PM +07 on August 02,2017,2017,8,2,16,0,Asia/Bangkok,32,90,25,76,56,3.7,2.3,,,300,WNW,10,6,1004,29.64,-999,-999,-9999,-9999,,,Scattered Clouds,partlycloudy,0,0,0,0,0,0,AAXX 02094 48380 32560 63002 10320 20246 39945 40036 57028 82556 333 59013
7:00 PM +07 on August 02,2017,2017,8,2,19,0,Asia/Bangkok,30,86,25,77,67,0,0,,,,,10,6,1004,29.64,-999,-999,-9999,-9999,,,Overcast,cloudy,0,0,0,0,0,0,AAXX 02123 48380 32560 80000 10302 20248 39944 40036 57001 82577 333 10326 59013
10:00 PM +07 on August 02,2017,2017,8,2,22,0,Asia/Bangkok,29,83,26,78,80,0,0,,,,,10,6,1006,29.71,-999,-999,-9999,-9999,,,Scattered Clouds,partlycloudy,0,0,0,0,0,0,AAXX 02154 48380 32560 60000 10286 20255 39967 40060 52023 82546 333 59019
1:00 AM +07 on August 03,2017,2017,8,3,1,0,Asia/Bangkok,29,84,22,72,60,9.3,5.8,,,250,WSW,6,4,1005,29.68,-999,-999,-9999,-9999,,,Mist,hazy,0,0,0,0,0,0,AAXX 02184 48376 31556 52505 10288 20223 39907 40050 57013 71022 82536 333 59014
4:00 AM +07 on August 03,2017,2017,8,3,4,0,Asia/Bangkok,27,80,24,75,80,0,0,,,,,6,4,1004,29.65,-999,-999,-9999,-9999,,,Mist,hazy,0,0,0,0,0,0,AAXX 02214 48376 31556 50000 10267 20238 39897 40041 56009 71022 82536 333 59013
7:00 AM +07 on August 03,2017,2017,8,3,7,0,Asia/Bangkok,27,80,24,76,82,7.4,4.6,,,220,SW,6,4,1005,29.68,-999,-999,-9999,-9999,,,Mist,hazy,0,0,0,0,0,0,AAXX 03004 48376 31556 82204 10268 20242 39904 40048 51007 71022 85576 333 20258 59015
10:00 AM +07 on August 03,2017,2017,8,3,10,0,Asia/Bangkok,32,90,25,77,57,16.7,10.4,,,250,WSW,7,4,1004,29.65,-999,-999,-9999,-9999,,,Mist,hazy,0,0,0,0,0,0,AAXX 03034 48376 31557 62509 10320 20249 39899 40040 57012 71022 84546 333 59021
1:00 PM +07 on August 03,2017,2017,8,3,13,0,Asia/Bangkok,32,90,25,77,57,16.7,10.4,,,250,WSW,7,4,1004,29.65,-999,-999,-9999,-9999,,,Mist,hazy,0,0,0,0,0,0,AAXX 03064 48376 31557 62509 10320 20249 39899 40040 57012 71022 84546 333 59021
4:00 PM +07 on August 03,2017,2017,8,3,16,0,Asia/Bangkok,32,90,24,75,53,14.8,9.2,,,260,West,7,4,1001,29.57,-999,-999,-9999,-9999,,,Haze,hazy,0,0,0,0,0,0,AAXX 03094 48376 31557 62608 10320 20240 39871 40012 57028 70522 84546 333 59024
7:00 PM +07 on August 03,2017,2017,8,3,19,0,Asia/Bangkok,29,85,24,75,66,5.6,3.5,,,260,West,7,4,1002,29.59,-999,-999,-9999,-9999,,,Mist,hazy,0,0,0,0,0,0,AAXX 03124 48376 31557 52603 10293 20241 39877 40019 52006 71022 83936 333 10331 59022
10:00 PM +07 on August 03,2017,2017,8,3,22,0,Asia/Bangkok,28,83,24,75,71,7.4,4.6,,,260,West,6,4,1004,29.65,-999,-999,-9999,-9999,,,Mist,hazy,0,0,0,0,0,0,AAXX 03154 48376 31556 62604 10283 20240 39898 40041 52021 71022 84536 333 59022
1:00 AM +07 on August 04,2017,2017,8,4,1,0,Asia/Bangkok,28,82,24,75,73,5.6,3.5,,,230,SW,6,4,1004,29.64,-999,-999,-9999,-9999,,,Mist,hazy,0,0,0,0,0,0,AAXX 03184 48376 31556 62303 10277 20238 39892 40035 56006 71022 84536 333 59015
4:00 AM +07 on August 04,2017,2017,8,4,4,0,Asia/Bangkok,27,81,24,75,78,7.4,4.6,,,270,West,6,4,1002,29.59,-999,-999,-9999,-9999,,,Mist,hazy,0,0,0,0,0,0,AAXX 03214 48376 31556 62704 10273 20240 39877 40020 57015 71022 84536 333 59021
7:00 AM +07 on August 04,2017,2017,8,4,7,0,Asia/Bangkok,27,81,25,76,82,0,0,,,,,5,3,1003,29.62,-999,-999,-9999,-9999,,,Mist,hazy,0,0,0,0,0,0,AAXX 04004 48376 31550 80000 10273 20246 39888 40031 52012 71022 85576 333 20263 59016
10:00 AM +07 on August 04,2017,2017,8,4,10,0,Asia/Bangkok,30,86,25,77,69,5.6,3.5,,,180,South,5,3,1004,29.66,-999,-999,-9999,-9999,,,Mist,hazy,0,0,0,0,0,0,AAXX 04034 48376 31550 71803 10300 20252 39901 40043 52013 71022 84576 333 59009
1:00 PM +07 on August 04,2017,2017,8,4,13,0,Asia/Bangkok,33,91,26,78,58,5.6,3.5,,,330,NNW,7,4,1003,29.61,-999,-999,-9999,-9999,,,Mist,hazy,0,0,0,0,0,0,AAXX 04064 48376 31557 63303 10330 20256 39885 40026 57016 71022 82936 333 59014
4:00 PM +07 on August 04,2017,2017,8,4,16,0,Asia/Bangkok,28,82,26,79,89,3.7,2.3,,,120,ESE,8,5,1001,29.57,-999,-999,-9999,-9999,,,Mist,hazy,0,0,0,0,0,0,AAXX 04094 48376 21558 71202 10280 20263 39871 40013 57014 71062 83536 333 58002 60187
7:00 PM +07 on August 04,2017,2017,8,4,19,0,Asia/Bangkok,28,83,25,77,78,0,0,,,,,5,3,1002,29.58,-999,-999,-9999,-9999,,,Mist,hazy,0,0,0,0,0,0,AAXX 04124 48376 11550 70000 10281 20251 39874 40017 51003 60182 71062 83576 333 10335 59002 70180
10:00 PM +07 on August 04,2017,2017,8,4,22,0,Asia/Bangkok,26,80,26,78,91,3.7,2.3,,,260,West,4,2,1004,29.65,-999,-999,-9999,-9999,,,Mist,hazy,0,0,0,0,0,0,AAXX 04154 48376 21540 82602 10265 20255 39895 40038 52020 71062 85576 333 59002 69956
1:00 AM +07 on August 05,2017,2017,8,5,1,0,Asia/Bangkok,26,79,25,77,93,0,0,,,,,4,2,1004,29.65,-999,-999,-9999,-9999,,,Mist,hazy,0,0,0,0,0,0,AAXX 04184 48376 11540 80000 10261 20252 39894 40038 56001 60193 71062 8552/ 333 58003 70185
4:00 AM +07 on August 05,2017,2017,8,5,4,0,Asia/Bangkok,26,79,25,78,94,0,0,,,,,4,2,1003,29.61,-999,-999,-9999,-9999,,,Mist,hazy,0,0,0,0,0,0,AAXX 04214 48376 31540 80000 10260 20253 39884 40027 57010 71022 8652/ 333 58008
7:00 AM +07 on August 05,2017,2017,8,5,7,0,Asia/Bangkok,26,79,25,78,95,0,0,,,,,4,2,1004,29.64,-999,-999,-9999,-9999,,,Mist,hazy,0,0,0,0,0,0,AAXX 05004 48376 11540 80000 10260 20254 39892 40036 51009 60194 71022 8652/ 333 20253 58005 70185
10:00 AM +07 on August 05,2017,2017,8,5,10,0,Asia/Bangkok,29,84,25,78,76,3.7,2.3,,,210,SSW,5,3,1005,29.68,-999,-999,-9999,-9999,,,Mist,hazy,0,0,0,0,0,0,AAXX 05034 48376 31550 82102 10291 20254 39905 40048 52013 71022 8652/ 333 58004
1:00 PM +07 on August 05,2017,2017,8,5,13,0,Asia/Bangkok,30,86,26,80,76,5.6,3.5,,,190,South,5,3,1004,29.65,-999,-999,-9999,-9999,,,Light Drizzle,rain,0,1,0,0,0,0,AAXX 05064 48376 01550 81903 10298 20264 39898 40040 56007 69901 75022 8682/ 333 58014 69905 70185
4:00 PM +07 on August 05,2017,2017,8,5,16,0,Asia/Bangkok,30,86,27,81,80,7.4,4.6,,,270,West,9,6,1002,29.6,-999,-999,-9999,-9999,,,Mist,hazy,0,0,0,0,0,0,AAXX 05094 48376 21559 82704 10299 20270 39879 40021 57018 71062 8632/ 333 58008 60047
7:00 PM +07 on August 05,2017,2017,8,5,19,0,Asia/Bangkok,28,83,24,75,71,5.6,3.5,,,270,West,6,4,1003,29.62,-999,-999,-9999,-9999,,,Mist,hazy,0,0,0,0,0,0,AAXX 05124 48376 11556 82703 10282 20239 39889 40031 51009 60042 71062 8652/ 333 10305 58014 70043
10:00 PM +07 on August 05,2017,2017,8,5,22,0,Asia/Bangkok,27,80,26,78,93,0,0,,,,,5,3,1006,29.73,-999,-999,-9999,-9999,,,Light Rain,rain,0,1,0,0,0,0,AAXX 05154 48376 21550 80000 10268 20257 39921 40065 52033 76162 8652/ 333 58027 69966
1:00 AM +07 on August 06,2017,2017,8,6,1,0,Asia/Bangkok,25,78,25,77,94,5.6,3.5,,,230,SW,5,3,1007,29.73,-999,-999,-9999,-9999,,,Light Rain,rain,0,1,0,0,0,0,AAXX 05184 48376 01550 82303 10254 20248 39923 40067 51002 60053 76062 8652/ 333 58030 69925 70046
4:00 AM +07 on August 06,2017,2017,8,6,4,0,Asia/Bangkok,25,77,25,77,98,0,0,,,,,5,3,1005,29.69,-999,-999,-9999,-9999,,,Mist,hazy,0,0,0,0,0,0,AAXX 05214 48376 21550 80000 10252 20248 39910 40054 57013 71062 8652/ 333 58027 60027
7:00 AM +07 on August 06,2017,2017,8,6,7,0,Asia/Bangkok,25,77,25,76,98,0,0,,,,,4,2,1007,29.74,-999,-999,-9999,-9999,,,Light Rain,rain,0,1,0,0,0,0,AAXX 06004 48376 01540 80000 10250 20247 39926 40071 52016 60074 76062 8652/ 333 20244 58034 69925 70068
10:00 AM +07 on August 06,2017,2017,8,6,10,0,Asia/Bangkok,28,82,26,78,85,0,0,,,,,4,2,1009,29.79,-999,-999,-9999,-9999,,,Light Rain,rain,0,1,0,0,0,0,AAXX 06034 48376 21540 80000 10279 20256 39943 40086 52017 72122 8652/ 333 58039 69905
1:00 PM +07 on August 06,2017,2017,8,6,13,0,Asia/Bangkok,29,84,26,79,80,5.6,3.5,,,140,SE,4,2,1008,29.76,-999,-999,-9999,-9999,,,Light Rain,rain,0,1,0,0,0,0,AAXX 06064 48376 01540 81403 10290 20259 39935 40078 56008 69901 76062 8652/ 333 58038 69905 70068
4:00 PM +07 on August 06,2017,2017,8,6,16,0,Asia/Bangkok,29,83,27,80,88,0,0,,,,,4,2,1006,29.7,-999,-999,-9999,-9999,,,Light Rain,rain,0,1,0,0,0,0,AAXX 06094 48376 21540 80000 10286 20266 39912 40055 57023 76162 8652/ 333 58034 60016
7:00 PM +07 on August 06,2017,2017,8,6,19,0,Asia/Bangkok,28,82,27,80,91,0,0,,,,,4,2,1006,29.72,-999,-999,-9999,-9999,,,Mist,hazy,0,0,0,0,0,0,AAXX 06124 48376 01540 80000 10280 20266 39918 40062 51007 60012 71062 8652/ 333 10297 58030 69946 70044
10:00 PM +07 on August 06,2017,2017,8,6,22,0,Asia/Bangkok,25,78,25,77,94,0,0,,,,,3,2,1010,29.82,-999,-999,-9999,-9999,,,Light Rain,rain,0,1,0,0,0,0,AAXX 06154 48376 21530 80000 10254 20248 39952 40097 52034 76162 8652/ 333 58032 60097
1:00 AM +07 on August 07,2017,2017,8,7,1,0,Asia/Bangkok,25,77,24,76,95,0,0,,,,,4,2,1009,29.79,-999,-999,-9999,-9999,,,Light Rain,rain,0,1,0,0,0,0,AAXX 06184 48376 01540 80000 10250 20244 39942 40087 57011 60143 72162 8652/ 333 58019 60047 70162
4:00 AM +07 on August 07,2017,2017,8,7,4,0,Asia/Bangkok,25,77,24,76,96,0,0,,,,,2.5,2,1009,29.79,-999,-999,-9999,-9999,,,Mist,hazy,0,0,0,0,0,0,AAXX 06214 48376 31525 80000 10249 20245 39940 40086 56001 71022 8652/ 333 58032
7:00 AM +07 on August 07,2017,2017,8,7,7,0,Asia/Bangkok,25,77,25,77,98,0,0,,,,,3,2,1009,29.8,-999,-999,-9999,-9999,,,Light Rain,rain,0,1,0,0,0,0,AAXX 07004 48376 01530 80000 10251 20248 39946 40091 51006 60144 72122 8652/ 333 20243 58021 69945 70144
10:00 AM +07 on August 07,2017,2017,8,7,10,0,Asia/Bangkok,26,79,25,78,94,0,0,,,,,2,1,1011,29.85,-999,-999,-9999,-9999,,,Light Rain,rain,0,1,0,0,0,0,AAXX 07034 48376 21520 80000 10262 20253 39962 40107 52016 76162 8652/ 333 58020 69946
1:00 PM +07 on August 07,2017,2017,8,7,13,0,Asia/Bangkok,28,82,26,78,84,0,0,,,,,4,2,1009,29.81,-999,-999,-9999,-9999,,,Light Rain,rain,0,1,0,0,0,0,AAXX 07064 48376 01540 80000 10278 20255 39950 40094 57012 69971 76062 8652/ 333 58016 69937 70151
4:00 PM +07 on August 07,2017,2017,8,7,16,0,Asia/Bangkok,30,87,26,79,72,0,0,,,,,6,4,1007,29.74,-999,-999,-9999,-9999,,,Mist,hazy,0,0,0,0,0,0,AAXX 07094 48376 21556 70000 10303 20262 39928 40070 57022 71062 83576 333 58016 69907
7:00 PM +07 on August 07,2017,2017,8,7,19,0,Asia/Bangkok,28,82,25,78,83,0,0,,,,,5,3,1008,29.77,-999,-999,-9999,-9999,,,Mist,hazy,0,0,0,0,0,0,AAXX 07124 48376 11550 80000 10280 20254 39936 40079 51008 69972 71062 8552/ 333 10308 58018 70137
1:00 AM +07 on August 10,2017,2017,8,10,1,0,Asia/Bangkok,28,82,23,73,67,7.4,4.6,,,280,West,7,4,1010,29.82,-999,-999,-9999,-9999,,,Mist,hazy,0,0,0,0,0,0,AAXX 09184 48376 31557 62804 10276 20227 39954 40098 56002 71022 82536 333 58003 70016
4:00 AM +07 on August 10,2017,2017,8,10,4,0,Asia/Bangkok,27,80,23,73,75,13,8.1,,,260,West,7,4,1009,29.79,-999,-999,-9999,-9999,,,Mist,hazy,0,0,0,0,0,0,AAXX 09214 48376 31557 72607 10267 20230 39944 40088 57010 71022 84556 333 59001
7:00 AM +07 on August 10,2017,2017,8,10,7,0,Asia/Bangkok,26,79,24,74,82,5.6,3.5,,,260,West,7,4,1009,29.8,-999,-999,-9999,-9999,,,Mist,hazy,0,0,0,0,0,0,AAXX 10004 48376 31557 72603 10262 20236 39947 40091 51003 71022 85556 333 20253 59010
10:00 AM +07 on August 10,2017,2017,8,10,10,0,Asia/Bangkok,29,84,24,75,69,7.4,4.6,,,260,West,10,6,1010,29.82,-999,-999,-9999,-9999,,,Partly Cloudy,partlycloudy,0,0,0,0,0,0,AAXX 10034 48376 32560 62604 10290 20241 39955 40098 51008 83536 333 59011
1:00 PM +07 on August 10,2017,2017,8,10,13,0,Asia/Bangkok,31,89,24,74,54,7.4,4.6,,,230,SW,10,6,1009,29.79,-999,-999,-9999,-9999,,,Partly Cloudy,partlycloudy,0,0,0,0,0,0,AAXX 10064 48376 32560 62304 10314 20235 39944 40086 57011 83236 333 59006
4:00 PM +07 on August 10,2017,2017,8,10,16,0,Asia/Bangkok,31,88,24,75,57,11.1,6.9,,,260,West,10,6,1006,29.73,-999,-999,-9999,-9999,,,Partly Cloudy,partlycloudy,0,0,0,0,0,0,AAXX 10094 48376 32560 62606 10313 20237 39923 40065 57021 83536 333 59003
7:00 PM +07 on August 10,2017,2017,8,10,19,0,Asia/Bangkok,28,83,23,74,66,14.8,9.2,,,250,WSW,10,6,1007,29.75,-999,-999,-9999,-9999,,,Partly Cloudy,partlycloudy,0,0,0,0,0,0,AAXX 10124 48376 32560 62508 10281 20231 39929 40072 51006 83536 333 10316 59004
10:00 PM +07 on August 10,2017,2017,8,10,22,0,Asia/Bangkok,28,82,24,74,72,0,0,,,,,8,5,1009,29.81,-999,-999,-9999,-9999,,,Mist,hazy,0,0,0,0,0,0,AAXX 10154 48376 31558 60000 10276 20235 39950 40094 52021 71022 82536 333 59006
1:00 AM +07 on August 11,2017,2017,8,11,1,0,Asia/Bangkok,27,80,23,74,76,3.7,2.3,,,230,SW,7,4,1009,29.81,-999,-999,-9999,-9999,,,Mist,hazy,0,0,0,0,0,0,AAXX 10184 48376 31557 52302 10266 20231 39948 40093 56001 71022 82336 333 59006
4:00 AM +07 on August 11,2017,2017,8,11,4,0,Asia/Bangkok,27,80,23,74,76,7.4,4.6,,,250,WSW,7,4,1008,29.78,-999,-999,-9999,-9999,,,Mist,hazy,0,0,0,0,0,0,AAXX 10214 48376 31557 62504 10266 20231 39940 40084 56009 71022 82536 333 59004
7:00 AM +07 on August 11,2017,2017,8,11,7,0,Asia/Bangkok,27,81,23,74,73,7.4,4.6,,,260,West,6,4,1009,29.79,-999,-999,-9999,-9999,,,Mist,hazy,0,0,0,0,0,0,AAXX 11004 48376 31556 62604 10272 20232 39944 40088 51004 71022 83556 333 20260 59003
10:00 AM +07 on August 11,2017,2017,8,11,10,0,Asia/Bangkok,30,86,23,74,59,13,8.1,,,250,WSW,12,7,1010,29.81,-999,-999,-9999,-9999,,,Partly Cloudy,partlycloudy,0,0,0,0,0,0,AAXX 11034 48376 32562 62507 10301 20231 39952 40095 51008 83546 333 59003
1:00 PM +07 on August 11,2017,2017,8,11,13,0,Asia/Bangkok,32,90,24,75,53,9.3,5.8,,,280,West,12,7,1009,29.79,-999,-999,-9999,-9999,,,Partly Cloudy,partlycloudy,0,0,0,0,0,0,AAXX 11064 48376 32562 62805 10322 20239 39945 40086 56007 84536 333 58001
4:00 PM +07 on August 11,2017,2017,8,11,16,0,Asia/Bangkok,31,88,24,74,56,16.7,10.4,,,250,WSW,10,6,1006,29.72,-999,-999,-9999,-9999,,,Partly Cloudy,partlycloudy,0,0,0,0,0,0,AAXX 11094 48376 32560 62509 10310 20235 39922 40064 57022 84536 333 58000
7:00 PM +07 on August 11,2017,2017,8,11,19,0,Asia/Bangkok,29,83,22,72,63,16.7,10.4,,,270,West,10,6,1007,29.74,-999,-999,-9999,-9999,,,Partly Cloudy,partlycloudy,0,0,0,0,0,0,AAXX 11124 48376 32560 62709 10286 20224 39928 40071 51005 83536 333 10335 59001
10:00 PM +07 on August 11,2017,2017,8,11,22,0,Asia/Bangkok,28,83,23,74,66,14.8,9.2,,,270,West,8,5,1009,29.81,-999,-999,-9999,-9999,,,Mist,hazy,0,0,0,0,0,0,AAXX 11154 48376 31558 62708 10282 20231 39949 40092 52021 71022 84536 333 59002
1:00 AM +07 on August 14,2017,2017,8,14,1,0,Asia/Bangkok,28,82,25,77,81,0,0,,,,,10,6,1010,29.81,-999,-999,-9999,-9999,,,Scattered Clouds,partlycloudy,0,0,0,0,0,0,AAXX 13184 48380 32560 70000 10280 20251 30002 40095 57003 81536 333 58003
4:00 AM +07 on August 14,2017,2017,8,14,4,0,Asia/Bangkok,27,81,25,77,83,1.9,1.2,,,30,NNE,10,6,1008,29.78,-999,-999,-9999,-9999,,,Scattered Clouds,partlycloudy,0,0,0,0,0,0,AAXX 13214 48380 32560 70301 10270 20248 39990 40084 57011 82576 333 58001
7:00 AM +07 on August 14,2017,2017,8,14,7,0,Asia/Bangkok,26,80,24,74,79,5.6,3.5,,,330,NNW,14,9,1010,29.81,-999,-999,-9999,-9999,,,Scattered Clouds,partlycloudy,0,0,0,0,0,0,AAXX 14004 48380 32564 53303 10265 20236 30001 40095 52011 81536 333 20258 58001
10:00 AM +07 on August 14,2017,2017,8,14,10,0,Asia/Bangkok,33,91,24,75,50,9.3,5.8,,,290,WNW,16,10,1010,29.83,-999,-999,-9999,-9999,,,Scattered Clouds,partlycloudy,0,0,0,0,0,0,AAXX 14034 48380 32566 62905 10327 20237 30008 40099 52006 81236 333 59001
1:00 PM +07 on August 14,2017,2017,8,14,13,0,Asia/Bangkok,34,93,24,75,47,11.1,6.9,,,250,WSW,16,10,1009,29.79,-999,-999,-9999,-9999,,,Scattered Clouds,partlycloudy,0,0,0,0,0,0,AAXX 14064 48380 32566 62506 10337 20238 39994 40086 57013 81236 333 58000
4:00 PM +07 on August 14,2017,2017,8,14,16,0,Asia/Bangkok,34,93,23,74,44,5.6,3.5,,,270,West,16,10,1006,29.71,-999,-999,-9999,-9999,,,Scattered Clouds,partlycloudy,0,0,0,0,0,0,AAXX 14094 48380 32466 72703 10339 20232 39969 40060 57026 81976 333 59003
7:00 PM +07 on August 14,2017,2017,8,14,19,0,Asia/Bangkok,32,90,25,76,57,0,0,,,,,14,9,1006,29.72,-999,-999,-9999,-9999,,,Overcast,cloudy,0,0,0,0,0,0,AAXX 14124 48380 32564 80000 10325 20247 39972 40064 52004 81577 333 10354 59002
10:00 PM +07 on August 14,2017,2017,8,14,22,0,Asia/Bangkok,29,85,25,77,72,0,0,,,,,10,6,1008,29.78,-999,-999,-9999,-9999,,,Scattered Clouds,partlycloudy,0,0,0,0,0,0,AAXX 14154 48380 32560 70000 10294 20251 39992 40085 52020 81536 333 59012
1:00 AM +07 on August 15,2017,2017,8,15,1,0,Asia/Bangkok,29,84,24,74,66,7.4,4.6,,,240,WSW,7,4,1008,29.78,-999,-999,-9999,-9999,,,Mist,hazy,0,0,0,0,0,0,AAXX 14184 48376 31557 62404 10288 20236 39939 40082 56004 71022 82516 333 59013
4:00 AM +07 on August 15,2017,2017,8,15,4,0,Asia/Bangkok,29,84,24,74,66,7.4,4.6,,,240,WSW,7,4,1008,29.78,-999,-999,-9999,-9999,,,Mist,hazy,0,0,0,0,0,0,AAXX 14214 48376 31557 62404 10288 20236 39939 40082 56004 71022 82516 333 59013
7:00 AM +07 on August 15,2017,2017,8,15,7,0,Asia/Bangkok,28,83,24,75,70,11.1,6.9,,,250,WSW,8,5,1008,29.76,-999,-999,-9999,-9999,,,Mist,hazy,0,0,0,0,0,0,AAXX 15004 48376 31558 62506 10283 20238 39933 40076 51009 71022 83516 333 20273 59018
10:00 AM +07 on August 15,2017,2017,8,15,10,0,Asia/Bangkok,32,90,24,75,53,16.7,10.4,,,260,West,12,7,1008,29.78,-999,-999,-9999,-9999,,,Scattered Clouds,partlycloudy,0,0,0,0,0,0,AAXX 15034 48376 32562 22609 10322 20239 39942 40084 51009 82205 333 59022
1:00 PM +07 on August 15,2017,2017,8,15,13,0,Asia/Bangkok,34,94,23,73,41,22.2,13.8,,,270,West,12,7,1006,29.7,-999,-999,-9999,-9999,,,Partly Cloudy,partlycloudy,0,0,0,0,0,0,AAXX 15064 48376 32562 62712 10345 20228 39918 40058 57024 83936 333 59026
4:00 PM +07 on August 15,2017,2017,8,15,16,0,Asia/Bangkok,31,87,24,75,60,13,8.1,,,270,West,10,6,1005,29.67,-999,-999,-9999,-9999,,,Overcast,cloudy,0,0,0,0,0,0,AAXX 15094 48376 32560 82707 10308 20239 39904 40046 57014 8652/ 333 59011
7:00 PM +07 on August 15,2017,2017,8,15,19,0,Asia/Bangkok,29,84,24,75,68,5.6,3.5,,,260,West,10,6,1006,29.7,-999,-999,-9999,-9999,,,Overcast,cloudy,0,0,0,0,0,0,AAXX 15124 48376 32560 82603 10290 20239 39914 40057 52010 8552/ 333 10350 59012
10:00 PM +07 on August 15,2017,2017,8,15,22,0,Asia/Bangkok,28,83,24,74,69,5.6,3.5,,,260,West,8,5,1008,29.77,-999,-999,-9999,-9999,,,Mist,hazy,0,0,0,0,0,0,AAXX 15154 48376 31558 82603 10283 20235 39936 40079 52022 71022 8652/ 333 59008
1:00 AM +07 on August 16,2017,2017,8,16,1,0,Asia/Bangkok,26,78,24,76,90,0,0,,,,,10,6,1007,29.75,-999,-999,-9999,-9999,,,Partly Cloudy,partlycloudy,0,0,0,0,0,0,AAXX 15184 48380 11560 40000 10257 20242 39978 40072 57011 60273 70162 81101 333 59010 70267
4:00 AM +07 on August 16,2017,2017,8,16,4,0,Asia/Bangkok,25,77,23,74,88,0,0,,,,,10,6,1006,29.71,-999,-999,-9999,-9999,,,Clear,clear,0,0,0,0,0,0,AAXX 15214 48380 32960 40000 10250 20234 39965 40059 57013 80005 333 59013
7:00 AM +07 on August 16,2017,2017,8,16,7,0,Asia/Bangkok,25,77,24,76,95,0,0,,,,,10,6,1007,29.73,-999,-999,-9999,-9999,,,Overcast,cloudy,0,0,0,0,0,0,AAXX 16004 48380 12660 80000 10251 20244 39973 40067 52008 60274 86507 333 20246 59011 70267
10:00 AM +07 on August 16,2017,2017,8,16,10,0,Asia/Bangkok,29,84,24,76,70,3.7,2.3,,,100,East,12,7,1008,29.77,-999,-999,-9999,-9999,,,Scattered Clouds,partlycloudy,0,0,0,0,0,0,AAXX 16034 48380 32562 61002 10290 20243 39987 40080 51014 82106 333 59005
1:00 PM +07 on August 16,2017,2017,8,16,13,0,Asia/Bangkok,32,89,25,76,59,5.6,3.5,,,90,East,12,7,1006,29.7,-999,-999,-9999,-9999,,,Partly Cloudy,partlycloudy,0,0,0,0,0,0,AAXX 16064 48380 32562 60903 10317 20247 39963 40055 57025 84202 333 59006 70267
4:00 PM +07 on August 16,2017,2017,8,16,16,0,Asia/Bangkok,25,77,23,73,85,1.9,1.2,,,330,NNW,8,5,1004,29.65,-999,-999,-9999,-9999,,,Thunderstorms and Rain,tstorms,0,1,0,0,1,0,AAXX 16094 48380 21558 83301 10252 20230 39948 40041 57015 79522 83903 333 59006 60165
7:00 PM +07 on August 16,2017,2017,8,16,19,0,Asia/Bangkok,25,77,24,75,92,3.7,2.3,,,100,East,7,4,1005,29.68,-999,-999,-9999,-9999,,,Light Rain,rain,0,1,0,0,0,0,AAXX 16124 48380 01557 81002 10252 20239 39957 40050 52009 60182 76192 8472/ 333 10325 59012 60027 70180
10:00 PM +07 on August 16,2017,2017,8,16,22,0,Asia/Bangkok,25,77,24,75,92,0,0,,,,,6,4,1007,29.75,-999,-999,-9999,-9999,,,Light Rain,rain,0,1,0,0,0,0,AAXX 16154 48380 21556 80000 10250 20240 39980 40074 50023 76166 8572/ 333 59009 60027
1:00 AM +07 on August 17,2017,2017,8,17,1,0,Asia/Bangkok,25,77,24,76,96,0,0,,,,,4,2,1007,29.73,-999,-999,-9999,-9999,,,Light Rain,rain,0,1,0,0,0,0,AAXX 16184 48376 01540 80000 10248 20245 39921 40066 56007 60133 76162 8652/ 333 59003 60017 70133
4:00 AM +07 on August 17,2017,2017,8,17,4,0,Asia/Bangkok,25,77,24,76,95,0,0,,,,,3,2,1005,29.68,-999,-999,-9999,-9999,,,Mist,hazy,0,0,0,0,0,0,AAXX 16214 48376 21530 80000 10250 20243 39903 40048 57017 71062 8552/ 333 59007 69967
7:00 AM +07 on August 17,2017,2017,8,17,7,0,Asia/Bangkok,25,76,24,75,97,0,0,,,,,3,2,1006,29.71,-999,-999,-9999,-9999,,,Mist,hazy,0,0,0,0,0,0,AAXX 17004 48376 11530 80000 10247 20241 39915 40060 52012 60144 71062 8552/ 333 20238 59008 70139
10:00 AM +07 on August 17,2017,2017,8,17,10,0,Asia/Bangkok,28,82,25,77,81,0,0,,,,,4,2,1008,29.76,-999,-999,-9999,-9999,,,Mist,hazy,0,0,0,0,0,0,AAXX 17034 48376 31540 80000 10276 20250 39934 40077 52018 71022 8652/ 333 58000
1:00 PM +07 on August 17,2017,2017,8,17,13,0,Asia/Bangkok,27,81,26,78,88,3.7,2.3,,,150,SSE,4,2,1006,29.71,-999,-999,-9999,-9999,,,Light Rain,rain,0,1,0,0,0,0,AAXX 17064 48376 01540 81502 10271 20255 39918 40061 57016 60031 76022 8652/ 333 58009 60035 70093
7:00 PM +07 on August 17,2017,2017,8,17,19,0,Asia/Bangkok,27,80,26,78,93,0,0,,,,,8,5,1004,29.67,-999,-999,-9999,-9999,,,Mist,hazy,0,0,0,0,0,0,AAXX 17124 48376 01558 70000 10267 20257 39902 40045 52011 60062 71062 85576 333 10302 59001 60037 70100
10:00 PM +07 on August 17,2017,2017,8,17,22,0,Asia/Bangkok,25,77,24,75,91,0,0,,,,,3,2,1008,29.75,-999,-999,-9999,-9999,,,Thunderstorms and Rain,tstorms,0,1,0,0,1,0,AAXX 17154 48376 21430 80000 10248 20238 39930 40075 52028 79592 85976 333 58002 60085
1:00 AM +07 on August 18,2017,2017,8,18,1,0,Asia/Bangkok,25,77,24,76,95,0,0,,,,,10,6,1007,29.74,-999,-999,-9999,-9999,,,Partly Cloudy,partlycloudy,0,0,0,0,0,0,AAXX 17184 48380 01560 80000 10250 20243 39977 40071 57005 60123 70296 8357/ 333 58001 60017 70123
4:00 AM +07 on August 18,2017,2017,8,18,4,0,Asia/Bangkok,25,77,24,76,95,0,0,,,,,8,5,1006,29.71,-999,-999,-9999,-9999,,,Light Rain,rain,0,1,0,0,0,0,AAXX 17214 48380 21558 80000 10250 20243 39966 40060 57011 76022 8457/ 333 58011 69925
7:00 AM +07 on August 18,2017,2017,8,18,7,0,Asia/Bangkok,25,78,25,76,94,0,0,,,,,10,6,1007,29.74,-999,-999,-9999,-9999,,,Partly Cloudy,partlycloudy,0,0,0,0,0,0,AAXX 18003 48380 01560 80000 10253 20247 39977 40071 52011 60124 70266 83677 333 20244 58011 69917 70121
10:00 AM +07 on August 18,2017,2017,8,18,10,0,Asia/Bangkok,25,78,24,76,92,0,0,,,,,6,4,1009,29.79,-999,-999,-9999,-9999,,,Light Rain,rain,0,1,0,0,0,0,AAXX 18034 48380 21556 80000 10254 20245 39993 40087 52016 76162 8452/ 333 58008 60167
1:00 PM +07 on August 18,2017,2017,8,18,13,0,Asia/Bangkok,30,85,25,77,72,9.3,5.8,,,40,NE,10,6,1008,29.76,-999,-999,-9999,-9999,,,Partly Cloudy,partlycloudy,0,0,0,0,0,0,AAXX 18063 48380 01560 70405 10295 20252 39984 40076 57009 60171 70166 86546 333 58019 60027 70295
4:00 PM +07 on August 18,2017,2017,8,18,16,0,Asia/Bangkok,28,83,25,77,78,9.3,5.8,,,160,SSE,9,6,1006,29.7,-999,-999,-9999,-9999,,,Light Rain,rain,0,1,0,0,0,0,AAXX 18094 48380 21559 71605 10281 20251 39962 40055 57021 76022 86546 333 58022 69905
7:00 PM +07 on August 18,2017,2017,8,18,19,0,Asia/Bangkok,26,78,24,76,91,0,0,,,,,10,6,1006,29.73,-999,-999,-9999,-9999,,,Partly Cloudy,partlycloudy,0,0,0,0,0,0,AAXX 18124 48380 01560 60000 10256 20243 39971 40065 52009 60252 70196 82276 333 10313 58020 60087 70327
10:00 PM +07 on August 18,2017,2017,8,18,22,0,Asia/Bangkok,26,78,25,77,95,0,0,,,,,10,6,1009,29.81,-999,-999,-9999,-9999,,,Partly Cloudy,partlycloudy,0,0,0,0,0,0,AAXX 18154 48380 32560 70000 10258 20249 39999 40093 52028 83576 333 58018
1:00 AM +07 on August 19,2017,2017,8,19,1,0,Asia/Bangkok,26,78,24,76,92,3.7,2.3,,,340,NNW,10,6,1009,29.79,-999,-999,-9999,-9999,,,Partly Cloudy,partlycloudy,0,0,0,0,0,0,AAXX 18184 48380 32560 73402 10255 20245 39993 40087 57006 83576 333 58016 70254
4:00 AM +07 on August 19,2017,2017,8,19,4,0,Asia/Bangkok,25,78,24,76,92,0,0,,,,,10,6,1008,29.77,-999,-999,-9999,-9999,,,Overcast,cloudy,0,0,0,0,0,0,AAXX 18214 48380 32560 80000 10254 20245 39985 40079 57008 82577 333 58019
7:00 AM +07 on August 19,2017,2017,8,19,7,0,Asia/Bangkok,25,78,25,76,94,1.9,1.2,,,240,WSW,12,7,1009,29.79,-999,-999,-9999,-9999,,,Light Rain,rain,0,1,0,0,0,0,AAXX 19004 48380 01562 72401 10254 20247 39992 40086 52007 60264 72162 82576 333 20250 58015 69956 70256
10:00 AM +07 on August 19,2017,2017,8,19,10,0,Asia/Bangkok,28,83,24,75,70,7.4,4.6,,,330,NNW,12,7,1009,29.8,-999,-999,-9999,-9999,,,Scattered Clouds,partlycloudy,0,0,0,0,0,0,AAXX 19034 48380 32562 63304 10283 20238 39996 40089 52005 82236 333 58003
1:00 PM +07 on August 19,2017,2017,8,19,13,0,Asia/Bangkok,32,89,24,76,57,3.7,2.3,,,340,NNW,14,9,1007,29.75,-999,-999,-9999,-9999,,,Mostly Cloudy,mostlycloudy,0,0,0,0,0,0,AAXX 19064 48380 32464 63402 10317 20243 39982 40074 57014 85976 333 59002 70082
4:00 PM +07 on August 19,2017,2017,8,19,16,0,Asia/Bangkok,31,88,25,76,61,0,0,,,,,14,9,1005,29.69,-999,-999,-9999,-9999,,,Scattered Clouds,partlycloudy,0,0,0,0,0,0,AAXX 19094 48380 32464 70000 10313 20246 39963 40054 57020 82978 333 59001
7:00 PM +07 on August 19,2017,2017,8,19,19,0,Asia/Bangkok,29,84,26,79,81,0,0,,,,,12,7,1007,29.73,-999,-999,-9999,-9999,,,Overcast,cloudy,0,0,0,0,0,0,AAXX 19124 48380 31462 80000 10290 20262 39974 40067 52012 71322 82977 333 10318 58002 70005
10:00 PM +07 on August 19,2017,2017,8,19,22,0,Asia/Bangkok,28,82,26,79,87,0,0,,,,,10,6,1009,29.8,-999,-999,-9999,-9999,,,Overcast,cloudy,0,0,0,0,0,0,AAXX 19154 48380 31460 80000 10279 20259 39996 40089 52022 71322 83977 333 59004
1:00 AM +07 on August 20,2017,2017,8,20,1,0,Asia/Bangkok,26,79,25,78,95,3.7,2.3,,,70,ENE,5,3,1008,29.78,-999,-999,-9999,-9999,,,Mist,hazy,0,0,0,0,0,0,AAXX 19184 48376 11550 70702 10260 20254 39939 40084 57009 69923 71062 84576 333 59003 70002
4:00 AM +07 on August 20,2017,2017,8,20,4,0,Asia/Bangkok,26,78,25,77,94,0,0,,,,,5,3,1007,29.73,-999,-999,-9999,-9999,,,Mist,hazy,0,0,0,0,0,0,AAXX 19214 48376 21550 70000 10255 20248 39923 40068 57016 71062 85576 333 59011 60027
7:00 AM +07 on August 20,2017,2017,8,20,7,0,Asia/Bangkok,26,78,25,77,95,0,0,,,,,3,2,1007,29.75,-999,-999,-9999,-9999,,,Light Rain,rain,0,1,0,0,0,0,AAXX 20004 48376 01530 80000 10256 20249 39929 40074 51006 60024 76062 8652/ 333 20245 59014 69905 70018
10:00 AM +07 on August 20,2017,2017,8,20,10,0,Asia/Bangkok,25,78,25,77,94,7.4,4.6,,,230,SW,3,2,1009,29.8,-999,-999,-9999,-9999,,,Light Rain,rain,0,1,0,0,0,0,AAXX 20034 48376 21530 82304 10254 20248 39944 40089 52015 76162 8652/ 333 58002 69986
1:00 PM +07 on August 20,2017,2017,8,20,13,0,Asia/Bangkok,25,77,24,76,94,0,0,,,,,4,2,1007,29.73,-999,-999,-9999,-9999,,,Light Rain,rain,0,1,0,0,0,0,AAXX 20064 48376 01540 80000 10251 20242 39924 40068 57021 60151 76162 8652/ 333 59005 60147 70168
4:00 PM +07 on August 20,2017,2017,8,20,16,0,Asia/Bangkok,28,83,25,77,78,0,0,,,,,8,5,1004,29.65,-999,-999,-9999,-9999,,,Mist,hazy,0,0,0,0,0,0,AAXX 20094 48376 21558 70000 10281 20251 39897 40040 57027 71062 85576 333 59012 69967
7:00 PM +07 on August 20,2017,2017,8,20,19,0,Asia/Bangkok,27,81,26,79,90,0,0,,,,,8,5,1005,29.67,-999,-999,-9999,-9999,,,Mist,hazy,0,0,0,0,0,0,AAXX 20124 48376 11558 70000 10272 20259 39903 40047 51006 60162 71062 85576 333 10287 59020 70174
10:00 PM +07 on August 20,2017,2017,8,20,22,0,Asia/Bangkok,26,79,26,78,95,5.6,3.5,,,290,WNW,8,5,1007,29.74,-999,-999,-9999,-9999,,,Mist,hazy,0,0,0,0,0,0,AAXX 20154 48376 31558 32903 10262 20255 39927 40071 52023 71010 82535 333 59021
1:00 AM +07 on August 21,2017,2017,8,21,1,0,Asia/Bangkok,26,79,25,77,92,0,0,,,,,10,6,1006,29.72,-999,-999,-9999,-9999,,,Overcast,cloudy,0,0,0,0,0,0,AAXX 20183 48380 32560 80000 10260 20251 39969 40063 57010 8357/ 333 59017 70158
4:00 AM +07 on August 21,2017,2017,8,21,4,0,Asia/Bangkok,26,79,25,78,94,0,0,,,,,10,6,1006,29.7,-999,-999,-9999,-9999,,,Overcast,cloudy,0,0,0,0,0,0,AAXX 20214 48380 32460 80000 10260 20253 39964 40057 57005 8557/ 333 59010
7:00 AM +07 on August 21,2017,2017,8,21,7,0,Asia/Bangkok,26,78,25,76,94,1.9,1.2,,,50,NE,4,2,1007,29.73,-999,-999,-9999,-9999,,,Light Rain,rain,0,1,0,0,0,0,AAXX 21003 48380 01540 70501 10257 20247 39973 40067 52009 60174 76022 84136 333 20253 59010 60015 70168
10:00 AM +07 on August 21,2017,2017,8,21,10,0,Asia/Bangkok,29,85,25,77,71,1.9,1.2,,,280,West,12,7,1007,29.75,-999,-999,-9999,-9999,,,Partly Cloudy,partlycloudy,0,0,0,0,0,0,AAXX 21034 48380 32562 62801 10293 20250 39981 40074 50008 84206 333 59018
1:00 PM +07 on August 21,2017,2017,8,21,13,0,Asia/Bangkok,32,89,25,77,60,3.7,2.3,,,100,East,12,7,1005,29.69,-999,-999,-9999,-9999,,,Partly Cloudy,partlycloudy,0,0,0,0,0,0,AAXX 21063 48380 32562 61002 10317 20250 39962 40054 57019 84206 333 59011 70010
4:00 PM +07 on August 21,2017,2017,8,21,16,0,Asia/Bangkok,27,81,25,78,86,0,0,,,,,12,7,1004,29.65,-999,-999,-9999,-9999,,,Thunderstorm,tstorms,0,0,0,0,1,0,AAXX 21094 48380 21562 70000 10270 20253 39945 40038 57017 71792 84903 333 59005 60236
7:00 PM +07 on August 21,2017,2017,8,21,19,0,Asia/Bangkok,26,80,26,78,92,0,0,,,,,10,6,1004,29.67,-999,-999,-9999,-9999,,,Partly Cloudy,partlycloudy,0,0,0,0,0,0,AAXX 21123 48380 11560 80000 10265 20256 39951 40045 52006 60232 70392 83747 333 10324 59002 70240
10:00 PM +07 on August 21,2017,2017,8,21,22,0,Asia/Bangkok,26,79,25,77,93,1.9,1.2,,,30,NNE,10,6,1005,29.69,-999,-999,-9999,-9999,,,Partly Cloudy,partlycloudy,0,0,0,0,0,0,AAXX 21154 48380 21560 50301 10262 20252 39961 40054 52010 70162 83702 333 59018 69937
1:00 AM +07 on August 22,2017,2017,8,22,1,0,Asia/Bangkok,26,78,25,77,94,0,0,,,,,4,2,1007,29.73,-999,-999,-9999,-9999,,,Mist,hazy,0,0,0,0,0,0,AAXX 21184 48376 11540 80000 10255 20248 39923 40067 54000 60223 71092 8552/ 333 58003 70288
4:00 AM +07 on August 22,2017,2017,8,22,4,0,Asia/Bangkok,25,77,24,76,95,0,0,,,,,4,2,1006,29.7,-999,-999,-9999,-9999,,,Mist,hazy,0,0,0,0,0,0,AAXX 21214 48376 31540 80000 10250 20244 39912 40057 57010 71022 8652/ 333 58002
7:00 AM +07 on August 22,2017,2017,8,22,7,0,Asia/Bangkok,25,77,24,76,95,0,0,,,,,6,4,1006,29.71,-999,-999,-9999,-9999,,,Mist,hazy,0,0,0,0,0,0,AAXX 22004 48376 11556 20000 10250 20243 39916 40061 51004 60224 71020 81555 333 20235 59006 70220
10:00 AM +07 on August 22,2017,2017,8,22,10,0,Asia/Bangkok,31,88,24,76,59,9.3,5.8,,,310,NW,10,6,1007,29.73,-999,-999,-9999,-9999,,,Scattered Clouds,partlycloudy,0,0,0,0,0,0,AAXX 22034 48376 32560 23105 10310 20243 39924 40066 51008 81205 333 59008
1:00 PM +07 on August 22,2017,2017,8,22,13,0,Asia/Bangkok,33,91,24,75,50,16.7,10.4,,,270,West,10,6,1006,29.7,-999,-999,-9999,-9999,,,Scattered Clouds,partlycloudy,0,0,0,0,0,0,AAXX 22064 48376 32560 62709 10329 20237 39914 40055 57010 82236 333 58002 70220
4:00 PM +07 on August 22,2017,2017,8,22,16,0,Asia/Bangkok,34,93,24,76,49,11.1,6.9,,,260,West,10,6,1003,29.62,-999,-999,-9999,-9999,,,Scattered Clouds,partlycloudy,0,0,0,0,0,0,AAXX 22094 48376 32560 62606 10338 20244 39890 40030 57024 82516 333 59004
7:00 PM +07 on August 22,2017,2017,8,22,19,0,Asia/Bangkok,29,85,24,74,63,11.1,6.9,,,250,WSW,10,6,1005,29.67,-999,-999,-9999,-9999,,,Scattered Clouds,partlycloudy,0,0,0,0,0,0,AAXX 22124 48376 32560 52506 10292 20235 39904 40047 52014 82536 333 10346 58000 70002
10:00 PM +07 on August 22,2017,2017,8,22,22,0,Asia/Bangkok,28,83,23,74,67,14.8,9.2,,,260,West,8,5,1007,29.74,-999,-999,-9999,-9999,,,Mist,hazy,0,0,0,0,0,0,AAXX 22154 48376 31558 52608 10282 20232 39928 40071 52023 71022 82536 333 58004
1:00 AM +07 on August 23,2017,2017,8,23,1,0,Asia/Bangkok,28,82,22,72,66,9.3,5.8,,,270,West,8,5,1007,29.74,-999,-999,-9999,-9999,,,Mist,hazy,0,0,0,0,0,0,AAXX 22184 48376 31558 22705 10278 20225 39927 40070 56001 71020 82505 333 58003
4:00 AM +07 on August 23,2017,2017,8,23,4,0,Asia/Bangkok,27,81,22,72,69,11.1,6.9,,,260,West,8,5,1006,29.7,-999,-999,-9999,-9999,,,Mist,hazy,0,0,0,0,0,0,AAXX 22214 48376 31558 22606 10272 20225 39912 40056 57014 71000 82505 333 59001
7:00 AM +07 on August 23,2017,2017,8,23,7,0,Asia/Bangkok,27,80,23,73,74,7.4,4.6,,,310,NW,8,5,1007,29.74,-999,-999,-9999,-9999,,,Mist,hazy,0,0,0,0,0,0,AAXX 23004 48376 31558 23104 10266 20229 39925 40069 52012 71000 81205 333 20257 58008
10:00 AM +07 on August 23,2017,2017,8,23,10,0,Asia/Bangkok,31,88,24,75,58,14.8,9.2,,,260,West,12,7,1007,29.74,-999,-999,-9999,-9999,,,Scattered Clouds,partlycloudy,0,0,0,0,0,0,AAXX 23034 48376 32562 22608 10309 20239 39927 40069 51003 82205 333 58003
1:00 PM +07 on August 23,2017,2017,8,23,13,0,Asia/Bangkok,33,92,24,76,51,13,8.1,,,260,West,10,6,1005,29.69,-999,-999,-9999,-9999,,,Scattered Clouds,partlycloudy,0,0,0,0,0,0,AAXX 23064 48376 32560 32607 10333 20243 39911 40052 57016 82234 333 59003
4:00 PM +07 on August 23,2017,2017,8,23,16,0,Asia/Bangkok,34,93,25,77,52,14.8,9.2,,,270,West,10,6,1002,29.6,-999,-999,-9999,-9999,,,Scattered Clouds,partlycloudy,0,0,0,0,0,0,AAXX 23094 48376 32560 22708 10341 20251 39884 40024 57027 82204 333 59007
7:00 PM +07 on August 23,2017,2017,8,23,19,0,Asia/Bangkok,30,86,24,76,64,18.5,11.5,,,260,West,10,6,1003,29.62,-999,-999,-9999,-9999,,,Scattered Clouds,partlycloudy,0,0,0,0,0,0,AAXX 23124 48376 32560 22610 10302 20242 39889 40031 51005 82205 333 10345 59016
10:00 PM +07 on August 23,2017,2017,8,23,22,0,Asia/Bangkok,29,84,24,74,66,13,8.1,,,260,West,8,5,1006,29.71,-999,-999,-9999,-9999,,,Mist,hazy,0,0,0,0,0,0,AAXX 23154 48376 31558 32607 10288 20236 39918 40061 52029 71000 82235 333 59010
1:00 AM +07 on August 24,2017,2017,8,24,1,0,Asia/Bangkok,28,83,23,73,66,14.8,9.2,,,270,West,8,5,1005,29.69,-999,-999,-9999,-9999,,,Mist,hazy,0,0,0,0,0,0,AAXX 23184 48376 31558 22708 10283 20230 39911 40054 56007 71000 82205 333 59016
4:00 AM +07 on August 24,2017,2017,8,24,4,0,Asia/Bangkok,28,83,23,73,64,14.8,9.2,,,260,West,8,5,1005,29.67,-999,-999,-9999,-9999,,,Mist,hazy,0,0,0,0,0,0,AAXX 23214 48376 31558 32608 10282 20226 39904 40046 56007 71000 82535 333 59010
7:00 AM +07 on August 24,2017,2017,8,24,7,0,Asia/Bangkok,28,82,23,73,68,14.8,9.2,,,270,West,8,5,1006,29.7,-999,-999,-9999,-9999,,,Mist,hazy,0,0,0,0,0,0,AAXX 24004 48376 31558 82708 10280 20229 39913 40057 52010 71020 86576 333 20273 59012
1:00 PM +07 on August 24,2017,2017,8,24,13,0,Asia/Bangkok,32,90,24,75,53,18.5,11.5,,,270,West,10,6,1005,29.68,-999,-999,-9999,-9999,,,Partly Cloudy,partlycloudy,0,0,0,0,0,0,AAXX 24064 48376 32560 62710 10325 20239 39909 40050 57012 84556 333 59002
4:00 PM +07 on August 24,2017,2017,8,24,16,0,Asia/Bangkok,31,87,24,76,61,14.8,9.2,,,260,West,10,6,1004,29.65,-999,-999,-9999,-9999,,,Overcast,cloudy,0,0,0,0,0,0,AAXX 24094 48376 32560 82608 10308 20242 39896 40038 57013 85576 333 58014
10:00 PM +07 on August 24,2017,2017,8,24,22,0,Asia/Bangkok,28,82,23,74,71,11.1,6.9,,,260,West,7,4,1006,29.73,-999,-999,-9999,-9999,,,Mist,hazy,0,0,0,0,0,0,AAXX 24154 48376 31557 62606 10279 20234 39922 40065 52027 71022 83536 333 58004
1:00 AM +07 on August 26,2017,2017,8,26,1,0,Asia/Bangkok,26,78,24,76,91,0,0,,,,,6,4,1007,29.73,-999,-999,-9999,-9999,,,Mist,hazy,0,0,0,0,0,0,AAXX 25184 48376 31556 60000 10258 20243 39923 40067 57010 71022 83536 333 58011 70042
4:00 AM +07 on August 26,2017,2017,8,26,4,0,Asia/Bangkok,25,77,24,76,95,0,0,,,,,6,4,1005,29.68,-999,-999,-9999,-9999,,,Mist,hazy,0,0,0,0,0,0,AAXX 25214 48376 31556 60000 10250 20243 39905 40049 57018 71022 82536 333 58000
7:00 AM +07 on August 26,2017,2017,8,26,7,0,Asia/Bangkok,25,77,24,75,92,0,0,,,,,8,5,1006,29.71,-999,-999,-9999,-9999,,,Mist,hazy,0,0,0,0,0,0,AAXX 26004 48376 11558 30000 10249 20239 39914 40059 51009 69924 71020 82555 333 20241 58001 70002
10:00 AM +07 on August 26,2017,2017,8,26,10,0,Asia/Bangkok,30,85,25,76,69,0,0,,,,,10,6,1007,29.74,-999,-999,-9999,-9999,,,Scattered Clouds,partlycloudy,0,0,0,0,0,0,AAXX 26034 48376 32560 60000 10297 20246 39927 40070 52013 82536 333 59003
1:00 PM +07 on August 26,2017,2017,8,26,13,0,Asia/Bangkok,33,91,24,76,53,5.6,3.5,,,260,West,12,7,1005,29.67,-999,-999,-9999,-9999,,,Partly Cloudy,partlycloudy,0,0,0,0,0,0,AAXX 26064 48376 32562 62603 10330 20245 39906 40047 57021 83236 333 59010
4:00 PM +07 on August 26,2017,2017,8,26,16,0,Asia/Bangkok,28,82,26,79,88,0,0,,,,,10,6,1003,29.61,-999,-999,-9999,-9999,,,Thunderstorms and Rain,tstorms,0,1,0,0,1,0,AAXX 26094 48376 21560 80000 10275 20261 39884 40027 57022 79592 84976 333 59015 69965
7:00 PM +07 on August 26,2017,2017,8,26,19,0,Asia/Bangkok,27,81,26,78,88,5.6,3.5,,,90,East,7,4,1005,29.68,-999,-999,-9999,-9999,,,Mist,hazy,0,0,0,0,0,0,AAXX 26124 48376 01557 70903 10273 20256 39904 40048 52021 69982 71096 84576 333 10338 59006 69927 70008
10:00 PM +07 on August 26,2017,2017,8,26,22,0,Asia/Bangkok,27,81,26,78,88,0,0,,,,,6,4,1006,29.72,-999,-999,-9999,-9999,,,Mist,hazy,0,0,0,0,0,0,AAXX 26154 48376 31556 60000 10270 20256 39920 40064 52016 71022 82536 333 59012
1:00 AM +07 on August 27,2017,2017,8,27,1,0,Asia/Bangkok,26,79,25,76,90,0,0,,,,,6,4,1005,29.69,-999,-999,-9999,-9999,,,Mist,hazy,0,0,0,0,0,0,AAXX 26184 48376 31556 50000 10260 20247 39909 40053 57011 71022 82536 333 59014 70008
4:00 AM +07 on August 27,2017,2017,8,27,4,0,Asia/Bangkok,25,77,24,76,95,0,0,,,,,6,4,1004,29.67,-999,-999,-9999,-9999,,,Mist,hazy,0,0,0,0,0,0,AAXX 26214 48376 31556 60000 10250 20243 39901 40045 56008 71022 83536 333 59004
7:00 AM +07 on August 27,2017,2017,8,27,7,0,Asia/Bangkok,26,78,25,76,93,0,0,,,,,8,5,1005,29.69,-999,-999,-9999,-9999,,,Mist,hazy,0,0,0,0,0,0,AAXX 27004 48376 11558 60000 10258 20246 39909 40053 51008 69984 71022 82536 333 20242 59006 70008
10:00 AM +07 on August 27,2017,2017,8,27,10,0,Asia/Bangkok,29,84,26,78,77,3.7,2.3,,,330,NNW,8,5,1007,29.74,-999,-999,-9999,-9999,,,Mist,hazy,0,0,0,0,0,0,AAXX 27034 48376 31558 73302 10290 20255 39926 40069 52017 71022 83536 333 59001
1:00 PM +07 on August 27,2017,2017,8,27,13,0,Asia/Bangkok,28,83,27,80,88,0,0,,,,,6,4,1005,29.68,-999,-999,-9999,-9999,,,Light Rain,rain,0,1,0,0,0,0,AAXX 27064 48376 01556 80000 10283 20266 39906 40049 57020 69961 72162 8652/ 333 58003 69967 70014
4:00 PM +07 on August 27,2017,2017,8,27,16,0,Asia/Bangkok,29,85,26,78,76,0,0,,,,,8,5,1003,29.62,-999,-999,-9999,-9999,,,Mist,hazy,0,0,0,0,0,0,AAXX 27094 48376 21558 80000 10292 20258 39887 40030 57019 71062 8552/ 333 58003 69927
7:00 PM +07 on August 27,2017,2017,8,27,19,0,Asia/Bangkok,28,82,27,80,91,0,0,,,,,7,4,1004,29.66,-999,-999,-9999,-9999,,,Mist,hazy,0,0,0,0,0,0,AAXX 27124 48376 11557 70000 10280 20266 39899 40042 52012 69982 71062 83536 333 10310 59006 70008
10:00 PM +07 on August 27,2017,2017,8,27,22,0,Asia/Bangkok,27,81,26,79,91,0,0,,,,,6,4,1007,29.73,-999,-999,-9999,-9999,,,Mist,hazy,0,0,0,0,0,0,AAXX 27154 48376 31556 60000 10270 20260 39923 40067 52024 71022 83536 333 58002
1:00 AM +07 on August 31,2017,2017,8,31,1,0,Asia/Bangkok,27,81,23,74,73,7.4,4.6,,,260,West,6,4,1009,29.8,-999,-999,-9999,-9999,,,Mist,hazy,0,0,0,0,0,0,AAXX 30184 48376 31556 72604 10274 20232 39945 40089 56002 71022 84576 333 58011 70002
4:00 AM +07 on August 31,2017,2017,8,31,4,0,Asia/Bangkok,27,80,23,74,77,0,0,,,,,7,4,1008,29.76,-999,-999,-9999,-9999,,,Mist,hazy,0,0,0,0,0,0,AAXX 30214 48376 31557 60000 10268 20234 39934 40078 57011 71022 83536 333 58018
7:00 AM +07 on August 31,2017,2017,8,31,7,0,Asia/Bangkok,26,79,24,75,85,0,0,,,,,6,4,1009,29.81,-999,-999,-9999,-9999,,,Mist,hazy,0,0,0,0,0,0,AAXX 31004 48376 31556 60000 10260 20240 39948 40093 52014 71022 82536 333 20250 58021
10:00 AM +07 on August 31,2017,2017,8,31,10,0,Asia/Bangkok,30,86,25,77,68,5.6,3.5,,,120,ESE,10,6,1011,29.85,-999,-999,-9999,-9999,,,Partly Cloudy,partlycloudy,0,0,0,0,0,0,AAXX 31034 48376 32560 61203 10300 20250 39964 40107 52016 83236 333 58015
1:00 PM +07 on August 31,2017,2017,8,31,13,0,Asia/Bangkok,33,92,25,77,53,5.6,3.5,,,50,NE,10,6,1008,29.76,-999,-999,-9999,-9999,,,Partly Cloudy,partlycloudy,0,0,0,0,0,0,AAXX 31064 48376 32560 60503 10334 20248 39937 40078 57027 83936 333 58003
4:00 PM +07 on August 31,2017,2017,8,31,16,0,Asia/Bangkok,32,89,27,81,70,5.6,3.5,,,170,South,6,4,1005,29.68,-999,-999,-9999,-9999,,,Mist,hazy,0,0,0,0,0,0,AAXX 31094 48376 21556 61703 10317 20270 39910 40051 57027 71062 83966 333 58003 60026
7:00 PM +07 on August 31,2017,2017,8,31,19,0,Asia/Bangkok,28,83,26,78,82,5.6,3.5,,,160,SSE,7,4,1007,29.74,-999,-999,-9999,-9999,,,Mist,hazy,0,0,0,0,0,0,AAXX 31124 48376 11557 61603 10281 20258 39928 40071 52018 60022 71096 83966 333 10350 58000 70016
10:00 PM +07 on August 31,2017,2017,8,31,22,0,Asia/Bangkok,27,81,25,77,85,5.6,3.5,,,260,West,7,4,1009,29.81,-999,-999,-9999,-9999,,,Mist,hazy,0,0,0,0,0,0,AAXX 31154 48376 31557 52603 10270 20251 39949 40093 52021 71022 82536 333 58002
1:00 AM +07 on August 09,2017,2017,8,9,1,0,Asia/Bangkok,28,82,24,75,73,7.4,4.6,,,250,WSW,7,4,1010,29.82,-999,-999,-9999,-9999,,,Mist,hazy,0,0,0,0,0,0,AAXX 08184 48376 31557 62504 10279 20237 39952 40096 56002 71022 84536 333 59001 70002
4:00 AM +07 on August 09,2017,2017,8,9,4,0,Asia/Bangkok,27,80,24,76,83,0,0,,,,,6,4,1009,29.8,-999,-999,-9999,-9999,,,Mist,hazy,0,0,0,0,0,0,AAXX 08214 48376 31556 70000 10266 20243 39946 40090 56007 71022 84556 333 58000
7:00 AM +07 on August 09,2017,2017,8,9,7,0,Asia/Bangkok,25,78,25,76,93,0,0,,,,,7,4,1010,29.83,-999,-999,-9999,-9999,,,Mist,hazy,0,0,0,0,0,0,AAXX 09004 48376 01557 80000 10253 20246 39957 40102 52011 60024 71062 8652/ 333 20247 58004 60027 70018
10:00 AM +07 on August 09,2017,2017,8,9,10,0,Asia/Bangkok,29,84,26,78,79,3.7,2.3,,,130,SE,12,7,1011,29.86,-999,-999,-9999,-9999,,,Partly Cloudy,partlycloudy,0,0,0,0,0,0,AAXX 09034 48376 32562 61302 10290 20258 39965 40109 51009 83236 333 58001
1:00 PM +07 on August 09,2017,2017,8,9,13,0,Asia/Bangkok,32,90,24,74,51,14.8,9.2,,,280,West,12,7,1009,29.81,-999,-999,-9999,-9999,,,Partly Cloudy,partlycloudy,0,0,0,0,0,0,AAXX 09064 48376 32562 62808 10323 20235 39951 40092 57015 83546 333 58004 70016
4:00 PM +07 on August 09,2017,2017,8,9,16,0,Asia/Bangkok,33,91,24,75,51,18.5,11.5,,,280,West,10,6,1007,29.73,-999,-999,-9999,-9999,,,Scattered Clouds,partlycloudy,0,0,0,0,0,0,AAXX 09094 48376 32560 52810 10330 20240 39926 40067 57024 82536 333 58007
7:00 PM +07 on August 09,2017,2017,8,9,19,0,Asia/Bangkok,30,85,23,74,63,11.1,6.9,,,260,West,10,6,1008,29.76,-999,-999,-9999,-9999,,,Partly Cloudy,partlycloudy,0,0,0,0,0,0,AAXX 09124 48376 32560 62606 10295 20234 39933 40076 51007 83236 333 10336 58003 70016
10:00 PM +07 on August 09,2017,2017,8,9,22,0,Asia/Bangkok,28,83,23,74,67,11.1,6.9,,,270,West,10,6,1010,29.83,-999,-999,-9999,-9999,,,Scattered Clouds,partlycloudy,0,0,0,0,0,0,AAXX 09154 48376 32560 62706 10283 20232 39956 40100 52023 82536 333 58002
1:00 AM +07 on August 13,2017,2017,8,13,1,0,Asia/Bangkok,28,83,23,73,64,11.1,6.9,,,250,WSW,7,4,1009,29.8,-999,-999,-9999,-9999,,,Mist,hazy,0,0,0,0,0,0,AAXX 12184 48376 31557 22506 10283 20227 39948 40091 51001 71020 82205 333 59004
4:00 AM +07 on August 13,2017,2017,8,13,4,0,Asia/Bangkok,28,82,23,73,67,9.3,5.8,,,260,West,6,4,1008,29.77,-999,-999,-9999,-9999,,,Mist,hazy,0,0,0,0,0,0,AAXX 12214 48376 31556 82605 10277 20227 39938 40081 57010 71021 85576 333 59007
7:00 AM +07 on August 13,2017,2017,8,13,7,0,Asia/Bangkok,28,82,23,73,67,5.6,3.5,,,210,SSW,10,6,1009,29.8,-999,-999,-9999,-9999,,,Scattered Clouds,partlycloudy,0,0,0,0,0,0,AAXX 13004 48376 32560 52103 10277 20227 39946 40090 51009 82516 333 20265 58000
10:00 AM +07 on August 13,2017,2017,8,13,10,0,Asia/Bangkok,32,89,24,75,55,14.8,9.2,,,270,West,12,7,1010,29.84,-999,-999,-9999,-9999,,,Scattered Clouds,partlycloudy,0,0,0,0,0,0,AAXX 13034 48376 32562 52708 10318 20238 39961 40103 52015 82556 333 58000
1:00 PM +07 on August 13,2017,2017,8,13,13,0,Asia/Bangkok,34,93,24,76,48,11.1,6.9,,,260,West,12,7,1009,29.79,-999,-999,-9999,-9999,,,Partly Cloudy,partlycloudy,0,0,0,0,0,0,AAXX 13064 48376 32562 62606 10340 20242 39945 40086 57016 83236 333 58001
4:00 PM +07 on August 13,2017,2017,8,13,16,0,Asia/Bangkok,34,92,23,73,45,16.7,10.4,,,260,West,10,6,1006,29.72,-999,-999,-9999,-9999,,,Partly Cloudy,partlycloudy,0,0,0,0,0,0,AAXX 13094 48376 32560 62609 10336 20229 39924 40064 57022 83236 333 58006
7:00 PM +07 on August 13,2017,2017,8,13,19,0,Asia/Bangkok,31,88,24,75,57,9.3,5.8,,,260,West,10,6,1007,29.74,-999,-999,-9999,-9999,,,Scattered Clouds,partlycloudy,0,0,0,0,0,0,AAXX 13124 48376 32560 52605 10310 20238 39927 40069 51004 82536 333 10350 58007
10:00 PM +07 on August 13,2017,2017,8,13,22,0,Asia/Bangkok,29,85,25,76,69,13,8.1,,,270,West,10,6,1010,29.81,-999,-999,-9999,-9999,,,Scattered Clouds,partlycloudy,0,0,0,0,0,0,AAXX 13154 48376 32560 22707 10294 20247 39952 40095 52025 82505 333 58005
1:00 AM +07 on August 25,2017,2017,8,25,1,0,Asia/Bangkok,27,81,25,77,85,0,0,,,,,10,6,1006,29.7,-999,-999,-9999,-9999,,,Scattered Clouds,partlycloudy,0,0,0,0,0,0,AAXX 24183 48380 32560 70000 10270 20251 39962 40055 57010 82546 333 58002
4:00 AM +07 on August 25,2017,2017,8,25,4,0,Asia/Bangkok,26,79,25,77,92,0,0,,,,,10,6,1005,29.68,-999,-999,-9999,-9999,,,Scattered Clouds,partlycloudy,0,0,0,0,0,0,AAXX 24214 48380 32560 70000 10260 20250 39955 40048 57007 82546 333 58001
7:00 AM +07 on August 25,2017,2017,8,25,7,0,Asia/Bangkok,26,78,25,76,93,3.7,2.3,,,80,East,12,7,1006,29.71,-999,-999,-9999,-9999,,,Overcast,cloudy,0,0,0,0,0,0,AAXX 25003 48380 32462 80802 10255 20246 39966 40059 52010 8477/ 333 20255 58004
10:00 AM +07 on August 25,2017,2017,8,25,10,0,Asia/Bangkok,28,82,25,77,79,3.7,2.3,,,20,NNE,14,9,1008,29.75,-999,-999,-9999,-9999,,,Overcast,cloudy,0,0,0,0,0,0,AAXX 25034 48380 32564 80202 10280 20248 39982 40075 52016 8357/ 333 58012
1:00 PM +07 on August 25,2017,2017,8,25,13,0,Asia/Bangkok,32,89,26,78,63,7.4,4.6,,,40,NE,16,10,1005,29.69,-999,-999,-9999,-9999,,,Partly Cloudy,partlycloudy,0,0,0,0,0,0,AAXX 25063 48380 32466 70404 10318 20255 39963 40054 57019 83976 333 59002
4:00 PM +07 on August 25,2017,2017,8,25,16,0,Asia/Bangkok,32,89,25,77,60,5.6,3.5,,,350,North,10,6,1003,29.63,-999,-999,-9999,-9999,,,Thunderstorms and Rain,tstorms,0,1,0,0,1,0,AAXX 25094 48380 21460 83503 10317 20249 39943 40034 57020 79522 8697/ 333 59003 69905
7:00 PM +07 on August 25,2017,2017,8,25,19,0,Asia/Bangkok,26,78,24,76,91,5.6,3.5,,,120,ESE,9,6,1005,29.69,-999,-999,-9999,-9999,,,Light Rain,rain,0,1,0,0,0,0,AAXX 25123 48380 01559 81203 10255 20243 39960 40053 52017 60112 76196 8457/ 333 10330 58015 60117 70110
10:00 PM +07 on August 25,2017,2017,8,25,22,0,Asia/Bangkok,25,77,24,75,91,7.4,4.6,,,190,South,8,5,1008,29.76,-999,-999,-9999,-9999,,,Light Rain,rain,0,1,0,0,0,0,AAXX 25154 48380 21258 81904 10250 20238 39984 40078 52024 76166 8657/ 333 58014 60027
1:00 AM +07 on August 28,2017,2017,8,28,1,0,Asia/Bangkok,27,80,25,77,89,0,0,,,,,10,6,1007,29.73,-999,-999,-9999,-9999,,,Thunderstorm,tstorms,0,0,0,0,1,0,AAXX 27183 48380 11560 60000 10266 20252 39974 40068 52001 60033 71762 82906 333 58013 70034
4:00 AM +07 on August 28,2017,2017,8,28,4,0,Asia/Bangkok,26,79,25,77,93,1.9,1.2,,,320,NW,10,6,1006,29.7,-999,-999,-9999,-9999,,,Partly Cloudy,partlycloudy,0,0,0,0,0,0,AAXX 27214 48380 31560 83201 10262 20252 39965 40058 57009 70392 84707 333 58016
7:00 AM +07 on August 28,2017,2017,8,28,7,0,Asia/Bangkok,25,77,24,75,92,1.9,1.2,,,50,NE,11,7,1007,29.73,-999,-999,-9999,-9999,,,Partly Cloudy,partlycloudy,0,0,0,0,0,0,AAXX 28003 48380 11561 60501 10252 20240 39973 40067 52008 60034 70192 81736 333 20247 58014 70034
10:00 AM +07 on August 28,2017,2017,8,28,10,0,Asia/Bangkok,29,84,25,76,72,3.7,2.3,,,290,WNW,14,9,1008,29.75,-999,-999,-9999,-9999,,,Scattered Clouds,partlycloudy,0,0,0,0,0,0,AAXX 28034 48380 32564 62902 10290 20246 39982 40075 50009 81132 333 58009
1:00 PM +07 on August 28,2017,2017,8,28,13,0,Asia/Bangkok,33,91,25,77,55,0,0,,,,,14,9,1005,29.68,-999,-999,-9999,-9999,,,Partly Cloudy,partlycloudy,0,0,0,0,0,0,AAXX 28063 48380 32564 60000 10330 20248 39959 40050 57024 84202 333 59004 70004
4:00 PM +07 on August 28,2017,2017,8,28,16,0,Asia/Bangkok,32,89,24,76,57,3.7,2.3,,,190,South,14,9,1003,29.63,-999,-999,-9999,-9999,,,Partly Cloudy,partlycloudy,0,0,0,0,0,0,AAXX 28094 48380 32564 71902 10318 20244 39942 40034 57017 84206 333 58009
7:00 PM +07 on August 28,2017,2017,8,28,19,0,Asia/Bangkok,29,84,24,76,70,5.6,3.5,,,170,South,12,7,1004,29.66,-999,-999,-9999,-9999,,,Partly Cloudy,partlycloudy,0,0,0,0,0,0,AAXX 28123 48380 01562 81703 10290 20243 39952 40044 52010 69972 70362 81747 333 10343 58000 69977 70009
10:00 PM +07 on August 28,2017,2017,8,28,22,0,Asia/Bangkok,28,82,26,78,85,0,0,,,,,10,6,1007,29.74,-999,-999,-9999,-9999,,,Clear,clear,0,0,0,0,0,0,AAXX 28154 48380 32960 70000 10277 20257 39976 40069 52024 80007 333 58003
1:00 AM +07 on August 29,2017,2017,8,29,1,0,Asia/Bangkok,27,81,23,74,74,13,8.1,,,260,West,7,4,1007,29.73,-999,-999,-9999,-9999,,,Mist,hazy,0,0,0,0,0,0,AAXX 28184 48376 31557 22607 10274 20233 39923 40066 56001 71020 82505 333 58003 70040
4:00 AM +07 on August 29,2017,2017,8,29,4,0,Asia/Bangkok,27,81,23,73,71,13,8.1,,,250,WSW,7,4,1005,29.69,-999,-999,-9999,-9999,,,Mist,hazy,0,0,0,0,0,0,AAXX 28214 48376 31557 62507 10272 20228 39910 40054 57013 71020 83556 333 59008
7:00 AM +07 on August 29,2017,2017,8,29,7,0,Asia/Bangkok,28,82,23,73,68,11.1,6.9,,,280,West,8,5,1007,29.74,-999,-999,-9999,-9999,,,Mist,hazy,0,0,0,0,0,0,AAXX 29004 48376 11558 62806 10275 20228 39927 40070 52017 69904 71020 83516 333 20265 58004 79999
10:00 AM +07 on August 29,2017,2017,8,29,10,0,Asia/Bangkok,30,87,24,75,60,16.7,10.4,,,260,West,10,6,1008,29.77,-999,-999,-9999,-9999,,,Partly Cloudy,partlycloudy,0,0,0,0,0,0,AAXX 29034 48376 32560 62609 10305 20240 39938 40080 52011 83536 333 58009
1:00 PM +07 on August 29,2017,2017,8,29,13,0,Asia/Bangkok,31,87,22,72,54,18.5,11.5,,,270,West,10,6,1007,29.74,-999,-999,-9999,-9999,,,Overcast,cloudy,0,0,0,0,0,0,AAXX 29064 48376 32560 82710 10307 20225 39928 40070 57010 85576 333 58025 79999
4:00 PM +07 on August 29,2017,2017,8,29,16,0,Asia/Bangkok,31,88,24,76,59,14.8,9.2,,,270,West,10,6,1004,29.66,-999,-999,-9999,-9999,,,Partly Cloudy,partlycloudy,0,0,0,0,0,0,AAXX 29094 48376 32560 62708 10312 20242 39901 40042 57027 84556 333 58013
7:00 PM +07 on August 29,2017,2017,8,29,19,0,Asia/Bangkok,28,83,24,75,70,13,8.1,,,250,WSW,9,6,1006,29.71,-999,-999,-9999,-9999,,,Mist,hazy,0,0,0,0,0,0,AAXX 29124 48376 31559 62507 10283 20237 39916 40059 52015 71022 84556 333 10320 58015
10:00 PM +07 on August 29,2017,2017,8,29,22,0,Asia/Bangkok,28,83,22,72,61,13,8.1,,,270,West,8,5,1008,29.77,-999,-999,-9999,-9999,,,Mist,hazy,0,0,0,0,0,0,AAXX 29154 48376 31558 62707 10281 20220 39938 40081 52022 71022 82536 333 58014
1:00 AM +07 on August 30,2017,2017,8,30,1,0,Asia/Bangkok,27,80,26,78,92,0,0,,,,,10,6,1008,29.75,-999,-999,-9999,-9999,,,Scattered Clouds,partlycloudy,0,0,0,0,0,0,AAXX 29184 48380 32560 70000 10269 20256 39982 40075 57006 82546 333 58010
4:00 AM +07 on August 30,2017,2017,8,30,4,0,Asia/Bangkok,26,80,25,77,86,0,0,,,,,10,6,1006,29.73,-999,-999,-9999,-9999,,,Overcast,cloudy,0,0,0,0,0,0,AAXX 29214 48380 32560 80000 10264 20248 39972 40065 57010 82277 333 58008
7:00 AM +07 on August 30,2017,2017,8,30,7,0,Asia/Bangkok,26,78,24,75,88,0,0,,,,,10,6,1007,29.75,-999,-999,-9999,-9999,,,Scattered Clouds,partlycloudy,0,0,0,0,0,0,AAXX 30003 48380 32560 70000 10258 20239 39980 40073 52008 82576 333 20253 58005
10:00 AM +07 on August 30,2017,2017,8,30,10,0,Asia/Bangkok,28,83,24,76,73,3.7,2.3,,,300,WNW,12,7,1009,29.81,-999,-999,-9999,-9999,,,Scattered Clouds,partlycloudy,0,0,0,0,0,0,AAXX 30034 48380 32562 63002 10284 20242 30000 40093 52020 82576 333 58012
1:00 PM +07 on August 30,2017,2017,8,30,13,0,Asia/Bangkok,30,86,25,77,67,5.6,3.5,,,310,NW,12,7,1008,29.76,-999,-999,-9999,-9999,,,Overcast,cloudy,0,0,0,0,0,0,AAXX 30063 48380 32562 83103 10302 20248 39983 40076 57017 83277 333 58008
4:00 PM +07 on August 30,2017,2017,8,30,16,0,Asia/Bangkok,30,86,25,77,68,5.6,3.5,,,300,WNW,12,7,1005,29.69,-999,-999,-9999,-9999,,,Scattered Clouds,partlycloudy,0,0,0,0,0,0,AAXX 30094 48380 32562 63003 10300 20250 39960 40052 57024 82546 333 58005
7:00 PM +07 on August 30,2017,2017,8,30,19,0,Asia/Bangkok,30,86,24,76,66,3.7,2.3,,,90,East,10,6,1007,29.74,-999,-999,-9999,-9999,,,Overcast,cloudy,0,0,0,0,0,0,AAXX 30123 48380 32560 80902 10299 20245 39979 40071 52019 83577 333 10310 58017
10:00 PM +07 on August 30,2017,2017,8,30,22,0,Asia/Bangkok,28,82,25,78,83,3.7,2.3,,,210,SSW,10,6,1009,29.8,-999,-999,-9999,-9999,,,Overcast,cloudy,0,0,0,0,0,0,AAXX 30154 48380 32560 82102 10280 20254 39998 40091 52020 82547 333 58011
1:00 AM +07 on August 08,2017,2017,8,8,1,0,Asia/Bangkok,26,79,25,77,92,0,0,,,,,4,2,1010,29.82,-999,-999,-9999,-9999,,,Mist,hazy,0,0,0,0,0,0,AAXX 07184 48376 11540 60000 10260 20251 39952 40097 56005 69983 71062 82536 333 58010 70012
4:00 AM +07 on August 08,2017,2017,8,8,4,0,Asia/Bangkok,25,77,24,76,94,0,0,,,,,5,3,1009,29.8,-999,-999,-9999,-9999,,,Mist,hazy,0,0,0,0,0,0,AAXX 07214 48376 31550 60000 10252 20242 39945 40090 56007 71022 83436 333 58005
7:00 AM +07 on August 08,2017,2017,8,8,7,0,Asia/Bangkok,25,77,24,76,94,0,0,,,,,6,4,1010,29.82,-999,-999,-9999,-9999,,,Mist,hazy,0,0,0,0,0,0,AAXX 08004 48376 11556 60000 10251 20242 39953 40098 51008 69984 71022 82536 333 20245 58007 70008
10:00 AM +07 on August 08,2017,2017,8,8,10,0,Asia/Bangkok,31,87,24,76,63,5.6,3.5,,,260,West,10,6,1011,29.85,-999,-999,-9999,-9999,,,Partly Cloudy,partlycloudy,0,0,0,0,0,0,AAXX 08034 48376 32560 62603 10308 20245 39966 40108 52013 83536 333 58001
1:00 PM +07 on August 08,2017,2017,8,8,13,0,Asia/Bangkok,33,91,25,77,55,9.3,5.8,,,250,WSW,10,6,1009,29.79,-999,-999,-9999,-9999,,,Partly Cloudy,partlycloudy,0,0,0,0,0,0,AAXX 08064 48376 01560 62505 10330 20249 39947 40088 57019 69921 70362 83536 333 59006 69927 70003
4:00 PM +07 on August 08,2017,2017,8,8,16,0,Asia/Bangkok,32,90,25,77,58,0,0,,,,,10,6,1006,29.71,-999,-999,-9999,-9999,,,Partly Cloudy,partlycloudy,0,0,0,0,0,0,AAXX 08094 48376 32560 60000 10325 20250 39920 40061 57027 83536 333 59009
7:00 PM +07 on August 08,2017,2017,8,8,19,0,Asia/Bangkok,30,86,25,77,68,5.6,3.5,,,270,West,10,6,1007,29.75,-999,-999,-9999,-9999,,,Partly Cloudy,partlycloudy,0,0,0,0,0,0,AAXX 08124 48376 32560 62703 10302 20249 39930 40073 52010 83536 333 10335 59006 70003
10:00 PM +07 on August 08,2017,2017,8,8,22,0,Asia/Bangkok,28,83,24,74,69,5.6,3.5,,,250,WSW,8,5,1010,29.82,-999,-999,-9999,-9999,,,Mist,hazy,0,0,0,0,0,0,AAXX 08154 48376 31558 62503 10282 20235 39954 40098 52024 71022 83536 333 59004
1:00 AM +07 on September 01,2017,2017,9,1,1,0,Asia/Bangkok,28,82,23,73,67,11.1,6.9,,,260,West,7,4,1009,29.8,-999,-999,-9999,-9999,,,Mist,hazy,0,0,0,0,0,0,AAXX 31184 48376 31557 72606 10280 20227 39945 40089 56004 71021 84556 333 58000 70016
4:00 AM +07 on September 01,2017,2017,9,1,4,0,Asia/Bangkok,27,81,23,73,72,5.6,3.5,,,260,West,7,4,1008,29.77,-999,-999,-9999,-9999,,,Mist,hazy,0,0,0,0,0,0,AAXX 31214 48376 31557 22603 10274 20230 39937 40081 56008 71010 82505 333 58003
7:00 AM +07 on September 01,2017,2017,9,1,7,0,Asia/Bangkok,28,82,23,73,67,11.1,6.9,,,260,West,8,5,1009,29.81,-999,-999,-9999,-9999,,,Mist,hazy,0,0,0,0,0,0,AAXX 01004 48376 11558 72606 10277 20227 39948 40092 52011 60024 71021 84576 333 20257 59001 70016
10:00 AM +07 on September 01,2017,2017,9,1,10,0,Asia/Bangkok,30,85,23,73,61,16.7,10.4,,,270,West,8,5,1011,29.86,-999,-999,-9999,-9999,,,Mist,hazy,0,0,0,0,0,0,AAXX 01034 48376 31558 62709 10296 20230 39967 40110 52019 71022 83236 333 58003
1:00 PM +07 on September 01,2017,2017,9,1,13,0,Asia/Bangkok,32,89,24,74,54,22.2,13.8,,,270,West,10,6,1009,29.79,-999,-999,-9999,-9999,,,Scattered Clouds,partlycloudy,0,0,0,0,0,0,AAXX 01064 48376 32560 62712 10315 20236 39947 40088 57020 82256 333 58010 70016
4:00 PM +07 on September 01,2017,2017,9,1,16,0,Asia/Bangkok,33,91,24,75,51,13,8.1,,,270,West,12,7,1006,29.7,-999,-999,-9999,-9999,,,Scattered Clouds,partlycloudy,0,0,0,0,0,0,AAXX 01094 48376 32562 52707 10330 20238 39917 40058 57029 82236 333 58007
7:00 PM +07 on September 01,2017,2017,9,1,19,0,Asia/Bangkok,29,85,23,74,62,14.8,9.2,,,260,West,10,6,1007,29.74,-999,-999,-9999,-9999,,,Scattered Clouds,partlycloudy,0,0,0,0,0,0,AAXX 01124 48376 32560 22608 10293 20233 39928 40071 52011 82205 333 10334 58000
10:00 PM +07 on September 01,2017,2017,9,1,22,0,Asia/Bangkok,28,83,24,75,70,7.4,4.6,,,280,West,8,5,1009,29.81,-999,-999,-9999,-9999,,,Mist,hazy,0,0,0,0,0,0,AAXX 01154 48376 31558 62804 10284 20238 39948 40092 52020 71021 83536 333 59001
1:00 AM +07 on August 12,2017,2017,8,12,1,0,Asia/Bangkok,25,78,24,75,87,0,0,,,,,10,6,1009,29.81,-999,-999,-9999,-9999,,,Scattered Clouds,partlycloudy,0,0,0,0,0,0,AAXX 11184 48380 32560 30000 10254 20238 39998 40092 52004 81545 333 58003 70090
4:00 AM +07 on August 12,2017,2017,8,12,4,0,Asia/Bangkok,25,77,24,74,90,0,0,,,,,10,6,1008,29.78,-999,-999,-9999,-9999,,,Scattered Clouds,partlycloudy,0,0,0,0,0,0,AAXX 11214 48380 32560 60000 10251 20236 39990 40084 57008 81556 333 58000
7:00 AM +07 on August 12,2017,2017,8,12,7,0,Asia/Bangkok,25,77,24,76,95,3.7,2.3,,,220,SW,12,7,1009,29.8,-999,-999,-9999,-9999,,,Scattered Clouds,partlycloudy,0,0,0,0,0,0,AAXX 12004 48380 12562 62202 10251 20244 39997 40091 52007 60094 81146 333 20245 58002 70090
10:00 AM +07 on August 12,2017,2017,8,12,10,0,Asia/Bangkok,31,88,23,74,54,5.6,3.5,,,10,North,15,9,1010,29.83,-999,-999,-9999,-9999,,,Scattered Clouds,partlycloudy,0,0,0,0,0,0,AAXX 12034 48380 32565 40103 10312 20232 30008 40101 52012 81145 333 58003
1:00 PM +07 on August 12,2017,2017,8,12,13,0,Asia/Bangkok,34,93,23,74,44,5.6,3.5,,,320,NW,15,9,1009,29.8,-999,-999,-9999,-9999,,,Mostly Cloudy,mostlycloudy,0,0,0,0,0,0,AAXX 12064 48380 32565 63203 10340 20232 39998 40089 57011 85542 333 58005 70090
4:00 PM +07 on August 12,2017,2017,8,12,16,0,Asia/Bangkok,35,95,23,73,40,5.6,3.5,,,340,NNW,15,9,1006,29.71,-999,-999,-9999,-9999,,,Scattered Clouds,partlycloudy,0,0,0,0,0,0,AAXX 12094 48380 32565 63403 10348 20228 39970 40061 57027 82146 333 58002
7:00 PM +07 on August 12,2017,2017,8,12,19,0,Asia/Bangkok,32,90,24,75,52,7.4,4.6,,,280,West,12,7,1006,29.7,-999,-999,-9999,-9999,,,Scattered Clouds,partlycloudy,0,0,0,0,0,0,AAXX 12124 48380 32562 72804 10325 20237 39966 40057 57005 81246 333 10352 59009
10:00 PM +07 on August 12,2017,2017,8,12,22,0,Asia/Bangkok,30,86,25,77,67,0,0,,,,,10,6,1009,29.79,-999,-999,-9999,-9999,,,Scattered Clouds,partlycloudy,0,0,0,0,0,0,AAXX 12154 48380 32560 60000 10298 20248 39995 40087 52029 81246 333 58000
1:00 AM +07 on September 01,2017,2017,9,1,1,0,Asia/Bangkok,28,82,23,73,67,11.1,6.9,,,260,West,7,4,1009,29.8,-999,-999,-9999,-9999,,,Mist,hazy,0,0,0,0,0,0,AAXX 31184 48376 31557 72606 10280 20227 39945 40089 56004 71021 84556 333 58000 70016
4:00 AM +07 on September 01,2017,2017,9,1,4,0,Asia/Bangkok,27,81,23,73,72,5.6,3.5,,,260,West,7,4,1008,29.77,-999,-999,-9999,-9999,,,Mist,hazy,0,0,0,0,0,0,AAXX 31214 48376 31557 22603 10274 20230 39937 40081 56008 71010 82505 333 58003
7:00 AM +07 on September 01,2017,2017,9,1,7,0,Asia/Bangkok,28,82,23,73,67,11.1,6.9,,,260,West,8,5,1009,29.81,-999,-999,-9999,-9999,,,Mist,hazy,0,0,0,0,0,0,AAXX 01004 48376 11558 72606 10277 20227 39948 40092 52011 60024 71021 84576 333 20257 59001 70016
10:00 AM +07 on September 01,2017,2017,9,1,10,0,Asia/Bangkok,30,85,23,73,61,16.7,10.4,,,270,West,8,5,1011,29.86,-999,-999,-9999,-9999,,,Mist,hazy,0,0,0,0,0,0,AAXX 01034 48376 31558 62709 10296 20230 39967 40110 52019 71022 83236 333 58003
1:00 PM +07 on September 01,2017,2017,9,1,13,0,Asia/Bangkok,32,89,24,74,54,22.2,13.8,,,270,West,10,6,1009,29.79,-999,-999,-9999,-9999,,,Scattered Clouds,partlycloudy,0,0,0,0,0,0,AAXX 01064 48376 32560 62712 10315 20236 39947 40088 57020 82256 333 58010 70016
4:00 PM +07 on September 01,2017,2017,9,1,16,0,Asia/Bangkok,33,91,24,75,51,13,8.1,,,270,West,12,7,1006,29.7,-999,-999,-9999,-9999,,,Scattered Clouds,partlycloudy,0,0,0,0,0,0,AAXX 01094 48376 32562 52707 10330 20238 39917 40058 57029 82236 333 58007
7:00 PM +07 on September 01,2017,2017,9,1,19,0,Asia/Bangkok,29,85,23,74,62,14.8,9.2,,,260,West,10,6,1007,29.74,-999,-999,-9999,-9999,,,Scattered Clouds,partlycloudy,0,0,0,0,0,0,AAXX 01124 48376 32560 22608 10293 20233 39928 40071 52011 82205 333 10334 58000
10:00 PM +07 on September 01,2017,2017,9,1,22,0,Asia/Bangkok,28,83,24,75,70,7.4,4.6,,,280,West,8,5,1009,29.81,-999,-999,-9999,-9999,,,Mist,hazy,0,0,0,0,0,0,AAXX 01154 48376 31558 62804 10284 20238 39948 40092 52020 71021 83536 333 59001
1:00 AM +07 on September 01,2017,2017,9,1,1,0,Asia/Bangkok,28,82,23,73,67,11.1,6.9,,,260,West,7,4,1009,29.8,-999,-999,-9999,-9999,,,Mist,hazy,0,0,0,0,0,0,AAXX 31184 48376 31557 72606 10280 20227 39945 40089 56004 71021 84556 333 58000 70016
4:00 AM +07 on September 01,2017,2017,9,1,4,0,Asia/Bangkok,27,81,23,73,72,5.6,3.5,,,260,West,7,4,1008,29.77,-999,-999,-9999,-9999,,,Mist,hazy,0,0,0,0,0,0,AAXX 31214 48376 31557 22603 10274 20230 39937 40081 56008 71010 82505 333 58003
7:00 AM +07 on September 01,2017,2017,9,1,7,0,Asia/Bangkok,28,82,23,73,67,11.1,6.9,,,260,West,8,5,1009,29.81,-999,-999,-9999,-9999,,,Mist,hazy,0,0,0,0,0,0,AAXX 01004 48376 11558 72606 10277 20227 39948 40092 52011 60024 71021 84576 333 20257 59001 70016
10:00 AM +07 on September 01,2017,2017,9,1,10,0,Asia/Bangkok,30,85,23,73,61,16.7,10.4,,,270,West,8,5,1011,29.86,-999,-999,-9999,-9999,,,Mist,hazy,0,0,0,0,0,0,AAXX 01034 48376 31558 62709 10296 20230 39967 40110 52019 71022 83236 333 58003
1:00 PM +07 on September 01,2017,2017,9,1,13,0,Asia/Bangkok,32,89,24,74,54,22.2,13.8,,,270,West,10,6,1009,29.79,-999,-999,-9999,-9999,,,Scattered Clouds,partlycloudy,0,0,0,0,0,0,AAXX 01064 48376 32560 62712 10315 20236 39947 40088 57020 82256 333 58010 70016
4:00 PM +07 on September 01,2017,2017,9,1,16,0,Asia/Bangkok,33,91,24,75,51,13,8.1,,,270,West,12,7,1006,29.7,-999,-999,-9999,-9999,,,Scattered Clouds,partlycloudy,0,0,0,0,0,0,AAXX 01094 48376 32562 52707 10330 20238 39917 40058 57029 82236 333 58007
7:00 PM +07 on September 01,2017,2017,9,1,19,0,Asia/Bangkok,29,85,23,74,62,14.8,9.2,,,260,West,10,6,1007,29.74,-999,-999,-9999,-9999,,,Scattered Clouds,partlycloudy,0,0,0,0,0,0,AAXX 01124 48376 32560 22608 10293 20233 39928 40071 52011 82205 333 10334 58000
10:00 PM +07 on September 01,2017,2017,9,1,22,0,Asia/Bangkok,28,83,24,75,70,7.4,4.6,,,280,West,8,5,1009,29.81,-999,-999,-9999,-9999,,,Mist,hazy,0,0,0,0,0,0,AAXX 01154 48376 31558 62804 10284 20238 39948 40092 52020 71021 83536 333 59001
1:00 AM +07 on September 02,2017,2017,9,2,1,0,Asia/Bangkok,28,82,23,74,71,9.3,5.8,,,260,West,8,5,1008,29.78,-999,-999,-9999,-9999,,,Mist,hazy,0,0,0,0,0,0,AAXX 01184 48376 31558 62605 10279 20234 39940 40084 56008 71021 83536 333 59005
4:00 AM +07 on September 02,2017,2017,9,2,4,0,Asia/Bangkok,27,81,23,73,72,0,0,,,,,7,4,1007,29.75,-999,-999,-9999,-9999,,,Mist,hazy,0,0,0,0,0,0,AAXX 01214 48376 31557 20000 10273 20230 39928 40072 57012 71010 82505 333 59009
10:00 AM +07 on September 02,2017,2017,9,2,10,0,Asia/Bangkok,30,86,24,76,65,13,8.1,,,270,West,10,6,1009,29.81,-999,-999,-9999,-9999,,,Partly Cloudy,partlycloudy,0,0,0,0,0,0,AAXX 02034 48376 32560 62707 10300 20243 39951 40093 52010 83236 333 59016
1:00 PM +07 on September 02,2017,2017,9,2,13,0,Asia/Bangkok,32,89,24,74,54,11.1,6.9,,,300,WNW,10,6,1008,29.76,-999,-999,-9999,-9999,,,Overcast,cloudy,0,0,0,0,0,0,AAXX 02064 48376 32560 83006 10316 20235 39937 40078 57014 83976 333 59010
4:00 PM +07 on September 02,2017,2017,9,2,16,0,Asia/Bangkok,32,90,24,75,54,18.5,11.5,,,260,West,10,6,1005,29.69,-999,-999,-9999,-9999,,,Partly Cloudy,partlycloudy,0,0,0,0,0,0,AAXX 02094 48376 32560 62610 10320 20241 39912 40053 57024 83936 333 59005
7:00 PM +07 on September 02,2017,2017,9,2,19,0,Asia/Bangkok,29,84,24,74,66,13,8.1,,,270,West,10,6,1007,29.73,-999,-999,-9999,-9999,,,Scattered Clouds,partlycloudy,0,0,0,0,0,0,AAXX 02124 48376 32560 52707 10290 20235 39924 40067 52012 82536 333 10336 59004
10:00 PM +07 on September 02,2017,2017,9,2,22,0,Asia/Bangkok,28,83,23,74,68,13,8.1,,,280,West,7,4,1009,29.8,-999,-999,-9999,-9999,,,Mist,hazy,0,0,0,0,0,0,AAXX 02154 48376 31557 32807 10285 20234 39945 40089 52021 71010 82535 333 59003
1:00 AM +07 on September 03,2017,2017,9,3,1,0,Asia/Bangkok,28,82,23,73,69,9.3,5.8,,,270,West,7,4,1008,29.76,-999,-999,-9999,-9999,,,Mist,hazy,0,0,0,0,0,0,AAXX 02184 48376 31557 32705 10278 20230 39933 40077 57012 71010 82555 333 59007
4:00 AM +07 on September 03,2017,2017,9,3,4,0,Asia/Bangkok,27,81,23,74,74,7.4,4.6,,,260,West,6,4,1006,29.72,-999,-999,-9999,-9999,,,Mist,hazy,0,0,0,0,0,0,AAXX 02214 48376 31556 62604 10270 20233 39921 40064 57012 71020 83536 333 59008
7:00 AM +07 on September 03,2017,2017,9,3,7,0,Asia/Bangkok,27,81,23,74,74,0,0,,,,,8,5,1008,29.76,-999,-999,-9999,-9999,,,Mist,hazy,0,0,0,0,0,0,AAXX 03004 48376 31558 50000 10270 20233 39933 40076 52012 71020 82236 333 20260 59008
1:00 PM +07 on September 03,2017,2017,9,3,13,0,Asia/Bangkok,32,90,25,76,57,13,8.1,,,260,West,10,6,1008,29.76,-999,-999,-9999,-9999,,,Partly Cloudy,partlycloudy,0,0,0,0,0,0,AAXX 03064 48376 32560 62607 10322 20247 39934 40076 57015 84536 333 59003
4:00 PM +07 on September 03,2017,2017,9,3,16,0,Asia/Bangkok,32,90,25,77,58,18.5,11.5,,,260,West,10,6,1005,29.68,-999,-999,-9999,-9999,,,Scattered Clouds,partlycloudy,0,0,0,0,0,0,AAXX 03094 48376 32560 22610 10325 20250 39908 40049 57026 82205 333 59004
10:00 PM +07 on September 03,2017,2017,9,3,22,0,Asia/Bangkok,29,84,23,74,65,13,8.1,,,260,West,8,5,1008,29.77,-999,-999,-9999,-9999,,,Mist,hazy,0,0,0,0,0,0,AAXX 03154 48376 31558 22607 10291 20234 39938 40081 52022 71000 81505 333 59008
1:00 AM +07 on September 08,2017,2017,9,8,1,0,Asia/Bangkok,26,78,25,77,97,0,0,,,,,4,2,1011,29.85,-999,-999,-9999,-9999,,,Light Rain,rain,0,1,0,0,0,0,AAXX 07184 48376 01540 80000 10258 20252 39961 40106 56005 60073 76162 8652/ 333 58031 60036 70072
4:00 AM +07 on September 08,2017,2017,9,8,4,0,Asia/Bangkok,25,78,25,77,96,0,0,,,,,2,1,1009,29.81,-999,-999,-9999,-9999,,,Mist,hazy,0,0,0,0,0,0,AAXX 07214 48376 21520 80000 10254 20251 39949 40094 57012 71062 8552/ 333 58012 60017
7:00 AM +07 on September 08,2017,2017,9,8,7,0,Asia/Bangkok,25,77,25,77,99,0,0,,,,,2,1,1010,29.84,-999,-999,-9999,-9999,,,Mist,hazy,0,0,0,0,0,0,AAXX 08004 48376 11520 80000 10252 20249 39958 40103 51009 60084 71062 8652/ 333 20244 58013 70080
10:00 AM +07 on September 08,2017,2017,9,8,10,0,Asia/Bangkok,30,86,26,78,72,3.7,2.3,,,240,WSW,10,6,1011,29.86,-999,-999,-9999,-9999,,,Scattered Clouds,partlycloudy,0,0,0,0,0,0,AAXX 08034 48376 32560 52402 10301 20257 39969 40112 52011 82236 333 58005
1:00 PM +07 on September 08,2017,2017,9,8,13,0,Asia/Bangkok,32,90,26,78,60,5.6,3.5,,,90,East,10,6,1010,29.82,-999,-999,-9999,-9999,,,Partly Cloudy,partlycloudy,0,0,0,0,0,0,AAXX 08064 48376 32560 70903 10320 20255 39955 40097 57014 84976 333 58015 70048
4:00 PM +07 on September 08,2017,2017,9,8,16,0,Asia/Bangkok,32,89,26,79,67,11.1,6.9,,,190,South,12,7,1007,29.74,-999,-999,-9999,-9999,,,Partly Cloudy,partlycloudy,0,0,0,0,0,0,AAXX 08094 48376 32562 61906 10317 20263 39927 40069 57028 83956 333 58009
7:00 PM +07 on September 08,2017,2017,9,8,19,0,Asia/Bangkok,30,85,26,80,79,0,0,,,,,10,6,1007,29.75,-999,-999,-9999,-9999,,,Scattered Clouds,partlycloudy,0,0,0,0,0,0,AAXX 08124 48376 32560 60000 10295 20264 39931 40074 51004 82536 333 10335 59008 70038
10:00 PM +07 on September 08,2017,2017,9,8,22,0,Asia/Bangkok,28,83,27,80,88,0,0,,,,,7,4,1010,29.81,-999,-999,-9999,-9999,,,Mist,hazy,0,0,0,0,0,0,AAXX 08154 48376 31557 60000 10283 20266 39951 40095 52020 71022 83536 333 59015
1:00 AM +07 on September 10,2017,2017,9,10,1,0,Asia/Bangkok,28,83,25,78,79,0,0,,,,,7,4,1009,29.79,-999,-999,-9999,-9999,,,Overcast,cloudy,0,0,0,0,0,0,AAXX 09184 48376 31557 80000 10283 20253 39945 40088 56009 71322 85976 333 59003
4:00 AM +07 on September 10,2017,2017,9,10,4,0,Asia/Bangkok,28,82,25,78,83,0,0,,,,,6,4,1009,29.79,-999,-999,-9999,-9999,,,Mist,hazy,0,0,0,0,0,0,AAXX 09214 48376 31556 80000 10278 20254 39943 40086 56002 71022 8652/ 333 58014
7:00 AM +07 on September 10,2017,2017,9,10,7,0,Asia/Bangkok,26,79,25,78,95,0,0,,,,,2,1,1010,29.84,-999,-999,-9999,-9999,,,Light Rain,rain,0,1,0,0,0,0,AAXX 10004 48376 01520 80000 10260 20254 39958 40103 52016 60014 72162 8652/ 333 20251 58010 60017 70012
10:00 AM +07 on September 10,2017,2017,9,10,10,0,Asia/Bangkok,29,84,26,79,81,5.6,3.5,,,60,ENE,4,2,1011,29.86,-999,-999,-9999,-9999,,,Mist,hazy,0,0,0,0,0,0,AAXX 10034 48376 31540 80603 10289 20262 39968 40112 52010 71022 86576 333 58013
1:00 PM +07 on September 10,2017,2017,9,10,13,0,Asia/Bangkok,33,91,26,79,61,5.6,3.5,,,90,East,8,5,1010,29.82,-999,-999,-9999,-9999,,,Mist,hazy,0,0,0,0,0,0,AAXX 10064 48376 31558 60903 10326 20262 39955 40096 57013 71022 84976 333 58020 70012
4:00 PM +07 on September 10,2017,2017,9,10,16,0,Asia/Bangkok,32,90,27,81,69,0,0,,,,,4,2,1007,29.73,-999,-999,-9999,-9999,,,Partly Cloudy,partlycloudy,0,0,0,0,0,0,AAXX 10094 48376 31540 60000 10322 20272 39926 40067 57029 71622 84936 333 58020
7:00 PM +07 on September 10,2017,2017,9,10,19,0,Asia/Bangkok,27,81,26,78,90,0,0,,,,,6,4,1008,29.78,-999,-999,-9999,-9999,,,Mist,hazy,0,0,0,0,0,0,AAXX 10124 48376 01556 70000 10271 20258 39940 40084 52014 60092 71092 84976 333 10340 58021 60097 70100
10:00 PM +07 on September 10,2017,2017,9,10,22,0,Asia/Bangkok,26,80,26,78,93,0,0,,,,,6,4,1011,29.86,-999,-999,-9999,-9999,,,Mist,hazy,0,0,0,0,0,0,AAXX 10154 48376 31556 70000 10265 20258 39964 40109 52024 71022 84976 333 58011
1:00 AM +07 on September 11,2017,2017,9,11,1,0,Asia/Bangkok,26,78,25,77,94,0,0,,,,,6,4,1010,29.82,-999,-999,-9999,-9999,,,Mist,hazy,0,0,0,0,0,0,AAXX 10184 48376 31556 70000 10258 20248 39951 40096 57013 71022 84576 333 58008 70100
4:00 AM +07 on September 11,2017,2017,9,11,4,0,Asia/Bangkok,25,77,25,76,97,0,0,,,,,5,3,1009,29.81,-999,-999,-9999,-9999,,,Mist,hazy,0,0,0,0,0,0,AAXX 10214 48376 31550 60000 10252 20246 39949 40094 56002 71022 83536 333 58008
7:00 AM +07 on September 11,2017,2017,9,11,7,0,Asia/Bangkok,25,77,25,76,98,0,0,,,,,10,6,1010,29.82,-999,-999,-9999,-9999,,,Mist,hazy,0,0,0,0,0,0,AAXX 11004 48376 11560 50000 10251 20247 39952 40098 51004 60094 71022 82536 333 20243 59005 70088
10:00 AM +07 on September 11,2017,2017,9,11,10,0,Asia/Bangkok,31,88,25,76,61,0,0,,,,,12,7,1010,29.83,-999,-999,-9999,-9999,,,Scattered Clouds,partlycloudy,0,0,0,0,0,0,AAXX 11034 48376 32562 20000 10312 20247 39960 40102 51008 82305 333 59009
1:00 PM +07 on September 11,2017,2017,9,11,13,0,Asia/Bangkok,35,96,26,79,50,5.6,3.5,,,80,East,12,7,1008,29.78,-999,-999,-9999,-9999,,,Scattered Clouds,partlycloudy,0,0,0,0,0,0,AAXX 11064 48376 32562 20803 10353 20263 39943 40083 57017 82905 333 59013 70088
4:00 PM +07 on September 11,2017,2017,9,11,16,0,Asia/Bangkok,25,77,25,76,98,0,0,,,,,3,2,1008,29.78,-999,-999,-9999,-9999,,,Thunderstorms and Rain,tstorms,0,1,0,0,1,0,AAXX 11094 48376 21430 80000 10250 20247 39937 40082 56007 79592 8592/ 333 58014 60105
7:00 PM +07 on September 11,2017,2017,9,11,19,0,Asia/Bangkok,26,80,26,78,93,0,0,,,,,5,3,1009,29.8,-999,-999,-9999,-9999,,,Mist,hazy,0,0,0,0,0,0,AAXX 11124 48376 01550 80000 10265 20258 39944 40089 51008 60112 71092 84576 333 10357 58005 60017 70109
10:00 PM +07 on September 11,2017,2017,9,11,22,0,Asia/Bangkok,26,79,25,78,94,0,0,,,,,5,3,1011,29.86,-999,-999,-9999,-9999,,,Mist,hazy,0,0,0,0,0,0,AAXX 11154 48376 31550 70000 10260 20253 39967 40112 52023 71022 83576 333 58004
1:00 AM +07 on September 20,2017,2017,9,20,1,0,Asia/Bangkok,28,82,24,75,73,0,0,,,,,6,4,1009,29.81,-999,-999,-9999,-9999,,,Mist,hazy,0,0,0,0,0,0,AAXX 19184 48376 31556 30000 10278 20237 39949 40093 56006 71010 82535 333 59019
4:00 AM +07 on September 20,2017,2017,9,20,4,0,Asia/Bangkok,27,81,22,72,69,5.6,3.5,,,280,West,6,4,1008,29.78,-999,-999,-9999,-9999,,,Mist,hazy,0,0,0,0,0,0,AAXX 19214 48376 31556 22803 10271 20225 39939 40083 57010 71000 82505 333 59021
7:00 AM +07 on September 20,2017,2017,9,20,7,0,Asia/Bangkok,26,78,24,75,88,0,0,,,,,8,5,1009,29.81,-999,-999,-9999,-9999,,,Mist,hazy,0,0,0,0,0,0,AAXX 20004 48376 31958 20000 10256 20240 39948 40093 51009 71000 80005 333 20240 59015
10:00 AM +07 on September 20,2017,2017,9,20,10,0,Asia/Bangkok,31,87,23,74,56,3.7,2.3,,,330,NNW,10,6,1010,29.83,-999,-999,-9999,-9999,,,Scattered Clouds,partlycloudy,0,0,0,0,0,0,AAXX 20034 48376 32560 23302 10308 20231 39958 40101 52010 82205 333 59014
1:00 PM +07 on September 20,2017,2017,9,20,13,0,Asia/Bangkok,35,95,26,78,50,0,0,,,,,12,7,1008,29.78,-999,-999,-9999,-9999,,,Scattered Clouds,partlycloudy,0,0,0,0,0,0,AAXX 20064 48376 32562 30000 10348 20256 39942 40083 57016 82205 333 59005
4:00 PM +07 on September 20,2017,2017,9,20,16,0,Asia/Bangkok,35,95,26,78,50,0,0,,,,,12,7,1006,29.7,-999,-999,-9999,-9999,,,Scattered Clouds,partlycloudy,0,0,0,0,0,0,AAXX 20094 48376 32562 20000 10348 20256 39916 40056 57027 82905 333 59010
7:00 PM +07 on September 20,2017,2017,9,20,19,0,Asia/Bangkok,31,88,25,78,65,11.1,6.9,,,270,West,10,6,1006,29.73,-999,-999,-9999,-9999,,,Clear,clear,0,0,0,0,0,0,AAXX 20124 48376 32960 22706 10310 20254 39923 40065 51008 80005 333 10350 59016
10:00 PM +07 on September 20,2017,2017,9,20,22,0,Asia/Bangkok,29,85,24,76,68,9.3,5.8,,,260,West,7,4,1009,29.79,-999,-999,-9999,-9999,,,Mist,hazy,0,0,0,0,0,0,AAXX 20154 48376 31957 22605 10294 20245 39945 40088 52022 71000 80005 333 59011
1:00 AM +07 on September 21,2017,2017,9,21,1,0,Asia/Bangkok,29,84,25,77,73,0,0,,,,,7,4,1008,29.78,-999,-999,-9999,-9999,,,Mist,hazy,0,0,0,0,0,0,AAXX 20184 48376 31557 60000 10288 20248 39941 40084 56004 71020 83536 333 59009
4:00 AM +07 on September 21,2017,2017,9,21,4,0,Asia/Bangkok,27,81,25,78,87,0,0,,,,,7,4,1007,29.73,-999,-999,-9999,-9999,,,Mist,hazy,0,0,0,0,0,0,AAXX 20214 48376 31557 60000 10274 20254 39924 40068 57017 71022 83536 333 59015
7:00 AM +07 on September 21,2017,2017,9,21,7,0,Asia/Bangkok,26,80,25,77,86,0,0,,,,,8,5,1008,29.76,-999,-999,-9999,-9999,,,Mist,hazy,0,0,0,0,0,0,AAXX 21004 48376 31558 60000 10264 20248 39932 40076 51008 71022 83556 333 20254 59017
10:00 AM +07 on September 21,2017,2017,9,21,10,0,Asia/Bangkok,32,90,26,78,61,0,0,,,,,10,6,1008,29.77,-999,-999,-9999,-9999,,,Scattered Clouds,partlycloudy,0,0,0,0,0,0,AAXX 21034 48376 32560 20000 10320 20257 39939 40081 51007 81235 333 59020
1:00 PM +07 on September 21,2017,2017,9,21,13,0,Asia/Bangkok,35,94,26,79,55,0,0,,,,,10,6,1005,29.69,-999,-999,-9999,-9999,,,Partly Cloudy,partlycloudy,0,0,0,0,0,0,AAXX 21064 48376 32560 60000 10346 20263 39914 40054 57025 84936 333 59028
4:00 PM +07 on September 21,2017,2017,9,21,16,0,Asia/Bangkok,32,90,24,75,54,5.6,3.5,,,270,West,10,6,1004,29.64,-999,-999,-9999,-9999,,,Thunderstorm,tstorms,0,0,0,0,1,0,AAXX 21094 48376 31560 62703 10320 20241 39895 40036 57019 71722 82976 333 59019
7:00 PM +07 on September 21,2017,2017,9,21,19,0,Asia/Bangkok,24,76,24,76,98,7.4,4.6,,,200,SSW,1.5,1,1006,29.73,-999,-999,-9999,-9999,,,Heavy Thunderstorms and Rain,tstorms,0,1,0,0,1,0,AAXX 21124 48376 01415 82004 10245 20242 39920 40065 52025 61102 79792 8592/ 333 10358 58000 61107 71100
10:00 PM +07 on September 21,2017,2017,9,21,22,0,Asia/Bangkok,25,77,24,76,94,0,0,,,,,4,2,1008,29.78,-999,-999,-9999,-9999,,,Mist,hazy,0,0,0,0,0,0,AAXX 21154 48376 21540 80000 10248 20242 39938 40083 51019 71092 8652/ 333 59004 60027
1:00 AM +07 on September 23,2017,2017,9,23,1,0,Asia/Bangkok,26,80,26,78,93,0,0,,,,,6,4,1009,29.8,-999,-999,-9999,-9999,,,Mist,hazy,0,0,0,0,0,0,AAXX 22184 48376 31556 60000 10265 20258 39944 40089 56001 71022 82536 333 58011
4:00 AM +07 on September 23,2017,2017,9,23,4,0,Asia/Bangkok,26,79,25,77,91,0,0,,,,,7,4,1008,29.77,-999,-999,-9999,-9999,,,Mist,hazy,0,0,0,0,0,0,AAXX 22214 48376 31557 20000 10259 20249 39934 40079 57010 71010 82505 333 58008
7:00 AM +07 on September 23,2017,2017,9,23,7,0,Asia/Bangkok,26,78,25,77,96,0,0,,,,,4,2,1009,29.79,-999,-999,-9999,-9999,,,Mist,hazy,0,0,0,0,0,0,AAXX 23004 48376 31540 80000 10256 20250 39943 40088 51009 71021 8652/ 333 20248 58006
10:00 AM +07 on September 23,2017,2017,9,23,10,0,Asia/Bangkok,28,82,25,76,78,0,0,,,,,4,2,1011,29.86,-999,-999,-9999,-9999,,,Mist,hazy,0,0,0,0,0,0,AAXX 23034 48376 31540 80000 10275 20246 39967 40111 52024 71022 8652/ 333 58015
1:00 PM +07 on September 23,2017,2017,9,23,13,0,Asia/Bangkok,27,81,26,78,90,7.4,4.6,,,280,West,5,3,1010,29.82,-999,-999,-9999,-9999,,,Light Rain,rain,0,1,0,0,0,0,AAXX 23064 48376 01550 72804 10271 20258 39954 40098 57014 60051 72162 84576 333 58023 60056 70045
4:00 PM +07 on September 23,2017,2017,9,23,16,0,Asia/Bangkok,31,88,26,78,67,0,0,,,,,8,5,1006,29.72,-999,-999,-9999,-9999,,,Mist,hazy,0,0,0,0,0,0,AAXX 23094 48376 31558 50000 10311 20258 39921 40063 57032 71022 82936 333 58011
7:00 PM +07 on September 23,2017,2017,9,23,19,0,Asia/Bangkok,26,79,25,77,93,0,0,,,,,4,2,1007,29.75,-999,-999,-9999,-9999,,,Mist,hazy,0,0,0,0,0,0,AAXX 23124 48376 01540 80000 10261 20252 39928 40072 51007 60082 71092 8652/ 333 10320 58004 60036 70075
10:00 PM +07 on September 23,2017,2017,9,23,22,0,Asia/Bangkok,26,78,25,78,98,3.7,2.3,,,80,East,4,2,1010,29.83,-999,-999,-9999,-9999,,,Light Rain,rain,0,1,0,0,0,0,AAXX 23154 48376 21540 80802 10256 20253 39954 40099 52026 76022 8652/ 333 58010 69925
1:00 AM +07 on September 25,2017,2017,9,25,1,0,Asia/Bangkok,26,79,25,77,90,0,0,,,,,5,3,1007,29.73,-999,-999,-9999,-9999,,,Mist,hazy,0,0,0,0,0,0,AAXX 24184 48376 31550 60000 10260 20248 39924 40068 56004 71022 83536 333 59025 70002
4:00 AM +07 on September 25,2017,2017,9,25,4,0,Asia/Bangkok,26,78,25,77,94,0,0,,,,,6,4,1006,29.7,-999,-999,-9999,-9999,,,Mist,hazy,0,0,0,0,0,0,AAXX 24214 48376 31556 60000 10255 20248 39912 40056 57012 71022 83536 333 59021
7:00 AM +07 on September 25,2017,2017,9,25,7,0,Asia/Bangkok,26,79,25,78,94,0,0,,,,,6,4,1006,29.73,-999,-999,-9999,-9999,,,Mist,hazy,0,0,0,0,0,0,AAXX 25004 48376 11556 60000 10260 20253 39921 40065 51009 69924 71022 83536 333 20246 59017 70002
10:00 AM +07 on September 25,2017,2017,9,25,10,0,Asia/Bangkok,31,88,27,80,72,0,0,,,,,10,6,1007,29.74,-999,-999,-9999,-9999,,,Scattered Clouds,partlycloudy,0,0,0,0,0,0,AAXX 25034 48376 32560 50000 10310 20267 39928 40070 51007 82336 333 59027
1:00 PM +07 on September 25,2017,2017,9,25,13,0,Asia/Bangkok,33,92,26,79,57,5.6,3.5,,,50,NE,10,6,1005,29.68,-999,-999,-9999,-9999,,,Scattered Clouds,partlycloudy,0,0,0,0,0,0,AAXX 25064 48376 32560 60503 10333 20259 39909 40050 57018 82336 333 59021
4:00 PM +07 on September 25,2017,2017,9,25,16,0,Asia/Bangkok,32,90,28,82,71,5.6,3.5,,,100,East,8,5,1003,29.61,-999,-999,-9999,-9999,,,Mist,hazy,0,0,0,0,0,0,AAXX 25094 48376 31558 61003 10324 20276 39886 40027 57024 71022 83936 333 59016
7:00 PM +07 on September 25,2017,2017,9,25,19,0,Asia/Bangkok,30,86,28,82,83,0,0,,,,,7,4,1004,29.66,-999,-999,-9999,-9999,,,Mist,hazy,0,0,0,0,0,0,AAXX 25124 48376 31557 60000 10300 20275 39900 40042 52014 71022 83916 333 10337 59010
10:00 PM +07 on September 25,2017,2017,9,25,22,0,Asia/Bangkok,28,82,25,78,83,0,0,,,,,7,4,1007,29.75,-999,-999,-9999,-9999,,,Mist,hazy,0,0,0,0,0,0,AAXX 25154 48376 31557 60000 10279 20253 39928 40072 52029 71022 83516 333 58000
1:00 AM +07 on September 28,2017,2017,9,28,1,0,Asia/Bangkok,28,82,24,74,72,7.4,4.6,,,250,WSW,7,4,1010,29.81,-999,-999,-9999,-9999,,,Mist,hazy,0,0,0,0,0,0,AAXX 27184 48376 11557 62504 10280 20235 39952 40095 57004 69903 71062 84536 333 58003 79999
4:00 AM +07 on September 28,2017,2017,9,28,4,0,Asia/Bangkok,26,80,23,74,76,3.7,2.3,,,300,WNW,7,4,1009,29.79,-999,-999,-9999,-9999,,,Mist,hazy,0,0,0,0,0,0,AAXX 27214 48376 31557 53002 10265 20231 39944 40088 57008 71022 82536 333 58007
7:00 AM +07 on September 28,2017,2017,9,28,7,0,Asia/Bangkok,26,79,23,74,79,5.6,3.5,,,300,WNW,8,5,1010,29.84,-999,-999,-9999,-9999,,,Mist,hazy,0,0,0,0,0,0,AAXX 28004 48376 11558 53003 10262 20231 39958 40103 52014 69904 71022 82536 333 20253 58002 79999
10:00 AM +07 on September 28,2017,2017,9,28,10,0,Asia/Bangkok,32,89,23,74,53,7.4,4.6,,,290,WNW,12,7,1010,29.84,-999,-999,-9999,-9999,,,Scattered Clouds,partlycloudy,0,0,0,0,0,0,AAXX 28034 48376 32562 22904 10318 20234 39962 40104 51004 81205 333 59007
1:00 PM +07 on September 28,2017,2017,9,28,13,0,Asia/Bangkok,34,92,24,76,50,11.1,6.9,,,300,WNW,10,6,1008,29.77,-999,-999,-9999,-9999,,,Scattered Clouds,partlycloudy,0,0,0,0,0,0,AAXX 28064 48376 32560 23006 10335 20242 39940 40081 57022 82205 333 59011 79999
4:00 PM +07 on September 28,2017,2017,9,28,16,0,Asia/Bangkok,35,95,26,78,50,5.6,3.5,,,340,NNW,10,6,1005,29.68,-999,-999,-9999,-9999,,,Scattered Clouds,partlycloudy,0,0,0,0,0,0,AAXX 28094 48376 32560 23403 10348 20256 39911 40051 57029 82202 333 59009
7:00 PM +07 on September 28,2017,2017,9,28,19,0,Asia/Bangkok,31,87,25,77,64,7.4,4.6,,,260,West,10,6,1007,29.73,-999,-999,-9999,-9999,,,Scattered Clouds,partlycloudy,0,0,0,0,0,0,AAXX 28124 48376 32560 22604 10308 20248 39926 40068 52015 82202 333 10352 59009 79999
10:00 PM +07 on September 28,2017,2017,9,28,22,0,Asia/Bangkok,30,86,25,76,67,9.3,5.8,,,260,West,8,5,1009,29.8,-999,-999,-9999,-9999,,,Mist,hazy,0,0,0,0,0,0,AAXX 28154 48376 31958 22605 10298 20247 39948 40091 52022 71000 82015 333 59008
1:00 AM +07 on September 30,2017,2017,9,30,1,0,Asia/Bangkok,25,78,24,76,91,0,0,,,,,6,4,1011,29.85,-999,-999,-9999,-9999,,,Mist,hazy,0,0,0,0,0,0,AAXX 29184 48376 31556 50000 10253 20244 39961 40106 56004 71022 82516 333 58019 70020
4:00 AM +07 on September 30,2017,2017,9,30,4,0,Asia/Bangkok,25,77,24,75,92,5.6,3.5,,,280,West,6,4,1009,29.8,-999,-999,-9999,-9999,,,Mist,hazy,0,0,0,0,0,0,AAXX 29214 48376 31956 22803 10250 20240 39945 40090 57016 71010 80005 333 58012
7:00 AM +07 on September 30,2017,2017,9,30,7,0,Asia/Bangkok,25,77,24,75,92,0,0,,,,,8,5,1012,29.88,-999,-999,-9999,-9999,,,Mist,hazy,0,0,0,0,0,0,AAXX 30004 48376 11558 60000 10249 20240 39972 40117 52027 69924 71021 83556 333 20237 58010 70002
10:00 AM +07 on September 30,2017,2017,9,30,10,0,Asia/Bangkok,30,86,24,76,65,5.6,3.5,,,320,NW,10,6,1013,29.92,-999,-999,-9999,-9999,,,Scattered Clouds,partlycloudy,0,0,0,0,0,0,AAXX 30034 48376 32560 53203 10300 20243 39987 40130 52015 82336 333 58013
1:00 PM +07 on September 30,2017,2017,9,30,13,0,Asia/Bangkok,31,88,25,78,64,5.6,3.5,,,30,NNE,8,5,1010,29.84,-999,-999,-9999,-9999,,,Mist,hazy,0,0,0,0,0,0,AAXX 30064 48376 31558 50303 10311 20253 39963 40105 57024 71022 82336 333 58009
4:00 PM +07 on September 30,2017,2017,9,30,16,0,Asia/Bangkok,32,90,25,78,60,9.3,5.8,,,0,North,7,4,1008,29.75,-999,-999,-9999,-9999,,,Mist,hazy,0,0,0,0,0,0,AAXX 30094 48376 31557 53605 10324 20254 39934 40075 57029 71022 82336 333 58006
7:00 PM +07 on September 30,2017,2017,9,30,19,0,Asia/Bangkok,29,85,26,79,79,0,0,,,,,6,4,1010,29.81,-999,-999,-9999,-9999,,,Mist,hazy,0,0,0,0,0,0,AAXX 30124 48376 31556 60000 10292 20263 39952 40095 52018 71022 82536 333 10329 58015
10:00 PM +07 on September 30,2017,2017,9,30,22,0,Asia/Bangkok,28,82,26,79,89,0,0,,,,,6,4,1011,29.86,-999,-999,-9999,-9999,,,Mist,hazy,0,0,0,0,0,0,AAXX 30154 48376 31556 70000 10279 20262 39967 40111 52016 71022 84526 333 58002
1:00 AM +07 on October 01,2017,2017,10,1,1,0,Asia/Bangkok,27,80,26,78,93,0,0,,,,,6,4,1010,29.84,-999,-999,-9999,-9999,,,Mist,hazy,0,0,0,0,0,0,AAXX 30184 48376 31556 60000 10269 20258 39959 40104 56008 71022 83536 333 59002
4:00 AM +07 on October 01,2017,2017,10,1,4,0,Asia/Bangkok,26,79,25,77,93,0,0,,,,,4,2,1010,29.82,-999,-999,-9999,-9999,,,Thunderstorms and Rain,tstorms,0,1,0,0,1,0,AAXX 30214 48376 21440 80000 10259 20252 39953 40098 56006 79522 85976 333 58008 60025
7:00 AM +07 on October 01,2017,2017,10,1,7,0,Asia/Bangkok,26,78,25,77,95,0,0,,,,,3.5,2,1011,29.86,-999,-999,-9999,-9999,,,Light Rain,rain,0,1,0,0,0,0,AAXX 01004 48376 01535 60000 10256 20249 39966 40111 52013 60034 72192 84556 333 20245 59006 69965 70026
10:00 AM +07 on October 01,2017,2017,10,1,10,0,Asia/Bangkok,31,87,27,80,75,5.6,3.5,,,340,NNW,7,4,1012,29.89,-999,-999,-9999,-9999,,,Mist,hazy,0,0,0,0,0,0,AAXX 01034 48376 31557 53403 10306 20268 39979 40122 52013 71022 82336 333 59008
1:00 PM +07 on October 01,2017,2017,10,1,13,0,Asia/Bangkok,32,90,27,80,66,5.6,3.5,,,100,East,7,4,1009,29.79,-999,-999,-9999,-9999,,,Mist,hazy,0,0,0,0,0,0,AAXX 01064 48376 31557 61003 10323 20266 39945 40087 57034 71022 83236 333 59019 70026
4:00 PM +07 on October 01,2017,2017,10,1,16,0,Asia/Bangkok,33,92,26,80,60,5.6,3.5,,,90,East,7,4,1006,29.7,-999,-999,-9999,-9999,,,Mist,hazy,0,0,0,0,0,0,AAXX 01094 48376 31557 50903 10332 20265 39914 40055 57031 71022 82966 333 59020
7:00 PM +07 on October 01,2017,2017,10,1,19,0,Asia/Bangkok,31,87,27,81,79,0,0,,,,,7,4,1007,29.73,-999,-999,-9999,-9999,,,Scattered Clouds,partlycloudy,0,0,0,0,0,0,AAXX 01124 48376 31557 50000 10307 20274 39926 40068 52011 71322 82966 333 10338 59027 70026
1:00 AM +07 on September 05,2017,2017,9,5,1,0,Asia/Bangkok,29,84,24,75,68,11.1,6.9,,,260,West,10,6,1008,29.75,-999,-999,-9999,-9999,,,Scattered Clouds,partlycloudy,0,0,0,0,0,0,AAXX 04184 48376 32560 52606 10288 20240 39932 40075 56005 82516 333 58004
4:00 AM +07 on September 05,2017,2017,9,5,4,0,Asia/Bangkok,28,83,24,75,70,5.6,3.5,,,250,WSW,8,5,1006,29.72,-999,-999,-9999,-9999,,,Mist,hazy,0,0,0,0,0,0,AAXX 04214 48376 31558 72503 10283 20238 39919 40062 57014 71022 84556 333 59002
7:00 AM +07 on September 05,2017,2017,9,5,7,0,Asia/Bangkok,26,79,25,77,90,0,0,,,,,8,5,1008,29.75,-999,-999,-9999,-9999,,,Mist,hazy,0,0,0,0,0,0,AAXX 05004 48376 31558 60000 10262 20248 39931 40075 52012 71022 84516 333 20257 58005
10:00 AM +07 on September 05,2017,2017,9,5,10,0,Asia/Bangkok,31,88,25,77,63,7.4,4.6,,,220,SW,10,6,1009,29.8,-999,-999,-9999,-9999,,,Scattered Clouds,partlycloudy,0,0,0,0,0,0,AAXX 05034 48376 32560 62204 10311 20250 39949 40091 52018 82536 333 58007
1:00 PM +07 on September 05,2017,2017,9,5,13,0,Asia/Bangkok,34,94,25,77,50,7.4,4.6,,,290,WNW,12,7,1007,29.74,-999,-999,-9999,-9999,,,Partly Cloudy,partlycloudy,0,0,0,0,0,0,AAXX 05064 48376 32562 62904 10343 20252 39928 40069 57021 83236 333 58010
4:00 PM +07 on September 05,2017,2017,9,5,16,0,Asia/Bangkok,32,90,27,80,67,11.1,6.9,,,270,West,8,5,1004,29.67,-999,-999,-9999,-9999,,,Mist,hazy,0,0,0,0,0,0,AAXX 05094 48376 31558 72706 10323 20268 39904 40045 57024 71022 83976 333 58011
7:00 PM +07 on September 05,2017,2017,9,5,19,0,Asia/Bangkok,29,84,26,79,81,7.4,4.6,,,290,WNW,6,4,1006,29.72,-999,-999,-9999,-9999,,,Mist,hazy,0,0,0,0,0,0,AAXX 05124 48376 01556 62904 10290 20262 39921 40063 52016 69922 71092 82976 333 10350 58014 69926 70002
10:00 PM +07 on September 05,2017,2017,9,5,22,0,Asia/Bangkok,30,85,24,75,65,5.6,3.5,,,210,SSW,7,4,1009,29.79,-999,-999,-9999,-9999,,,Mist,hazy,0,0,0,0,0,0,AAXX 05154 48376 31557 62103 10297 20238 39944 40086 52023 71022 83536 333 58006
1:00 AM +07 on September 09,2017,2017,9,9,1,0,Asia/Bangkok,27,81,26,78,89,0,0,,,,,7,4,1009,29.8,-999,-999,-9999,-9999,,,Mist,hazy,0,0,0,0,0,0,AAXX 08184 48376 31557 60000 10273 20257 39947 40091 56004 71022 83536 333 59015 70010
4:00 AM +07 on September 09,2017,2017,9,9,4,0,Asia/Bangkok,26,80,25,77,89,3.7,2.3,,,220,SW,8,5,1007,29.75,-999,-999,-9999,-9999,,,Mist,hazy,0,0,0,0,0,0,AAXX 08214 48376 31558 52202 10265 20251 39929 40073 57019 71022 82556 333 59021
7:00 AM +07 on September 09,2017,2017,9,9,7,0,Asia/Bangkok,27,81,24,75,78,7.4,4.6,,,250,WSW,9,6,1009,29.81,-999,-999,-9999,-9999,,,Mist,hazy,0,0,0,0,0,0,AAXX 09004 48376 31559 22504 10271 20241 39948 40092 52020 71020 81235 333 20241 59011
10:00 AM +07 on September 09,2017,2017,9,9,10,0,Asia/Bangkok,32,90,24,75,53,13,8.1,,,250,WSW,12,7,1010,29.82,-999,-999,-9999,-9999,,,Scattered Clouds,partlycloudy,0,0,0,0,0,0,AAXX 09034 48376 32562 22507 10322 20239 39956 40098 51008 81245 333 59014
1:00 PM +07 on September 09,2017,2017,9,9,13,0,Asia/Bangkok,35,95,24,76,45,7.4,4.6,,,230,SW,12,7,1008,29.76,-999,-999,-9999,-9999,,,Scattered Clouds,partlycloudy,0,0,0,0,0,0,AAXX 09064 48376 32562 32304 10352 20243 39937 40077 57020 82305 333 59020
4:00 PM +07 on September 09,2017,2017,9,9,16,0,Asia/Bangkok,36,97,24,76,41,14.8,9.2,,,260,West,10,6,1005,29.68,-999,-999,-9999,-9999,,,Scattered Clouds,partlycloudy,0,0,0,0,0,0,AAXX 09094 48376 32560 22608 10362 20243 39908 40048 57028 82305 333 59021
7:00 PM +07 on September 09,2017,2017,9,9,19,0,Asia/Bangkok,30,86,25,76,66,3.7,2.3,,,200,SSW,10,6,1006,29.72,-999,-999,-9999,-9999,,,Partly Cloudy,partlycloudy,0,0,0,0,0,0,AAXX 09124 48376 31560 62002 10300 20246 39921 40063 52012 71321 83936 333 10366 59011
10:00 PM +07 on September 09,2017,2017,9,9,22,0,Asia/Bangkok,29,85,25,77,72,5.6,3.5,,,270,West,8,5,1010,29.82,-999,-999,-9999,-9999,,,Mist,hazy,0,0,0,0,0,0,AAXX 09154 48376 31558 82703 10293 20252 39954 40097 52033 71022 85576 333 58002
1:00 AM +07 on September 12,2017,2017,9,12,1,0,Asia/Bangkok,26,79,25,76,89,0,0,,,,,6,4,1011,29.86,-999,-999,-9999,-9999,,,Mist,hazy,0,0,0,0,0,0,AAXX 11184 48376 31556 60000 10260 20246 39966 40111 56001 71022 83536 333 58015 70109
4:00 AM +07 on September 12,2017,2017,9,12,4,0,Asia/Bangkok,26,79,25,77,92,0,0,,,,,6,4,1009,29.8,-999,-999,-9999,-9999,,,Mist,hazy,0,0,0,0,0,0,AAXX 11214 48376 31556 60000 10263 20251 39946 40090 57020 71022 83536 333 59004
7:00 AM +07 on September 12,2017,2017,9,12,7,0,Asia/Bangkok,26,79,24,76,87,0,0,,,,,6,4,1012,29.89,-999,-999,-9999,-9999,,,Mist,hazy,0,0,0,0,0,0,AAXX 12004 48376 11556 80000 10263 20243 39976 40121 52030 60114 71022 84576 333 20242 58023 70109
10:00 AM +07 on September 12,2017,2017,9,12,10,0,Asia/Bangkok,30,86,25,78,70,0,0,,,,,10,6,1012,29.9,-999,-999,-9999,-9999,,,Scattered Clouds,partlycloudy,0,0,0,0,0,0,AAXX 12034 48376 32560 30000 10300 20253 39980 40123 51004 82535 333 58020
1:00 PM +07 on September 12,2017,2017,9,12,13,0,Asia/Bangkok,34,94,26,78,51,0,0,,,,,10,6,1009,29.81,-999,-999,-9999,-9999,,,Scattered Clouds,partlycloudy,0,0,0,0,0,0,AAXX 12064 48376 32560 20000 10342 20255 39951 40092 57028 82305 333 58009 70109
4:00 PM +07 on September 12,2017,2017,9,12,16,0,Asia/Bangkok,33,91,26,79,62,11.1,6.9,,,300,WNW,5,3,1007,29.75,-999,-999,-9999,-9999,,,Thunderstorm,tstorms,0,0,0,0,1,0,AAXX 12094 48376 31550 73006 10326 20263 39933 40074 57019 71721 84976 333 59008
7:00 PM +07 on September 12,2017,2017,9,12,19,0,Asia/Bangkok,27,81,26,78,88,0,0,,,,,7,4,1009,29.8,-999,-999,-9999,-9999,,,Mist,hazy,0,0,0,0,0,0,AAXX 12124 48376 01557 50000 10272 20256 39946 40090 52013 60022 71092 82966 333 10348 58001 60027 70022
10:00 PM +07 on September 12,2017,2017,9,12,22,0,Asia/Bangkok,26,79,25,77,92,0,0,,,,,6,4,1011,29.86,-999,-999,-9999,-9999,,,Mist,hazy,0,0,0,0,0,0,AAXX 12154 48376 31556 20000 10263 20250 39966 40111 52021 71010 82505 333 59001
1:00 AM +07 on September 14,2017,2017,9,14,1,0,Asia/Bangkok,29,85,25,76,69,11.1,6.9,,,260,West,8,5,1009,29.79,-999,-999,-9999,-9999,,,Mist,hazy,0,0,0,0,0,0,AAXX 13184 48376 31958 22606 10292 20246 39944 40087 56009 71000 80005 333 59024
4:00 AM +07 on September 14,2017,2017,9,14,4,0,Asia/Bangkok,28,83,24,76,73,11.1,6.9,,,260,West,8,5,1008,29.76,-999,-999,-9999,-9999,,,Mist,hazy,0,0,0,0,0,0,AAXX 13214 48376 31958 22606 10284 20242 39935 40078 56009 71000 80005 333 59025
7:00 AM +07 on September 14,2017,2017,9,14,7,0,Asia/Bangkok,28,82,24,74,72,9.3,5.8,,,270,West,12,7,1008,29.77,-999,-999,-9999,-9999,,,Scattered Clouds,partlycloudy,0,0,0,0,0,0,AAXX 14004 48376 32562 22705 10280 20236 39935 40079 54000 81505 333 20267 59035
10:00 AM +07 on September 14,2017,2017,9,14,10,0,Asia/Bangkok,32,90,25,76,57,5.6,3.5,,,260,West,12,7,1009,29.79,-999,-999,-9999,-9999,,,Clear,clear,0,0,0,0,0,0,AAXX 14034 48376 32962 22603 10325 20247 39945 40086 51009 80005 333 59033
1:00 PM +07 on September 14,2017,2017,9,14,13,0,Asia/Bangkok,36,96,26,78,48,5.6,3.5,,,270,West,12,7,1006,29.72,-999,-999,-9999,-9999,,,Scattered Clouds,partlycloudy,0,0,0,0,0,0,AAXX 14064 48376 32562 32703 10356 20256 39923 40063 57022 82305 333 59025
4:00 PM +07 on September 14,2017,2017,9,14,16,0,Asia/Bangkok,36,97,24,75,41,13,8.1,,,270,West,10,6,1003,29.62,-999,-999,-9999,-9999,,,Scattered Clouds,partlycloudy,0,0,0,0,0,0,AAXX 14094 48376 32560 22707 10360 20241 39889 40028 57034 82905 333 59032
7:00 PM +07 on September 14,2017,2017,9,14,19,0,Asia/Bangkok,29,84,24,75,69,7.4,4.6,,,80,East,7,4,1005,29.68,-999,-999,-9999,-9999,,,Thunderstorm,tstorms,0,0,0,0,1,0,AAXX 14124 48376 31557 70804 10290 20241 39906 40048 52017 71792 83976 333 10367 59020
10:00 PM +07 on September 14,2017,2017,9,14,22,0,Asia/Bangkok,27,81,24,75,78,0,0,,,,,8,5,1007,29.74,-999,-999,-9999,-9999,,,Mist,hazy,0,0,0,0,0,0,AAXX 14154 48376 21558 60000 10270 20241 39925 40069 52020 71092 83536 333 59026 69917
1:00 AM +07 on September 17,2017,2017,9,17,1,0,Asia/Bangkok,25,77,25,76,97,0,0,,,,,4,2,1008,29.78,-999,-999,-9999,-9999,,,Light Rain,rain,0,1,0,0,0,0,AAXX 16184 48376 01540 80000 10250 20246 39940 40085 54000 60273 72192 8652/ 333 58058 60046 70280
4:00 AM +07 on September 17,2017,2017,9,17,4,0,Asia/Bangkok,25,78,25,77,95,0,0,,,,,4,2,1007,29.74,-999,-999,-9999,-9999,,,Light Rain,rain,0,1,0,0,0,0,AAXX 16214 48376 21540 80000 10253 20249 39927 40071 57013 72122 8652/ 333 58057 60036
7:00 AM +07 on September 17,2017,2017,9,17,7,0,Asia/Bangkok,26,78,25,77,96,3.7,2.3,,,90,East,3,2,1009,29.81,-999,-999,-9999,-9999,,,Mist,hazy,0,0,0,0,0,0,AAXX 17004 48376 01530 80902 10255 20251 39947 40092 52021 60414 71062 8652/ 333 20242 58051 60117 70412
10:00 AM +07 on September 17,2017,2017,9,17,10,0,Asia/Bangkok,27,80,26,78,91,3.7,2.3,,,160,SSE,4,2,1012,29.87,-999,-999,-9999,-9999,,,Light Rain,rain,0,1,0,0,0,0,AAXX 17034 48376 21540 81602 10268 20255 39970 40115 52023 76022 8652/ 333 58054 69925
1:00 PM +07 on September 17,2017,2017,9,17,13,0,Asia/Bangkok,30,85,26,80,79,5.6,3.5,,,120,ESE,5,3,1009,29.79,-999,-999,-9999,-9999,,,Mist,hazy,0,0,0,0,0,0,AAXX 17064 48376 01550 81203 10296 20264 39945 40088 57025 60021 71066 8682/ 333 58036 60027 70262
4:00 PM +07 on September 17,2017,2017,9,17,16,0,Asia/Bangkok,30,85,26,79,79,7.4,4.6,,,120,ESE,4,2,1007,29.75,-999,-999,-9999,-9999,,,Light Rain,rain,0,1,0,0,0,0,AAXX 17094 48376 21540 81204 10295 20263 39932 40074 57013 76022 8672/ 333 58035 69925
7:00 PM +07 on September 17,2017,2017,9,17,19,0,Asia/Bangkok,27,80,26,79,96,0,0,,,,,3,2,1010,29.82,-999,-999,-9999,-9999,,,Light Rain,rain,0,1,0,0,0,0,AAXX 17124 48376 01530 80000 10269 20262 39952 40096 52021 60122 76162 8672/ 333 10314 58042 60106 70354
10:00 PM +07 on September 17,2017,2017,9,17,22,0,Asia/Bangkok,26,79,26,78,96,0,0,,,,,3,2,1012,29.88,-999,-999,-9999,-9999,,,Mist,hazy,0,0,0,0,0,0,AAXX 17154 48376 21530 80000 10262 20256 39972 40117 52020 71062 8652/ 333 58032 60017
1:00 AM +07 on September 18,2017,2017,9,18,1,0,Asia/Bangkok,27,80,26,79,97,0,0,,,,,2,1,1011,29.86,-999,-999,-9999,-9999,,,Mist,hazy,0,0,0,0,0,0,AAXX 17184 48376 11520 80000 10269 20263 39966 40110 56006 60143 71062 8652/ 333 58025 70274
4:00 AM +07 on September 18,2017,2017,9,18,4,0,Asia/Bangkok,26,79,25,78,94,0,0,,,,,2,1,1010,29.84,-999,-999,-9999,-9999,,,Mist,hazy,0,0,0,0,0,0,AAXX 17214 48376 31520 80000 10259 20253 39959 40104 56007 71022 8652/ 333 58033
7:00 AM +07 on September 18,2017,2017,9,18,7,0,Asia/Bangkok,26,78,25,77,96,0,0,,,,,3,2,1012,29.87,-999,-999,-9999,-9999,,,Mist,hazy,0,0,0,0,0,0,AAXX 18004 48376 11530 80000 10256 20250 39970 40115 52011 60144 71022 8652/ 333 20245 58023 70136
10:00 AM +07 on September 18,2017,2017,9,18,10,0,Asia/Bangkok,27,81,24,75,78,0,0,,,,,3,2,1013,29.93,-999,-999,-9999,-9999,,,Light Rain,rain,0,1,0,0,0,0,AAXX 18034 48376 21530 80000 10270 20241 39988 40133 52018 76022 8652/ 333 58018 69925
1:00 PM +07 on September 18,2017,2017,9,18,13,0,Asia/Bangkok,30,86,24,74,61,16.7,10.4,,,280,West,6,4,1011,29.86,-999,-999,-9999,-9999,,,Mist,hazy,0,0,0,0,0,0,AAXX 18064 48376 11556 82809 10301 20236 39968 40111 57020 69921 71062 8652/ 333 58023 70120
4:00 PM +07 on September 18,2017,2017,9,18,16,0,Asia/Bangkok,31,88,25,77,62,3.7,2.3,,,310,NW,7,4,1009,29.79,-999,-999,-9999,-9999,,,Mist,hazy,0,0,0,0,0,0,AAXX 18094 48376 31557 83102 10310 20249 39946 40088 57022 71022 85576 333 58014
7:00 PM +07 on September 18,2017,2017,9,18,19,0,Asia/Bangkok,27,81,24,75,76,7.4,4.6,,,290,WNW,6,4,1010,29.83,-999,-999,-9999,-9999,,,Mist,hazy,0,0,0,0,0,0,AAXX 18124 48376 31556 72904 10272 20237 39958 40102 52011 71022 84576 333 10313 58005 70014
10:00 PM +07 on September 18,2017,2017,9,18,22,0,Asia/Bangkok,26,80,23,74,76,7.4,4.6,,,270,West,6,4,1011,29.87,-999,-999,-9999,-9999,,,Mist,hazy,0,0,0,0,0,0,AAXX 18154 48376 31556 62704 10265 20231 39970 40114 52012 71022 83536 333 59002
1:00 AM +07 on September 22,2017,2017,9,22,1,0,Asia/Bangkok,25,76,24,76,99,0,0,,,,,6,4,1008,29.76,-999,-999,-9999,-9999,,,Mist,hazy,0,0,0,0,0,0,AAXX 21184 48376 11556 50000 10246 20243 39932 40078 56006 61123 71092 82536 333 59006 71120
4:00 AM +07 on September 22,2017,2017,9,22,4,0,Asia/Bangkok,25,76,24,76,99,0,0,,,,,6,4,1007,29.74,-999,-999,-9999,-9999,,,Mist,hazy,0,0,0,0,0,0,AAXX 21214 48376 31556 60000 10246 20243 39926 40071 56006 71022 83536 333 58003
7:00 AM +07 on September 22,2017,2017,9,22,7,0,Asia/Bangkok,25,77,25,76,98,0,0,,,,,6,4,1008,29.77,-999,-999,-9999,-9999,,,Mist,hazy,0,0,0,0,0,0,AAXX 22004 48376 11556 80000 10250 20247 39936 40081 52010 61124 71022 8552/ 333 20235 58005 71120
10:00 AM +07 on September 22,2017,2017,9,22,10,0,Asia/Bangkok,30,85,26,79,77,0,0,,,,,7,4,1010,29.82,-999,-999,-9999,-9999,,,Mist,hazy,0,0,0,0,0,0,AAXX 22034 48376 31557 60000 10295 20260 39953 40096 52017 71022 83276 333 58016
1:00 PM +07 on September 22,2017,2017,9,22,13,0,Asia/Bangkok,31,88,26,80,71,3.7,2.3,,,90,East,7,4,1008,29.75,-999,-999,-9999,-9999,,,Mist,hazy,0,0,0,0,0,0,AAXX 22064 48376 31557 60902 10310 20265 39933 40075 57021 71022 84936 333 58020 71120
4:00 PM +07 on September 22,2017,2017,9,22,16,0,Asia/Bangkok,32,90,27,80,67,3.7,2.3,,,100,East,8,5,1005,29.69,-999,-999,-9999,-9999,,,Mist,hazy,0,0,0,0,0,0,AAXX 22094 48376 31558 61002 10324 20269 39911 40052 57022 71022 84936 333 58016
10:00 PM +07 on September 22,2017,2017,9,22,22,0,Asia/Bangkok,28,82,26,79,88,0,0,,,,,6,4,1009,29.8,-999,-999,-9999,-9999,,,Mist,hazy,0,0,0,0,0,0,AAXX 22154 48376 31556 50000 10275 20261 39945 40089 52020 71022 82536 333 58005
1:00 AM +07 on September 24,2017,2017,9,24,1,0,Asia/Bangkok,26,78,25,77,97,0,0,,,,,4,2,1009,29.81,-999,-999,-9999,-9999,,,Mist,hazy,0,0,0,0,0,0,AAXX 23184 48376 01540 80000 10255 20252 39948 40092 57006 60083 71062 8552/ 333 58004 69937 70080
4:00 AM +07 on September 24,2017,2017,9,24,4,0,Asia/Bangkok,25,78,25,77,96,0,0,,,,,4,2,1008,29.76,-999,-999,-9999,-9999,,,Mist,hazy,0,0,0,0,0,0,AAXX 23214 48376 31540 80000 10254 20251 39933 40077 57015 71022 8552/ 333 59001
7:00 AM +07 on September 24,2017,2017,9,24,7,0,Asia/Bangkok,25,77,25,77,99,0,0,,,,,6,4,1008,29.78,-999,-999,-9999,-9999,,,Mist,hazy,0,0,0,0,0,0,AAXX 24004 48376 11556 60000 10252 20249 39937 40082 51004 60084 71022 82536 333 20244 59006 70080
10:00 AM +07 on September 24,2017,2017,9,24,10,0,Asia/Bangkok,28,83,25,77,79,0,0,,,,,6,4,1010,29.82,-999,-999,-9999,-9999,,,Mist,hazy,0,0,0,0,0,0,AAXX 24034 48376 31556 60000 10282 20252 39953 40097 52016 71022 83536 333 59015
1:00 PM +07 on September 24,2017,2017,9,24,13,0,Asia/Bangkok,31,87,26,78,68,0,0,,,,,8,5,1007,29.74,-999,-999,-9999,-9999,,,Mist,hazy,0,0,0,0,0,0,AAXX 24064 48376 01558 60000 10306 20255 39929 40071 57024 69921 71062 84936 333 59026 69927 70037
4:00 PM +07 on September 24,2017,2017,9,24,16,0,Asia/Bangkok,31,88,27,80,71,0,0,,,,,5,3,1004,29.66,-999,-999,-9999,-9999,,,Mist,hazy,0,0,0,0,0,0,AAXX 24094 48376 31550 70000 10309 20266 39901 40043 57028 71022 84976 333 59020
7:00 PM +07 on September 24,2017,2017,9,24,19,0,Asia/Bangkok,29,84,27,80,84,0,0,,,,,5,3,1005,29.69,-999,-999,-9999,-9999,,,Mist,hazy,0,0,0,0,0,0,AAXX 24124 48376 31550 60000 10290 20266 39909 40052 51008 71022 82556 333 10328 59020 70007
10:00 PM +07 on September 24,2017,2017,9,24,22,0,Asia/Bangkok,27,81,26,78,88,0,0,,,,,5,3,1007,29.75,-999,-999,-9999,-9999,,,Mist,hazy,0,0,0,0,0,0,AAXX 24154 48376 31550 60000 10270 20256 39928 40072 52018 71022 83536 333 59027
1:00 AM +07 on September 26,2017,2017,9,26,1,0,Asia/Bangkok,27,80,25,77,89,0,0,,,,,6,4,1007,29.73,-999,-999,-9999,-9999,,,Mist,hazy,0,0,0,0,0,0,AAXX 25184 48376 31556 60000 10267 20251 39922 40066 57006 71022 83916 333 59002
4:00 AM +07 on September 26,2017,2017,9,26,4,0,Asia/Bangkok,26,79,25,78,94,0,0,,,,,3,2,1006,29.71,-999,-999,-9999,-9999,,,Light Rain,rain,0,1,0,0,0,0,AAXX 25214 48376 21530 80000 10260 20253 39917 40061 57005 76162 8672/ 333 58005 60036
7:00 AM +07 on September 26,2017,2017,9,26,7,0,Asia/Bangkok,26,79,25,78,95,0,0,,,,,2.5,2,1008,29.77,-999,-999,-9999,-9999,,,Mist,hazy,0,0,0,0,0,0,AAXX 26004 48376 01525 80000 10260 20254 39935 40079 52018 60044 71062 8652/ 333 20247 58014 69987 70038
10:00 AM +07 on September 26,2017,2017,9,26,10,0,Asia/Bangkok,28,82,26,79,87,5.6,3.5,,,110,ESE,4,2,1010,29.83,-999,-999,-9999,-9999,,,Mist,hazy,0,0,0,0,0,0,AAXX 26034 48376 21540 81103 10275 20259 39955 40099 52020 71062 8652/ 333 58029 60017
1:00 PM +07 on September 26,2017,2017,9,26,13,0,Asia/Bangkok,31,88,26,79,68,9.3,5.8,,,110,ESE,5,3,1007,29.74,-999,-999,-9999,-9999,,,Mist,hazy,0,0,0,0,0,0,AAXX 26064 48376 11550 61105 10312 20260 39930 40071 57025 60011 71062 83966 333 58021 70048
4:00 PM +07 on September 26,2017,2017,9,26,16,0,Asia/Bangkok,32,89,26,78,63,13,8.1,,,100,East,7,4,1005,29.68,-999,-999,-9999,-9999,,,Thunderstorm,tstorms,0,0,0,0,1,0,AAXX 26094 48376 31457 71007 10319 20256 39910 40051 57019 71722 84976 333 58025
10:00 PM +07 on September 26,2017,2017,9,26,22,0,Asia/Bangkok,26,79,26,78,97,0,0,,,,,5,3,1010,29.82,-999,-999,-9999,-9999,,,Partly Cloudy,partlycloudy,0,0,0,0,0,0,AAXX 26154 48376 21550 60000 10263 20257 39952 40096 52022 71392 83936 333 58024 60017
1:00 AM +07 on September 29,2017,2017,9,29,1,0,Asia/Bangkok,29,84,25,77,73,11.1,6.9,,,250,WSW,7,4,1009,29.79,-999,-999,-9999,-9999,,,Mist,hazy,0,0,0,0,0,0,AAXX 28184 48376 31557 22506 10289 20248 39944 40087 56004 71000 82505 333 59008
4:00 AM +07 on September 29,2017,2017,9,29,4,0,Asia/Bangkok,28,82,24,75,73,7.4,4.6,,,260,West,7,4,1008,29.76,-999,-999,-9999,-9999,,,Mist,hazy,0,0,0,0,0,0,AAXX 28214 48376 31557 62604 10280 20238 39935 40078 56009 71021 83536 333 59010
7:00 AM +07 on September 29,2017,2017,9,29,7,0,Asia/Bangkok,25,77,24,75,92,3.7,2.3,,,160,SSE,6,4,1011,29.85,-999,-999,-9999,-9999,,,Light Rain,rain,0,1,0,0,0,0,AAXX 29004 48376 01556 81602 10250 20240 39962 40107 52027 60024 72121 86576 333 20241 58005 60025 70018
10:00 AM +07 on September 29,2017,2017,9,29,10,0,Asia/Bangkok,26,79,26,78,95,5.6,3.5,,,320,NW,5,3,1012,29.88,-999,-999,-9999,-9999,,,Light Rain,rain,0,1,0,0,0,0,AAXX 29034 48376 21550 83203 10262 20255 39972 40117 52010 76022 8652/ 333 58014 69925
1:00 PM +07 on September 29,2017,2017,9,29,13,0,Asia/Bangkok,30,86,24,75,63,7.4,4.6,,,340,NNW,7,4,1010,29.82,-999,-999,-9999,-9999,,,Mist,hazy,0,0,0,0,0,0,AAXX 29064 48376 11557 63404 10302 20240 39954 40097 57018 69921 71062 84531 333 58016 70020
4:00 PM +07 on September 29,2017,2017,9,29,16,0,Asia/Bangkok,31,89,23,74,53,7.4,4.6,,,320,NW,10,6,1007,29.74,-999,-999,-9999,-9999,,,Scattered Clouds,partlycloudy,0,0,0,0,0,0,AAXX 29094 48376 32560 33204 10314 20233 39928 40070 57026 81321 333 58019
7:00 PM +07 on September 29,2017,2017,9,29,19,0,Asia/Bangkok,29,84,25,77,73,5.6,3.5,,,280,West,10,6,1008,29.77,-999,-999,-9999,-9999,,,Scattered Clouds,partlycloudy,0,0,0,0,0,0,AAXX 29124 48376 32560 52803 10288 20248 39937 40080 51009 82316 333 10317 58012 70020
10:00 PM +07 on September 29,2017,2017,9,29,22,0,Asia/Bangkok,26,79,25,76,89,0,0,,,,,6,4,1011,29.86,-999,-999,-9999,-9999,,,Mist,hazy,0,0,0,0,0,0,AAXX 29154 48376 31556 50000 10262 20246 39964 40109 52028 71022 82516 333 58019
1:00 AM +07 on September 13,2017,2017,9,13,1,0,Asia/Bangkok,26,79,25,76,90,0,0,,,,,6,4,1011,29.86,-999,-999,-9999,-9999,,,Mist,hazy,0,0,0,0,0,0,AAXX 12184 48376 31556 20000 10259 20247 39965 40110 56001 71010 82505 333 59001 70022
4:00 AM +07 on September 13,2017,2017,9,13,4,0,Asia/Bangkok,25,77,24,76,96,0,0,,,,,6,4,1010,29.84,-999,-999,-9999,-9999,,,Mist,hazy,0,0,0,0,0,0,AAXX 12214 48376 31556 20000 10252 20245 39958 40103 56007 71000 82505 333 58013
7:00 AM +07 on September 13,2017,2017,9,13,7,0,Asia/Bangkok,25,77,24,76,95,0,0,,,,,12,7,1011,29.87,-999,-999,-9999,-9999,,,Clear,clear,0,0,0,0,0,0,AAXX 13004 48376 12962 20000 10250 20244 39968 40114 52010 60024 80005 333 20242 59007 70022
10:00 AM +07 on September 13,2017,2017,9,13,10,0,Asia/Bangkok,31,88,25,77,63,5.6,3.5,,,330,NNW,12,7,1012,29.88,-999,-999,-9999,-9999,,,Clear,clear,0,0,0,0,0,0,AAXX 13034 48376 32962 23303 10312 20250 39977 40119 51009 80005 333 59004
1:00 PM +07 on September 13,2017,2017,9,13,13,0,Asia/Bangkok,35,96,25,77,46,5.6,3.5,,,110,ESE,10,6,1009,29.79,-999,-999,-9999,-9999,,,Scattered Clouds,partlycloudy,0,0,0,0,0,0,AAXX 13064 48376 32560 21103 10354 20250 39947 40087 57030 82205 333 59005 70022
4:00 PM +07 on September 13,2017,2017,9,13,16,0,Asia/Bangkok,36,98,23,73,36,5.6,3.5,,,240,WSW,10,6,1006,29.71,-999,-999,-9999,-9999,,,Scattered Clouds,partlycloudy,0,0,0,0,0,0,AAXX 13094 48376 32560 22403 10364 20229 39920 40059 57027 82205 333 59015
7:00 PM +07 on September 13,2017,2017,9,13,19,0,Asia/Bangkok,32,90,25,77,58,5.6,3.5,,,240,WSW,10,6,1007,29.73,-999,-999,-9999,-9999,,,Scattered Clouds,partlycloudy,0,0,0,0,0,0,AAXX 13124 48376 32560 22403 10324 20251 39926 40068 51006 81202 333 10372 59022
10:00 PM +07 on September 13,2017,2017,9,13,22,0,Asia/Bangkok,30,86,24,76,65,9.3,5.8,,,260,West,10,6,1010,29.81,-999,-999,-9999,-9999,,,Clear,clear,0,0,0,0,0,0,AAXX 13154 48376 32960 22605 10301 20244 39953 40095 52026 80005 333 59016
1:00 AM +07 on September 15,2017,2017,9,15,1,0,Asia/Bangkok,26,79,25,77,90,0,0,,,,,7,4,1006,29.7,-999,-999,-9999,-9999,,,Mist,hazy,0,0,0,0,0,0,AAXX 14184 48376 11557 60000 10262 20248 39911 40055 57015 69913 71092 82536 333 59032 70001
4:00 AM +07 on September 15,2017,2017,9,15,4,0,Asia/Bangkok,26,80,25,76,86,0,0,,,,,7,4,1004,29.67,-999,-999,-9999,-9999,,,Mist,hazy,0,0,0,0,0,0,AAXX 14214 48376 31557 60000 10264 20247 39901 40045 57010 71022 82536 333 59033
7:00 AM +07 on September 15,2017,2017,9,15,7,0,Asia/Bangkok,26,79,25,77,92,0,0,,,,,8,5,1006,29.7,-999,-999,-9999,-9999,,,Mist,hazy,0,0,0,0,0,0,AAXX 15004 48376 11558 50000 10262 20250 39913 40057 52012 69914 71022 82536 333 20253 59022 70001
10:00 AM +07 on September 15,2017,2017,9,15,10,0,Asia/Bangkok,32,90,26,78,61,5.6,3.5,,,320,NW,10,6,1006,29.7,-999,-999,-9999,-9999,,,Scattered Clouds,partlycloudy,0,0,0,0,0,0,AAXX 15034 48376 32560 33203 10323 20256 39917 40058 51004 82545 333 59028
1:00 PM +07 on September 15,2017,2017,9,15,13,0,Asia/Bangkok,32,90,25,77,57,18.5,11.5,,,270,West,9,6,1004,29.65,-999,-999,-9999,-9999,,,Thunderstorm,tstorms,0,0,0,0,1,0,AAXX 15064 48376 31559 82710 10324 20249 39897 40038 57019 71721 85976 333 59025 70001
4:00 PM +07 on September 15,2017,2017,9,15,16,0,Asia/Bangkok,33,92,27,80,62,7.4,4.6,,,270,West,9,6,1001,29.56,-999,-999,-9999,-9999,,,Mist,hazy,0,0,0,0,0,0,AAXX 15094 48376 31559 72704 10334 20269 39869 40009 57029 71092 82976 333 59019
7:00 PM +07 on September 15,2017,2017,9,15,19,0,Asia/Bangkok,30,87,26,79,70,7.4,4.6,,,250,WSW,8,5,1002,29.6,-999,-999,-9999,-9999,,,Mist,hazy,0,0,0,0,0,0,AAXX 15124 48376 31558 72504 10303 20259 39881 40022 52012 71092 85936 333 10353 59026 70001
10:00 PM +07 on September 15,2017,2017,9,15,22,0,Asia/Bangkok,29,85,25,76,69,11.1,6.9,,,260,West,8,5,1004,29.64,-999,-999,-9999,-9999,,,Mist,hazy,0,0,0,0,0,0,AAXX 15154 48376 31558 82606 10293 20247 39895 40037 52014 71022 85576 333 59032
1:00 AM +07 on September 16,2017,2017,9,16,1,0,Asia/Bangkok,29,84,24,76,70,14.8,9.2,,,260,West,8,5,1003,29.61,-999,-999,-9999,-9999,,,Mist,hazy,0,0,0,0,0,0,AAXX 15184 48376 31558 82608 10290 20243 39885 40027 57011 71022 85576 333 59028
4:00 AM +07 on September 16,2017,2017,9,16,4,0,Asia/Bangkok,29,83,24,75,71,16.7,10.4,,,260,West,8,5,1001,29.57,-999,-999,-9999,-9999,,,Mist,hazy,0,0,0,0,0,0,AAXX 15214 48376 31558 82609 10286 20240 39872 40014 57013 71022 86576 333 59031
7:00 AM +07 on September 16,2017,2017,9,16,7,0,Asia/Bangkok,27,81,26,78,88,5.6,3.5,,,170,South,5,3,1004,29.65,-999,-999,-9999,-9999,,,Light Rain,rain,0,1,0,0,0,0,AAXX 16004 48376 01550 81703 10270 20256 39897 40041 52025 69964 76022 8672/ 333 20262 59016 69965 70006
10:00 AM +07 on September 16,2017,2017,9,16,10,0,Asia/Bangkok,26,79,26,78,97,3.7,2.3,,,180,South,3,2,1006,29.71,-999,-999,-9999,-9999,,,Light Rain,rain,0,1,0,0,0,0,AAXX 16034 48376 21530 81802 10261 20257 39917 40061 52020 76166 8672/ 333 58003 60137
1:00 PM +07 on September 16,2017,2017,9,16,13,0,Asia/Bangkok,27,81,26,79,91,0,0,,,,,3,2,1005,29.68,-999,-999,-9999,-9999,,,Overcast,cloudy,0,0,0,0,0,0,AAXX 16064 48376 01530 80000 10270 20260 39908 40051 56009 60171 71662 8652/ 333 58013 60047 70174
4:00 PM +07 on September 16,2017,2017,9,16,16,0,Asia/Bangkok,27,81,26,79,92,0,0,,,,,3,2,1004,29.65,-999,-999,-9999,-9999,,,Mist,hazy,0,0,0,0,0,0,AAXX 16094 48376 21530 80000 10273 20262 39896 40039 57012 71062 8652/ 333 58031 69967
7:00 PM +07 on September 16,2017,2017,9,16,19,0,Asia/Bangkok,27,81,26,80,94,0,0,,,,,3,2,1006,29.7,-999,-999,-9999,-9999,,,Light Rain,rain,0,1,0,0,0,0,AAXX 16124 48376 01530 80000 10270 20264 39911 40055 52015 60182 76162 8652/ 333 10273 58032 69986 70188
10:00 PM +07 on September 16,2017,2017,9,16,22,0,Asia/Bangkok,25,77,25,77,98,0,0,,,,,4,2,1008,29.78,-999,-999,-9999,-9999,,,Light Thunderstorm,tstorms,0,0,0,0,1,0,AAXX 16154 48376 21540 80000 10252 20248 39940 40085 52029 72992 8592/ 333 58047 60056
1:00 AM +07 on September 06,2017,2017,9,6,1,0,Asia/Bangkok,27,81,26,79,93,0,0,,,,,6,4,1008,29.78,-999,-999,-9999,-9999,,,Light Rain,rain,0,1,0,0,0,0,AAXX 05184 48376 01556 80000 10270 20263 39941 40085 56003 69963 76022 8652/ 333 58010 69945 70006
7:00 AM +07 on September 06,2017,2017,9,6,7,0,Asia/Bangkok,26,79,25,77,92,0,0,,,,,6,4,1008,29.78,-999,-999,-9999,-9999,,,Mist,hazy,0,0,0,0,0,0,AAXX 06004 48376 11556 80000 10260 20251 39938 40082 51005 69984 71062 8552/ 333 20252 58007 70008
10:00 AM +07 on September 06,2017,2017,9,6,10,0,Asia/Bangkok,30,86,26,78,71,7.4,4.6,,,320,NW,7,4,1009,29.81,-999,-999,-9999,-9999,,,Mist,hazy,0,0,0,0,0,0,AAXX 06034 48376 31557 73204 10300 20256 39951 40094 52013 71022 85536 333 58003
1:00 PM +07 on September 06,2017,2017,9,6,13,0,Asia/Bangkok,33,92,26,79,58,11.1,6.9,,,280,West,8,5,1007,29.75,-999,-999,-9999,-9999,,,Mist,hazy,0,0,0,0,0,0,AAXX 06064 48376 31558 62806 10333 20261 39932 40073 57019 71022 82836 333 58004 70008
4:00 PM +07 on September 06,2017,2017,9,6,16,0,Asia/Bangkok,34,93,25,78,53,13,8.1,,,250,WSW,7,4,1005,29.67,-999,-999,-9999,-9999,,,Haze,hazy,0,0,0,0,0,0,AAXX 06094 48376 31557 62507 10341 20253 39906 40046 57026 70522 84966 333 58001
7:00 PM +07 on September 06,2017,2017,9,6,19,0,Asia/Bangkok,28,82,25,78,83,0,0,,,,,7,4,1007,29.73,-999,-999,-9999,-9999,,,Mist,hazy,0,0,0,0,0,0,AAXX 06124 48376 31557 80000 10279 20253 39924 40067 52018 71022 85576 333 10348 58004 70006
10:00 PM +07 on September 06,2017,2017,9,6,22,0,Asia/Bangkok,27,80,25,78,91,0,0,,,,,7,4,1010,29.83,-999,-999,-9999,-9999,,,Mist,hazy,0,0,0,0,0,0,AAXX 06154 48376 21557 80000 10267 20254 39957 40102 52033 71062 85576 333 58015 69926
4:00 AM +07 on September 07,2017,2017,9,7,4,0,Asia/Bangkok,26,78,25,77,96,0,0,,,,,6,4,1008,29.78,-999,-999,-9999,-9999,,,Mist,hazy,0,0,0,0,0,0,AAXX 06214 48376 21556 80000 10258 20251 39938 40082 51007 71062 85576 333 58005 69927
7:00 AM +07 on September 07,2017,2017,9,7,7,0,Asia/Bangkok,26,78,25,77,96,3.7,2.3,,,190,South,4,2,1009,29.8,-999,-999,-9999,-9999,,,Mist,hazy,0,0,0,0,0,0,AAXX 07004 48376 11540 81902 10255 20251 39946 40090 52008 69944 71062 85576 333 20245 58008 70004
10:00 AM +07 on September 07,2017,2017,9,7,10,0,Asia/Bangkok,29,84,25,78,76,5.6,3.5,,,160,SSE,4,2,1011,29.85,-999,-999,-9999,-9999,,,Mist,hazy,0,0,0,0,0,0,AAXX 07034 48376 31540 81603 10290 20253 39963 40107 52018 71022 85576 333 58013
1:00 PM +07 on September 07,2017,2017,9,7,13,0,Asia/Bangkok,30,85,27,81,86,3.7,2.3,,,40,NE,4,2,1008,29.78,-999,-999,-9999,-9999,,,Light Rain,rain,0,1,0,0,0,0,AAXX 07064 48376 01540 70402 10295 20274 39939 40082 57024 60031 76022 84876 333 58009 60035 70036
4:00 PM +07 on September 07,2017,2017,9,7,16,0,Asia/Bangkok,29,83,27,81,91,5.6,3.5,,,120,ESE,6,4,1006,29.71,-999,-999,-9999,-9999,,,Light Rain,rain,0,1,0,0,0,0,AAXX 07094 48376 21556 81203 10286 20271 39918 40061 57022 72122 85576 333 58015 60015
7:00 PM +07 on September 07,2017,2017,9,7,19,0,Asia/Bangkok,27,81,26,79,92,0,0,,,,,7,4,1008,29.78,-999,-999,-9999,-9999,,,Mist,hazy,0,0,0,0,0,0,AAXX 07124 48376 11557 80000 10272 20261 39938 40082 52021 60042 71062 85576 333 10347 58015 70046
10:00 PM +07 on September 07,2017,2017,9,7,22,0,Asia/Bangkok,26,80,26,78,93,0,0,,,,,5,3,1011,29.86,-999,-999,-9999,-9999,,,Light Rain,rain,0,1,0,0,0,0,AAXX 07154 48376 21450 70000 10264 20258 39965 40110 52027 76022 84976 333 58009 69925
1:00 AM +07 on September 04,2017,2017,9,4,1,0,Asia/Bangkok,28,83,23,73,64,9.3,5.8,,,260,West,8,5,1007,29.74,-999,-999,-9999,-9999,,,Mist,hazy,0,0,0,0,0,0,AAXX 03184 48376 31558 22605 10283 20227 39928 40071 57010 71000 81505 333 59006
4:00 AM +07 on September 04,2017,2017,9,4,4,0,Asia/Bangkok,28,82,23,74,70,13,8.1,,,260,West,8,5,1006,29.72,-999,-999,-9999,-9999,,,Mist,hazy,0,0,0,0,0,0,AAXX 03214 48376 31558 22607 10279 20232 39920 40064 56007 71000 81505 333 59001
7:00 AM +07 on September 04,2017,2017,9,4,7,0,Asia/Bangkok,28,82,23,74,70,9.3,5.8,,,260,West,10,6,1007,29.74,-999,-999,-9999,-9999,,,Scattered Clouds,partlycloudy,0,0,0,0,0,0,AAXX 04004 48376 32560 22605 10280 20233 39926 40070 51006 81505 333 20268 59007
10:00 AM +07 on September 04,2017,2017,9,4,10,0,Asia/Bangkok,33,91,25,77,55,9.3,5.8,,,270,West,12,7,1008,29.78,-999,-999,-9999,-9999,,,Scattered Clouds,partlycloudy,0,0,0,0,0,0,AAXX 04034 48376 32562 22705 10329 20248 39943 40084 52017 81202 333 59007
1:00 PM +07 on September 04,2017,2017,9,4,13,0,Asia/Bangkok,35,95,24,76,46,11.1,6.9,,,300,WNW,10,6,1006,29.71,-999,-999,-9999,-9999,,,Scattered Clouds,partlycloudy,0,0,0,0,0,0,AAXX 04064 48376 32560 33006 10350 20245 39919 40059 57024 82305 333 59017
4:00 PM +07 on September 04,2017,2017,9,4,16,0,Asia/Bangkok,33,92,26,79,58,7.4,4.6,,,180,South,10,6,1004,29.64,-999,-999,-9999,-9999,,,Partly Cloudy,partlycloudy,0,0,0,0,0,0,AAXX 04094 48376 32560 61804 10332 20261 39894 40035 57025 83966 333 59014
7:00 PM +07 on September 04,2017,2017,9,4,19,0,Asia/Bangkok,30,86,26,79,75,0,0,,,,,10,6,1005,29.68,-999,-999,-9999,-9999,,,Partly Cloudy,partlycloudy,0,0,0,0,0,0,AAXX 04124 48376 32560 60000 10298 20263 39907 40049 52013 83416 333 10362 59009
10:00 PM +07 on September 04,2017,2017,9,4,22,0,Asia/Bangkok,29,85,25,76,69,9.3,5.8,,,250,WSW,10,6,1008,29.77,-999,-999,-9999,-9999,,,Scattered Clouds,partlycloudy,0,0,0,0,0,0,AAXX 04154 48376 32560 62505 10293 20246 39938 40081 52031 82516 333 58000
1:00 AM +07 on September 19,2017,2017,9,19,1,0,Asia/Bangkok,26,79,24,75,83,0,0,,,,,6,4,1011,29.86,-999,-999,-9999,-9999,,,Mist,hazy,0,0,0,0,0,0,AAXX 18184 48376 31556 50000 10260 20238 39967 40112 56003 71022 82336 333 58002 70002
4:00 AM +07 on September 19,2017,2017,9,19,4,0,Asia/Bangkok,25,77,24,75,91,0,0,,,,,7,4,1010,29.84,-999,-999,-9999,-9999,,,Mist,hazy,0,0,0,0,0,0,AAXX 18214 48376 31557 60000 10250 20238 39958 40103 56009 71022 83536 333 58000
7:00 AM +07 on September 19,2017,2017,9,19,7,0,Asia/Bangkok,24,76,23,74,91,0,0,,,,,7,4,1011,29.85,-999,-999,-9999,-9999,,,Mist,hazy,0,0,0,0,0,0,AAXX 19004 48376 11557 20000 10245 20232 39962 40107 51004 69924 71020 82535 333 20234 59008 70002
10:00 AM +07 on September 19,2017,2017,9,19,10,0,Asia/Bangkok,31,88,24,75,58,9.3,5.8,,,270,West,10,6,1012,29.87,-999,-999,-9999,-9999,,,Scattered Clouds,partlycloudy,0,0,0,0,0,0,AAXX 19034 48376 32560 22705 10311 20241 39973 40115 52011 82205 333 59017
1:00 PM +07 on September 19,2017,2017,9,19,13,0,Asia/Bangkok,33,92,24,76,51,7.4,4.6,,,300,WNW,12,7,1009,29.79,-999,-999,-9999,-9999,,,Partly Cloudy,partlycloudy,0,0,0,0,0,0,AAXX 19064 48376 32562 63004 10334 20243 39947 40088 57026 83236 333 59023
4:00 PM +07 on September 19,2017,2017,9,19,16,0,Asia/Bangkok,34,93,25,77,50,14.8,9.2,,,270,West,12,7,1006,29.73,-999,-999,-9999,-9999,,,Scattered Clouds,partlycloudy,0,0,0,0,0,0,AAXX 19094 48376 32562 62708 10340 20248 39925 40065 57022 82336 333 59023
7:00 PM +07 on September 19,2017,2017,9,19,19,0,Asia/Bangkok,30,86,24,74,61,14.8,9.2,,,280,West,10,6,1008,29.77,-999,-999,-9999,-9999,,,Scattered Clouds,partlycloudy,0,0,0,0,0,0,AAXX 19124 48376 32560 52808 10300 20236 39939 40081 52014 82556 333 10346 59021
10:00 PM +07 on September 19,2017,2017,9,19,22,0,Asia/Bangkok,28,83,24,76,73,9.3,5.8,,,270,West,6,4,1010,29.83,-999,-999,-9999,-9999,,,Mist,hazy,0,0,0,0,0,0,AAXX 19154 48376 31556 22705 10285 20242 39955 40099 52017 71010 82505 333 59016
1:00 AM +07 on October 02,2017,2017,10,2,1,0,Asia/Bangkok,27,81,24,75,78,5.6,3.5,,,200,SSW,6,4,1009,29.79,-999,-999,-9999,-9999,,,Mist,hazy,0,0,0,0,0,0,AAXX 01184 48376 31556 62003 10270 20241 39943 40087 57011 71022 83536 333 59017 70026
4:00 AM +07 on October 02,2017,2017,10,2,4,0,Asia/Bangkok,27,81,24,75,78,0,0,,,,,6,4,1008,29.76,-999,-999,-9999,-9999,,,Mist,hazy,0,0,0,0,0,0,AAXX 01214 48376 31556 60000 10273 20241 39932 40076 57010 71022 82536 333 59021
7:00 AM +07 on October 02,2017,2017,10,2,7,0,Asia/Bangkok,26,79,24,76,88,0,0,,,,,8,5,1009,29.8,-999,-999,-9999,-9999,,,Mist,hazy,0,0,0,0,0,0,AAXX 02004 48376 31558 70000 10262 20245 39946 40090 52013 71022 84556 333 20252 59021
1:00 PM +07 on October 02,2017,2017,10,2,13,0,Asia/Bangkok,31,87,27,81,76,0,0,,,,,7,4,1008,29.76,-999,-999,-9999,-9999,,,Light Rain,rain,0,1,0,0,0,0,AAXX 02064 48376 01557 60000 10306 20270 39934 40076 57026 69921 72122 84936 333 59010 69925 70002
4:00 PM +07 on October 02,2017,2017,10,2,16,0,Asia/Bangkok,27,80,24,76,82,3.7,2.3,,,330,NNW,7,4,1005,29.68,-999,-999,-9999,-9999,,,Mist,hazy,0,0,0,0,0,0,AAXX 02094 48376 21557 53302 10267 20242 39905 40048 57029 71092 83956 333 59006 60027
7:00 PM +07 on October 02,2017,2017,10,2,19,0,Asia/Bangkok,27,80,25,78,90,0,0,,,,,6,4,1007,29.74,-999,-999,-9999,-9999,,,Mist,hazy,0,0,0,0,0,0,AAXX 02124 48376 11556 50000 10269 20253 39927 40071 52022 60022 71092 82556 333 10338 58003 70018
10:00 PM +07 on October 02,2017,2017,10,2,22,0,Asia/Bangkok,26,79,25,77,93,0,0,,,,,6,4,1009,29.8,-999,-999,-9999,-9999,,,Mist,hazy,0,0,0,0,0,0,AAXX 02154 48376 31556 50000 10261 20252 39946 40090 52019 71022 82536 333 59007
1:00 AM +07 on October 06,2017,2017,10,6,1,0,Asia/Bangkok,25,77,24,76,95,0,0,,,,,6,4,1011,29.86,-999,-999,-9999,-9999,,,Mist,hazy,0,0,0,0,0,0,AAXX 05184 48376 31556 60000 10250 20243 39965 40110 56007 71022 83536 333 58010 70108
4:00 AM +07 on October 06,2017,2017,10,6,4,0,Asia/Bangkok,24,76,24,75,97,0,0,,,,,6,4,1010,29.83,-999,-999,-9999,-9999,,,Mist,hazy,0,0,0,0,0,0,AAXX 05214 48376 31556 60000 10245 20241 39956 40102 56009 71022 83536 333 58013
7:00 AM +07 on October 06,2017,2017,10,6,7,0,Asia/Bangkok,24,76,24,75,97,0,0,,,,,6,4,1011,29.86,-999,-999,-9999,-9999,,,Mist,hazy,0,0,0,0,0,0,AAXX 06004 48376 11556 60000 10244 20240 39965 40111 51009 60024 71022 83536 333 20233 58008 70024
10:00 AM +07 on October 06,2017,2017,10,6,10,0,Asia/Bangkok,27,81,25,77,85,0,0,,,,,6,4,1013,29.91,-999,-999,-9999,-9999,,,Mist,hazy,0,0,0,0,0,0,AAXX 06034 48376 31556 70000 10271 20252 39985 40129 52019 71022 85576 333 58011
1:00 PM +07 on October 06,2017,2017,10,6,13,0,Asia/Bangkok,31,88,26,78,66,0,0,,,,,7,4,1010,29.82,-999,-999,-9999,-9999,,,Mist,hazy,0,0,0,0,0,0,AAXX 06064 48376 31557 60000 10310 20257 39954 40096 57031 71022 83246 333 58000 70024
4:00 PM +07 on October 06,2017,2017,10,6,16,0,Asia/Bangkok,31,88,26,79,67,0,0,,,,,7,4,1007,29.73,-999,-999,-9999,-9999,,,Mist,hazy,0,0,0,0,0,0,AAXX 06094 48376 31557 60000 10312 20259 39925 40066 57030 71022 83256 333 59018
7:00 PM +07 on October 06,2017,2017,10,6,19,0,Asia/Bangkok,27,80,26,78,93,0,0,,,,,4,2,1008,29.78,-999,-999,-9999,-9999,,,Thunderstorm,tstorms,0,0,0,0,1,0,AAXX 06124 48376 01540 80000 10266 20257 39940 40084 52015 60012 71796 8492/ 333 10320 59007 60016 70010
10:00 PM +07 on October 06,2017,2017,10,6,22,0,Asia/Bangkok,24,75,24,74,97,7.4,4.6,,,260,West,2,1,1012,29.89,-999,-999,-9999,-9999,,,Thunderstorms and Rain,tstorms,0,1,0,0,1,0,AAXX 06154 48376 21420 82604 10241 20235 39975 40121 52036 79599 85976 333 58004 60187
1:00 AM +07 on October 08,2017,2017,10,8,1,0,Asia/Bangkok,26,79,25,77,92,0,0,,,,,5,3,1010,29.82,-999,-999,-9999,-9999,,,Mist,hazy,0,0,0,0,0,0,AAXX 07184 48376 31550 60000 10259 20250 39951 40096 56004 71021 83536 333 59011 70064
4:00 AM +07 on October 08,2017,2017,10,8,4,0,Asia/Bangkok,25,77,25,77,98,0,0,,,,,5,3,1009,29.79,-999,-999,-9999,-9999,,,Mist,hazy,0,0,0,0,0,0,AAXX 07214 48376 31550 70000 10252 20248 39943 40088 56008 71022 84576 333 59007
7:00 AM +07 on October 08,2017,2017,10,8,7,0,Asia/Bangkok,25,78,25,76,94,0,0,,,,,8,5,1010,29.82,-999,-999,-9999,-9999,,,Mist,hazy,0,0,0,0,0,0,AAXX 08004 48376 11558 70000 10253 20247 39952 40097 52010 69924 71022 84536 333 20244 59003 70002
10:00 AM +07 on October 08,2017,2017,10,8,10,0,Asia/Bangkok,28,83,26,78,82,0,0,,,,,7,4,1011,29.87,-999,-999,-9999,-9999,,,Mist,hazy,0,0,0,0,0,0,AAXX 08034 48376 21557 60000 10282 20258 39969 40113 52017 71062 83976 333 59006 69927
1:00 PM +07 on October 08,2017,2017,10,8,13,0,Asia/Bangkok,30,86,27,81,82,0,0,,,,,7,4,1008,29.77,-999,-999,-9999,-9999,,,Light Rain,rain,0,1,0,0,0,0,AAXX 08064 48376 01557 70000 10302 20273 39937 40079 57032 60021 72162 83976 333 59004 60015 70015
4:00 PM +07 on October 08,2017,2017,10,8,16,0,Asia/Bangkok,28,83,26,80,86,0,0,,,,,5,3,1006,29.71,-999,-999,-9999,-9999,,,Mist,hazy,0,0,0,0,0,0,AAXX 08094 48376 21550 70000 10285 20264 39916 40059 57021 71062 83976 333 58001 60016
7:00 PM +07 on October 08,2017,2017,10,8,19,0,Asia/Bangkok,26,80,25,76,85,5.6,3.5,,,270,West,6,4,1008,29.76,-999,-999,-9999,-9999,,,Thunderstorm,tstorms,0,0,0,0,1,0,AAXX 08124 48376 11556 52703 10265 20246 39933 40077 52016 60032 71762 82936 333 10320 59003 70027
1:00 AM +07 on October 09,2017,2017,10,9,1,0,Asia/Bangkok,25,77,24,76,95,0,0,,,,,5,3,1010,29.82,-999,-999,-9999,-9999,,,Thunderstorms and Rain,tstorms,0,1,0,0,1,0,AAXX 08184 48376 01450 80000 10248 20244 39951 40096 56003 60433 79592 84976 333 58001 60406 70430
4:00 AM +07 on October 09,2017,2017,10,9,4,0,Asia/Bangkok,24,75,23,74,95,0,0,,,,,6,4,1009,29.8,-999,-999,-9999,-9999,,,Mist,hazy,0,0,0,0,0,0,AAXX 08214 48376 21556 60000 10240 20233 39945 40091 56006 71092 83536 333 58003 60047
7:00 AM +07 on October 09,2017,2017,10,9,7,0,Asia/Bangkok,24,76,24,75,96,0,0,,,,,7,4,1010,29.83,-999,-999,-9999,-9999,,,Mist,hazy,0,0,0,0,0,0,AAXX 09004 48376 11557 50000 10242 20239 39953 40099 51008 60474 71092 82536 333 20231 58002 70466
10:00 AM +07 on October 09,2017,2017,10,9,10,0,Asia/Bangkok,30,86,26,78,73,5.6,3.5,,,320,NW,8,5,1011,29.85,-999,-999,-9999,-9999,,,Mist,hazy,0,0,0,0,0,0,AAXX 09034 48376 31558 33203 10300 20258 39963 40106 52010 71010 82235 333 59007
1:00 PM +07 on October 09,2017,2017,10,9,13,0,Asia/Bangkok,32,90,26,78,61,5.6,3.5,,,150,SSE,10,6,1007,29.75,-999,-999,-9999,-9999,,,Mist,hazy,0,0,0,0,0,0,AAXX 09064 48376 31560 51503 10325 20256 39931 40072 57032 71021 83336 333 59008 70451
4:00 PM +07 on October 09,2017,2017,10,9,16,0,Asia/Bangkok,32,90,27,81,70,5.6,3.5,,,170,South,7,4,1005,29.67,-999,-999,-9999,-9999,,,Mist,hazy,0,0,0,0,0,0,AAXX 09094 48376 31557 61703 10325 20274 39905 40046 57025 71022 83336 333 59013
7:00 PM +07 on October 09,2017,2017,10,9,19,0,Asia/Bangkok,30,85,27,81,86,0,0,,,,,6,4,1006,29.71,-999,-999,-9999,-9999,,,Mist,hazy,0,0,0,0,0,0,AAXX 09124 48376 31556 50000 10295 20274 39918 40060 52013 71022 82536 333 10338 59017 70439
10:00 PM +07 on October 09,2017,2017,10,9,22,0,Asia/Bangkok,27,81,26,79,93,0,0,,,,,6,4,1008,29.75,-999,-999,-9999,-9999,,,Mist,hazy,0,0,0,0,0,0,AAXX 09154 48376 31556 50000 10273 20263 39931 40075 52013 71022 82536 333 59025
1:00 AM +07 on October 11,2017,2017,10,11,1,0,Asia/Bangkok,26,78,25,77,96,0,0,,,,,6,4,1006,29.72,-999,-999,-9999,-9999,,,Mist,hazy,0,0,0,0,0,0,AAXX 10184 48376 31556 80000 10257 20250 39919 40063 51005 71021 85276 333 59007
4:00 AM +07 on October 11,2017,2017,10,11,4,0,Asia/Bangkok,26,78,25,77,96,0,0,,,,,4,2,1005,29.69,-999,-999,-9999,-9999,,,Mist,hazy,0,0,0,0,0,0,AAXX 10214 48376 31540 80000 10256 20250 39910 40054 56009 71022 8652/ 333 59002
7:00 AM +07 on October 11,2017,2017,10,11,7,0,Asia/Bangkok,25,78,25,76,94,0,0,,,,,3,2,1007,29.75,-999,-999,-9999,-9999,,,Mist,hazy,0,0,0,0,0,0,AAXX 11004 48376 31530 80000 10253 20247 39929 40074 52020 71022 8652/ 333 20246 58009
10:00 AM +07 on October 11,2017,2017,10,11,10,0,Asia/Bangkok,27,81,25,77,85,3.7,2.3,,,100,East,5,3,1010,29.81,-999,-999,-9999,-9999,,,Mist,hazy,0,0,0,0,0,0,AAXX 11034 48376 31550 81002 10274 20251 39951 40095 52021 71022 8652/ 333 58027
1:00 PM +07 on October 11,2017,2017,10,11,13,0,Asia/Bangkok,29,84,26,79,80,0,0,,,,,6,4,1007,29.75,-999,-999,-9999,-9999,,,Mist,hazy,0,0,0,0,0,0,AAXX 11064 48376 31556 80000 10290 20259 39929 40072 57022 71022 8652/ 333 58033
4:00 PM +07 on October 11,2017,2017,10,11,16,0,Asia/Bangkok,28,83,26,78,82,3.7,2.3,,,120,ESE,7,4,1006,29.7,-999,-999,-9999,-9999,,,Mist,hazy,0,0,0,0,0,0,AAXX 11094 48376 31557 71202 10285 20257 39915 40058 57014 71022 83956 333 58033
7:00 PM +07 on October 11,2017,2017,10,11,19,0,Asia/Bangkok,28,82,26,78,86,0,0,,,,,5,3,1007,29.75,-999,-999,-9999,-9999,,,Mist,hazy,0,0,0,0,0,0,AAXX 11124 48376 31550 80000 10275 20258 39931 40074 52016 71022 8652/ 333 10355 58034
10:00 PM +07 on October 11,2017,2017,10,11,22,0,Asia/Bangkok,27,81,26,78,89,0,0,,,,,5,3,1010,29.83,-999,-999,-9999,-9999,,,Mist,hazy,0,0,0,0,0,0,AAXX 11154 48376 31550 80000 10270 20257 39955 40099 52024 71022 8652/ 333 58042
1:00 AM +07 on October 12,2017,2017,10,12,1,0,Asia/Bangkok,26,79,26,79,98,0,0,,,,,5,3,1010,29.81,-999,-999,-9999,-9999,,,Mist,hazy,0,0,0,0,0,0,AAXX 11184 48376 31550 60000 10263 20259 39950 40095 56005 71022 83536 333 58032
4:00 AM +07 on October 12,2017,2017,10,12,4,0,Asia/Bangkok,26,79,26,78,97,0,0,,,,,5,3,1008,29.77,-999,-999,-9999,-9999,,,Mist,hazy,0,0,0,0,0,0,AAXX 11214 48376 21550 80000 10260 20257 39935 40079 57016 71062 8652/ 333 58025 69927
7:00 AM +07 on October 12,2017,2017,10,12,7,0,Asia/Bangkok,25,78,25,77,96,0,0,,,,,1,1,1010,29.82,-999,-999,-9999,-9999,,,Heavy Thunderstorms and Rain,tstorms,0,1,0,0,1,0,AAXX 12004 48376 01410 80000 10254 20251 39952 40097 52017 60144 79762 8492/ 333 20246 58023 60145 70137
10:00 AM +07 on October 12,2017,2017,10,12,10,0,Asia/Bangkok,27,81,26,78,88,0,0,,,,,4,2,1010,29.83,-999,-999,-9999,-9999,,,Mist,hazy,0,0,0,0,0,0,AAXX 12034 48376 21540 80000 10270 20256 39957 40101 51005 71092 8652/ 333 58007 60857
1:00 PM +07 on October 12,2017,2017,10,12,13,0,Asia/Bangkok,30,86,26,79,73,0,0,,,,,7,4,1008,29.77,-999,-999,-9999,-9999,,,Mist,hazy,0,0,0,0,0,0,AAXX 12064 48376 11557 60000 10301 20259 39938 40080 57019 60851 71092 84936 333 58009 70984
4:00 PM +07 on October 12,2017,2017,10,12,16,0,Asia/Bangkok,31,88,26,79,68,3.7,2.3,,,140,SE,8,5,1005,29.68,-999,-999,-9999,-9999,,,Mist,hazy,0,0,0,0,0,0,AAXX 12094 48376 31558 61402 10313 20260 39909 40051 57029 71022 82236 333 59007
7:00 PM +07 on October 12,2017,2017,10,12,19,0,Asia/Bangkok,29,84,27,80,85,0,0,,,,,6,4,1007,29.73,-999,-999,-9999,-9999,,,Mist,hazy,0,0,0,0,0,0,AAXX 12124 48376 31556 50000 10288 20268 39925 40068 52016 71022 82556 333 10322 59007 70984
10:00 PM +07 on October 12,2017,2017,10,12,22,0,Asia/Bangkok,28,82,26,80,91,0,0,,,,,6,4,1009,29.81,-999,-999,-9999,-9999,,,Mist,hazy,0,0,0,0,0,0,AAXX 12154 48376 31556 50000 10275 20265 39948 40092 52023 71022 82536 333 59007
1:00 AM +07 on October 14,2017,2017,10,14,1,0,Asia/Bangkok,26,79,26,78,95,0,0,,,,,5,3,1008,29.76,-999,-999,-9999,-9999,,,Mist,hazy,0,0,0,0,0,0,AAXX 13184 48376 31550 60000 10261 20255 39932 40077 56009 71022 84536 333 59006 70020
4:00 AM +07 on October 14,2017,2017,10,14,4,0,Asia/Bangkok,26,78,25,77,97,0,0,,,,,3,2,1006,29.72,-999,-999,-9999,-9999,,,Mist,hazy,0,0,0,0,0,0,AAXX 13214 48376 31530 60000 10258 20252 39919 40063 57013 71022 83536 333 59008
7:00 AM +07 on October 14,2017,2017,10,14,7,0,Asia/Bangkok,26,78,25,77,96,0,0,,,,,7,4,1008,29.77,-999,-999,-9999,-9999,,,Mist,hazy,0,0,0,0,0,0,AAXX 14004 48376 11557 60000 10257 20251 39935 40080 52016 60024 71022 83536 333 20246 58001 70020
10:00 AM +07 on October 14,2017,2017,10,14,10,0,Asia/Bangkok,27,81,26,78,89,0,0,,,,,3,2,1010,29.83,-999,-999,-9999,-9999,,,Mist,hazy,0,0,0,0,0,0,AAXX 14034 48376 31530 80000 10273 20257 39956 40100 52021 71022 8652/ 333 59001
1:00 PM +07 on October 14,2017,2017,10,14,13,0,Asia/Bangkok,32,90,26,79,63,0,0,,,,,7,4,1007,29.73,-999,-999,-9999,-9999,,,Mist,hazy,0,0,0,0,0,0,AAXX 14064 48376 31557 50000 10320 20261 39925 40066 57031 71022 82236 333 59013
4:00 PM +07 on October 14,2017,2017,10,14,16,0,Asia/Bangkok,33,92,26,79,58,7.4,4.6,,,70,ENE,7,4,1004,29.65,-999,-999,-9999,-9999,,,Mist,hazy,0,0,0,0,0,0,AAXX 14094 48376 31557 50704 10331 20260 39898 40038 57027 71022 83236 333 59015
7:00 PM +07 on October 14,2017,2017,10,14,19,0,Asia/Bangkok,29,85,27,81,84,0,0,,,,,6,4,1005,29.69,-999,-999,-9999,-9999,,,Mist,hazy,0,0,0,0,0,0,AAXX 14124 48376 31556 60000 10294 20272 39910 40053 52013 71022 83536 333 10342 59010
10:00 PM +07 on October 14,2017,2017,10,14,22,0,Asia/Bangkok,28,82,27,80,93,0,0,,,,,6,4,1008,29.75,-999,-999,-9999,-9999,,,Mist,hazy,0,0,0,0,0,0,AAXX 14154 48376 31556 20000 10279 20268 39931 40075 52021 71010 82505 333 59010
1:00 AM +07 on October 15,2017,2017,10,15,1,0,Asia/Bangkok,26,79,26,78,97,0,0,,,,,4,2,1007,29.73,-999,-999,-9999,-9999,,,Mist,hazy,0,0,0,0,0,0,AAXX 14184 48376 31540 20000 10263 20257 39924 40068 56007 71010 82505 333 59008
4:00 AM +07 on October 15,2017,2017,10,15,4,0,Asia/Bangkok,26,78,25,77,95,0,0,,,,,4,2,1006,29.7,-999,-999,-9999,-9999,,,Mist,hazy,0,0,0,0,0,0,AAXX 14214 48376 31540 20000 10255 20249 39912 40056 57012 71000 82505 333 59007
7:00 AM +07 on October 15,2017,2017,10,15,7,0,Asia/Bangkok,25,77,25,77,98,0,0,,,,,3,2,1008,29.76,-999,-999,-9999,-9999,,,Mist,hazy,0,0,0,0,0,0,AAXX 15004 48376 31530 60000 10252 20248 39931 40076 52019 71021 83546 333 20243 59004
10:00 AM +07 on October 15,2017,2017,10,15,10,0,Asia/Bangkok,31,87,26,79,70,0,0,,,,,8,5,1009,29.79,-999,-999,-9999,-9999,,,Mist,hazy,0,0,0,0,0,0,AAXX 15034 48376 31558 20000 10308 20259 39944 40087 52013 71041 82202 333 59014
1:00 PM +07 on October 15,2017,2017,10,15,13,0,Asia/Bangkok,33,91,26,79,60,5.6,3.5,,,250,WSW,8,5,1006,29.72,-999,-999,-9999,-9999,,,Mist,hazy,0,0,0,0,0,0,AAXX 15064 48376 31558 22503 10330 20259 39923 40064 57021 71041 82205 333 59003
4:00 PM +07 on October 15,2017,2017,10,15,16,0,Asia/Bangkok,33,92,24,76,51,5.6,3.5,,,150,SSE,6,4,1004,29.65,-999,-999,-9999,-9999,,,Haze,hazy,0,0,0,0,0,0,AAXX 15094 48376 31556 21503 10331 20244 39897 40038 57026 70500 82202 333 58000
7:00 PM +07 on October 15,2017,2017,10,15,19,0,Asia/Bangkok,30,86,27,81,81,0,0,,,,,6,4,1006,29.7,-999,-999,-9999,-9999,,,Mist,hazy,0,0,0,0,0,0,AAXX 15124 48376 31556 20000 10300 20272 39914 40056 52017 71000 82505 333 10343 58003
10:00 PM +07 on October 15,2017,2017,10,15,22,0,Asia/Bangkok,28,82,26,79,89,0,0,,,,,5,3,1008,29.76,-999,-999,-9999,-9999,,,Mist,hazy,0,0,0,0,0,0,AAXX 15154 48376 31550 20000 10276 20262 39934 40078 52021 71000 82205 333 58003
1:00 AM +07 on October 16,2017,2017,10,16,1,0,Asia/Bangkok,27,81,24,75,78,9.3,5.8,,,260,West,5,3,1007,29.75,-999,-999,-9999,-9999,,,Mist,hazy,0,0,0,0,0,0,AAXX 15184 48376 31550 62605 10270 20240 39930 40074 56005 71021 83536 333 58005
4:00 AM +07 on October 16,2017,2017,10,16,4,0,Asia/Bangkok,27,80,24,75,80,5.6,3.5,,,260,West,5,3,1006,29.72,-999,-999,-9999,-9999,,,Mist,hazy,0,0,0,0,0,0,AAXX 15214 48376 31550 22603 10266 20238 39918 40062 57012 71010 82505 333 58006
7:00 AM +07 on October 16,2017,2017,10,16,7,0,Asia/Bangkok,26,79,24,75,83,0,0,,,,,10,6,1007,29.75,-999,-999,-9999,-9999,,,Scattered Clouds,partlycloudy,0,0,0,0,0,0,AAXX 16004 48376 32560 20000 10259 20237 39930 40074 52012 82502 333 20248 59001
10:00 AM +07 on October 16,2017,2017,10,16,10,0,Asia/Bangkok,32,89,24,76,57,7.4,4.6,,,320,NW,12,7,1008,29.78,-999,-999,-9999,-9999,,,Scattered Clouds,partlycloudy,0,0,0,0,0,0,AAXX 16034 48376 32562 23204 10315 20244 39941 40083 52011 82235 333 59003
1:00 PM +07 on October 16,2017,2017,10,16,13,0,Asia/Bangkok,33,92,25,78,55,5.6,3.5,,,310,NW,10,6,1006,29.7,-999,-999,-9999,-9999,,,Scattered Clouds,partlycloudy,0,0,0,0,0,0,AAXX 16064 48376 32560 63103 10332 20253 39917 40058 57024 82336 333 59006
4:00 PM +07 on October 16,2017,2017,10,16,16,0,Asia/Bangkok,32,90,26,80,65,7.4,4.6,,,170,South,10,6,1004,29.64,-999,-999,-9999,-9999,,,Partly Cloudy,partlycloudy,0,0,0,0,0,0,AAXX 16094 48376 32560 61704 10320 20264 39895 40036 57022 83546 333 59002
7:00 PM +07 on October 16,2017,2017,10,16,19,0,Asia/Bangkok,28,83,26,79,84,5.6,3.5,,,180,South,10,6,1005,29.69,-999,-999,-9999,-9999,,,Partly Cloudy,partlycloudy,0,0,0,0,0,0,AAXX 16124 48376 32560 61803 10285 20260 39911 40054 52016 83556 333 10345 59002
10:00 PM +07 on October 16,2017,2017,10,16,22,0,Asia/Bangkok,28,83,24,76,73,7.4,4.6,,,240,WSW,8,5,1008,29.75,-999,-999,-9999,-9999,,,Mist,hazy,0,0,0,0,0,0,AAXX 16154 48376 31558 22404 10282 20242 39932 40075 52021 71010 82505 333 59003
1:00 AM +07 on October 17,2017,2017,10,17,1,0,Asia/Bangkok,28,82,23,74,70,5.6,3.5,,,270,West,7,4,1008,29.76,-999,-999,-9999,-9999,,,Mist,hazy,0,0,0,0,0,0,AAXX 16184 48376 31557 62703 10276 20232 39932 40076 54000 71021 83536 333 58002
4:00 AM +07 on October 17,2017,2017,10,17,4,0,Asia/Bangkok,26,78,24,75,89,5.6,3.5,,,330,NNW,6,4,1007,29.74,-999,-999,-9999,-9999,,,Mist,hazy,0,0,0,0,0,0,AAXX 16214 48376 31556 63303 10257 20241 39924 40069 56008 71022 83536 333 58007
7:00 AM +07 on October 17,2017,2017,10,17,7,0,Asia/Bangkok,25,78,25,76,94,0,0,,,,,5,3,1008,29.78,-999,-999,-9999,-9999,,,Mist,hazy,0,0,0,0,0,0,AAXX 17004 48376 31550 80000 10254 20247 39938 40082 52013 71022 8652/ 333 20246 58008
10:00 AM +07 on October 17,2017,2017,10,17,10,0,Asia/Bangkok,27,80,25,77,89,0,0,,,,,5,3,1010,29.84,-999,-999,-9999,-9999,,,Mist,hazy,0,0,0,0,0,0,AAXX 17034 48376 31550 80000 10268 20251 39960 40104 52022 71022 8652/ 333 58021
1:00 PM +07 on October 17,2017,2017,10,17,13,0,Asia/Bangkok,29,84,25,77,74,0,0,,,,,6,4,1008,29.77,-999,-999,-9999,-9999,,,Mist,hazy,0,0,0,0,0,0,AAXX 17064 48376 31556 60000 10290 20249 39936 40079 57024 71022 83536 333 58021
4:00 PM +07 on October 17,2017,2017,10,17,16,0,Asia/Bangkok,32,89,24,76,58,3.7,2.3,,,130,SE,8,5,1005,29.69,-999,-999,-9999,-9999,,,Mist,hazy,0,0,0,0,0,0,AAXX 17094 48376 31558 51302 10316 20245 39910 40052 57026 71022 82356 333 58016
7:00 PM +07 on October 17,2017,2017,10,17,19,0,Asia/Bangkok,26,79,25,77,93,14.8,9.2,,,290,WNW,1,1,1008,29.77,-999,-999,-9999,-9999,,,Thunderstorms and Rain,tstorms,0,1,0,0,1,0,AAXX 17124 48376 01410 82908 10261 20252 39934 40079 52024 60112 79592 8492/ 333 10322 58025 60115 70112
10:00 PM +07 on October 17,2017,2017,10,17,22,0,Asia/Bangkok,25,77,24,76,95,0,0,,,,,1,1,1011,29.86,-999,-999,-9999,-9999,,,Thunderstorms and Rain,tstorms,0,1,0,0,1,0,AAXX 17154 48376 21410 80000 10248 20244 39963 40109 52029 79599 8492/ 333 58034 60667
1:00 AM +07 on October 19,2017,2017,10,19,1,0,Asia/Bangkok,24,76,24,75,94,0,0,,,,,5,3,1013,29.91,-999,-999,-9999,-9999,,,Mist,hazy,0,0,0,0,0,0,AAXX 18184 48376 01550 70000 10243 20237 39982 40128 56005 60283 71096 84556 333 58022 69947 70782
4:00 AM +07 on October 19,2017,2017,10,19,4,0,Asia/Bangkok,24,75,24,74,98,0,0,,,,,5,3,1012,29.88,-999,-999,-9999,-9999,,,Mist,hazy,0,0,0,0,0,0,AAXX 18214 48376 31550 60000 10240 20236 39971 40116 57011 71022 83536 333 58021
7:00 AM +07 on October 19,2017,2017,10,19,7,0,Asia/Bangkok,24,76,24,75,95,0,0,,,,,7,4,1012,29.9,-999,-999,-9999,-9999,,,Mist,hazy,0,0,0,0,0,0,AAXX 19004 48376 11557 70000 10242 20238 39978 40124 51008 60284 71022 85576 333 20228 58013 70280
1:00 PM +07 on October 19,2017,2017,10,19,13,0,Asia/Bangkok,30,85,25,77,71,0,0,,,,,7,4,1012,29.88,-999,-999,-9999,-9999,,,Mist,hazy,0,0,0,0,0,0,AAXX 19064 48376 31557 20000 10295 20249 39976 40119 57021 71021 82205 333 58006 70277
4:00 PM +07 on October 19,2017,2017,10,19,16,0,Asia/Bangkok,31,88,25,77,63,0,0,,,,,7,4,1009,29.81,-999,-999,-9999,-9999,,,Mist,hazy,0,0,0,0,0,0,AAXX 19094 48376 31557 20000 10309 20251 39950 40092 57026 71000 82305 333 59005
7:00 PM +07 on October 19,2017,2017,10,19,19,0,Asia/Bangkok,27,81,26,78,88,0,0,,,,,7,4,1011,29.85,-999,-999,-9999,-9999,,,Mist,hazy,0,0,0,0,0,0,AAXX 19124 48376 31557 20000 10272 20256 39963 40107 52013 71000 82505 333 10315 59005 70257
10:00 PM +07 on October 19,2017,2017,10,19,22,0,Asia/Bangkok,26,79,25,77,92,0,0,,,,,6,4,1014,29.93,-999,-999,-9999,-9999,,,Mist,hazy,0,0,0,0,0,0,AAXX 19154 48376 21556 60000 10260 20251 39990 40135 52027 71062 84536 333 58002 60027
1:00 AM +07 on October 20,2017,2017,10,20,1,0,Asia/Bangkok,25,77,25,76,97,0,0,,,,,5,3,1013,29.93,-999,-999,-9999,-9999,,,Mist,hazy,0,0,0,0,0,0,AAXX 19184 48376 11550 20000 10250 20246 39988 40133 56002 60023 71062 82505 333 58006 70015
4:00 AM +07 on October 20,2017,2017,10,20,4,0,Asia/Bangkok,24,76,24,74,93,0,0,,,,,5,3,1012,29.89,-999,-999,-9999,-9999,,,Mist,hazy,0,0,0,0,0,0,AAXX 19214 48376 31550 20000 10242 20235 39975 40121 57013 71000 82505 333 58005
7:00 AM +07 on October 20,2017,2017,10,20,7,0,Asia/Bangkok,24,75,24,75,99,0,0,,,,,8,5,1013,29.92,-999,-999,-9999,-9999,,,Mist,hazy,0,0,0,0,0,0,AAXX 20004 48376 11558 20000 10241 20238 39985 40131 52010 60024 71000 81535 333 20233 58006 70015
10:00 AM +07 on October 20,2017,2017,10,20,10,0,Asia/Bangkok,30,86,24,75,63,0,0,,,,,8,5,1014,29.95,-999,-999,-9999,-9999,,,Mist,hazy,0,0,0,0,0,0,AAXX 20034 48376 31558 20000 10298 20240 39997 40141 52013 71000 81235 333 59001
1:00 PM +07 on October 20,2017,2017,10,20,13,0,Asia/Bangkok,33,91,24,75,51,5.6,3.5,,,290,WNW,9,6,1011,29.87,-999,-999,-9999,-9999,,,Haze,hazy,0,0,0,0,0,0,AAXX 20064 48376 31559 32903 10328 20239 39973 40114 57025 70500 82335 333 59005 70015
4:00 PM +07 on October 20,2017,2017,10,20,16,0,Asia/Bangkok,34,93,24,75,48,0,0,,,,,8,5,1009,29.79,-999,-999,-9999,-9999,,,Haze,hazy,0,0,0,0,0,0,AAXX 20094 48376 31558 20000 10338 20241 39946 40087 57026 70500 81205 333 59005
7:00 PM +07 on October 20,2017,2017,10,20,19,0,Asia/Bangkok,30,85,25,76,69,3.7,2.3,,,270,West,6,4,1009,29.81,-999,-999,-9999,-9999,,,Mist,hazy,0,0,0,0,0,0,AAXX 20124 48376 31956 22702 10296 20246 39951 40094 51005 71000 80005 333 10345 59013 70015
10:00 PM +07 on October 20,2017,2017,10,20,22,0,Asia/Bangkok,28,82,24,75,74,3.7,2.3,,,240,WSW,6,4,1012,29.9,-999,-999,-9999,-9999,,,Mist,hazy,0,0,0,0,0,0,AAXX 20154 48376 31956 22402 10278 20239 39979 40124 52028 71000 80005 333 59011
1:00 AM +07 on October 21,2017,2017,10,21,1,0,Asia/Bangkok,27,80,24,75,79,3.7,2.3,,,230,SW,6,4,1012,29.87,-999,-999,-9999,-9999,,,Mist,hazy,0,0,0,0,0,0,AAXX 20184 48376 31956 22302 10268 20237 39971 40115 56009 71000 80005 333 59018
4:00 AM +07 on October 21,2017,2017,10,21,4,0,Asia/Bangkok,25,77,24,75,90,0,0,,,,,7,4,1012,29.88,-999,-999,-9999,-9999,,,Mist,hazy,0,0,0,0,0,0,AAXX 20214 48376 31957 00000 10250 20237 39971 40116 54000 71000 333 59005
7:00 AM +07 on October 21,2017,2017,10,21,7,0,Asia/Bangkok,24,76,23,74,92,0,0,,,,,8,5,1012,29.88,-999,-999,-9999,-9999,,,Mist,hazy,0,0,0,0,0,0,AAXX 21004 48376 31958 20000 10244 20234 39973 40119 51003 71000 80005 333 20233 59012
10:00 AM +07 on October 21,2017,2017,10,21,10,0,Asia/Bangkok,31,87,25,76,64,7.4,4.6,,,270,West,10,6,1013,29.92,-999,-999,-9999,-9999,,,Scattered Clouds,partlycloudy,0,0,0,0,0,0,AAXX 21034 48376 32560 22704 10308 20247 39989 40132 52016 81205 333 59009
1:00 PM +07 on October 21,2017,2017,10,21,13,0,Asia/Bangkok,34,93,25,78,53,5.6,3.5,,,260,West,10,6,1010,29.83,-999,-999,-9999,-9999,,,Scattered Clouds,partlycloudy,0,0,0,0,0,0,AAXX 21064 48376 32560 22603 10340 20253 39959 40100 57030 82205 333 59014
4:00 PM +07 on October 21,2017,2017,10,21,16,0,Asia/Bangkok,34,94,23,74,43,7.4,4.6,,,320,NW,8,5,1007,29.75,-999,-999,-9999,-9999,,,Haze,hazy,0,0,0,0,0,0,AAXX 21094 48376 31558 23204 10344 20232 39933 40073 57027 70500 81205 333 59014
7:00 PM +07 on October 21,2017,2017,10,21,19,0,Asia/Bangkok,30,87,25,76,63,3.7,2.3,,,260,West,7,4,1008,29.77,-999,-999,-9999,-9999,,,Mist,hazy,0,0,0,0,0,0,AAXX 21124 48376 31557 22602 10303 20246 39939 40081 51006 71000 81305 333 10352 59013
10:00 PM +07 on October 21,2017,2017,10,21,22,0,Asia/Bangkok,30,87,25,76,63,3.7,2.3,,,260,West,7,4,1008,29.77,-999,-999,-9999,-9999,,,Mist,hazy,0,0,0,0,0,0,AAXX 21154 48376 31557 22602 10303 20246 39939 40081 51006 71000 81305 333 10352 59013
1:00 AM +07 on October 23,2017,2017,10,23,1,0,Asia/Bangkok,28,82,22,71,62,11.1,6.9,,,260,West,7,4,1010,29.83,-999,-999,-9999,-9999,,,Mist,hazy,0,0,0,0,0,0,AAXX 22184 48376 31557 22606 10278 20218 39956 40100 56009 71000 82505 333 59001
4:00 AM +07 on October 23,2017,2017,10,23,4,0,Asia/Bangkok,28,82,21,69,57,9.3,5.8,,,260,West,7,4,1009,29.81,-999,-999,-9999,-9999,,,Mist,hazy,0,0,0,0,0,0,AAXX 22214 48376 31557 32605 10276 20206 39949 40093 56008 71000 82535 333 59007
7:00 AM +07 on October 23,2017,2017,10,23,7,0,Asia/Bangkok,26,78,22,72,76,3.7,2.3,,,80,East,10,6,1011,29.87,-999,-999,-9999,-9999,,,Scattered Clouds,partlycloudy,0,0,0,0,0,0,AAXX 23004 48376 32560 20802 10257 20221 39968 40113 52019 81545 333 20247 58003
10:00 AM +07 on October 23,2017,2017,10,23,10,0,Asia/Bangkok,28,82,24,75,73,0,0,,,,,10,6,1012,29.9,-999,-999,-9999,-9999,,,Partly Cloudy,partlycloudy,0,0,0,0,0,0,AAXX 23034 48376 32560 70000 10278 20237 39981 40125 52014 84576 333 58009
1:00 PM +07 on October 23,2017,2017,10,23,13,0,Asia/Bangkok,33,92,24,76,51,0,0,,,,,12,7,1010,29.83,-999,-999,-9999,-9999,,,Scattered Clouds,partlycloudy,0,0,0,0,0,0,AAXX 23064 48376 32562 30000 10333 20245 39958 40100 57023 82235 333 58006
4:00 PM +07 on October 23,2017,2017,10,23,16,0,Asia/Bangkok,32,89,24,74,54,5.6,3.5,,,140,SE,10,6,1008,29.77,-999,-999,-9999,-9999,,,Scattered Clouds,partlycloudy,0,0,0,0,0,0,AAXX 23094 48376 32560 21403 10317 20236 39938 40080 57020 82306 333 58007
7:00 PM +07 on October 23,2017,2017,10,23,19,0,Asia/Bangkok,29,84,26,78,77,0,0,,,,,10,6,1010,29.82,-999,-999,-9999,-9999,,,Scattered Clouds,partlycloudy,0,0,0,0,0,0,AAXX 23124 48376 32560 30000 10288 20255 39955 40098 52017 82535 333 10348 58019
10:00 PM +07 on October 23,2017,2017,10,23,22,0,Asia/Bangkok,28,82,25,78,83,0,0,,,,,7,4,1012,29.89,-999,-999,-9999,-9999,,,Mist,hazy,0,0,0,0,0,0,AAXX 23154 48376 31557 30000 10275 20254 39977 40121 52022 71000 82535 333 58012
4:00 AM +07 on October 27,2017,2017,10,27,4,0,Asia/Bangkok,24,75,23,73,92,0,0,,,,,6,4,1013,29.91,-999,-999,-9999,-9999,,,Mist,hazy,0,0,0,0,0,0,AAXX 26214 48376 31556 20000 10240 20228 39980 40126 56004 71000 82505 333 59014
7:00 AM +07 on October 27,2017,2017,10,27,7,0,Asia/Bangkok,24,74,23,73,95,0,0,,,,,4,2,1014,29.94,-999,-999,-9999,-9999,,,Mist,hazy,0,0,0,0,0,0,AAXX 27004 48376 31540 30000 10236 20227 39992 40138 52011 71000 82555 333 20229 59013
10:00 AM +07 on October 27,2017,2017,10,27,10,0,Asia/Bangkok,28,82,24,75,75,5.6,3.5,,,90,East,4,2,1015,29.99,-999,-999,-9999,-9999,,,Mist,hazy,0,0,0,0,0,0,AAXX 27034 48376 31540 70903 10276 20241 30008 40153 52016 71021 84536 333 59002
1:00 PM +07 on October 27,2017,2017,10,27,13,0,Asia/Bangkok,31,88,24,75,58,5.6,3.5,,,240,WSW,5,3,1012,29.87,-999,-999,-9999,-9999,,,Mist,hazy,0,0,0,0,0,0,AAXX 27064 48376 31550 62403 10312 20240 39973 40115 57035 71021 83236 333 59019
4:00 PM +07 on October 27,2017,2017,10,27,16,0,Asia/Bangkok,32,89,24,74,54,3.7,2.3,,,100,East,6,4,1009,29.8,-999,-999,-9999,-9999,,,Haze,hazy,0,0,0,0,0,0,AAXX 27094 48376 31556 21002 10317 20235 39949 40091 57024 70510 82205 333 59016
7:00 PM +07 on October 27,2017,2017,10,27,19,0,Asia/Bangkok,27,81,25,77,85,0,0,,,,,6,4,1010,29.84,-999,-999,-9999,-9999,,,Mist,hazy,0,0,0,0,0,0,AAXX 27124 48376 31556 20000 10274 20251 39959 40103 52010 71010 81505 333 10322 59018
10:00 PM +07 on October 27,2017,2017,10,27,22,0,Asia/Bangkok,26,79,25,76,89,0,0,,,,,6,4,1012,29.89,-999,-999,-9999,-9999,,,Mist,hazy,0,0,0,0,0,0,AAXX 27154 48376 31556 20000 10259 20246 39975 40121 52016 71000 81505 333 59019
1:00 AM +07 on October 29,2017,2017,10,29,1,0,Asia/Bangkok,25,77,24,74,89,0,0,,,,,4,2,1014,29.95,-999,-999,-9999,-9999,,,Mist,hazy,0,0,0,0,0,0,AAXX 28184 48376 31540 50000 10250 20235 39994 40140 56002 71021 82536 333 58016
4:00 AM +07 on October 29,2017,2017,10,29,4,0,Asia/Bangkok,24,76,24,74,93,0,0,,,,,4,2,1014,29.94,-999,-999,-9999,-9999,,,Mist,hazy,0,0,0,0,0,0,AAXX 28214 48376 31540 20000 10245 20235 39990 40136 56005 71010 82505 333 58017
7:00 AM +07 on October 29,2017,2017,10,29,7,0,Asia/Bangkok,24,75,23,73,93,0,0,,,,,5,3,1014,29.96,-999,-999,-9999,-9999,,,Mist,hazy,0,0,0,0,0,0,AAXX 29004 48376 31950 20000 10239 20230 39998 40144 51008 71010 80005 333 20229 58005
10:00 AM +07 on October 29,2017,2017,10,29,10,0,Asia/Bangkok,29,84,23,74,64,7.4,4.6,,,60,ENE,6,4,1016,30,-999,-999,-9999,-9999,,,Mist,hazy,0,0,0,0,0,0,AAXX 29034 48376 31556 20604 10290 20232 30014 40158 52016 71000 82505 333 58008
1:00 PM +07 on October 29,2017,2017,10,29,13,0,Asia/Bangkok,32,89,21,70,45,7.4,4.6,,,60,ENE,8,5,1013,29.92,-999,-999,-9999,-9999,,,Haze,hazy,0,0,0,0,0,0,AAXX 29064 48376 31558 30604 10315 20213 39989 40131 57025 70500 82205 333 58012
4:00 PM +07 on October 29,2017,2017,10,29,16,0,Asia/Bangkok,31,88,22,72,50,5.6,3.5,,,90,East,8,5,1012,29.88,-999,-999,-9999,-9999,,,Haze,hazy,0,0,0,0,0,0,AAXX 29094 48376 31558 20903 10312 20221 39974 40117 57014 70500 81505 333 58014
7:00 PM +07 on October 29,2017,2017,10,29,19,0,Asia/Bangkok,28,82,24,76,76,0,0,,,,,6,4,1013,29.92,-999,-999,-9999,-9999,,,Mist,hazy,0,0,0,0,0,0,AAXX 29124 48376 31956 20000 10276 20243 39985 40130 52011 71000 80005 333 10323 58009
10:00 PM +07 on October 29,2017,2017,10,29,22,0,Asia/Bangkok,25,78,24,74,85,0,0,,,,,6,4,1015,29.98,-999,-999,-9999,-9999,,,Mist,hazy,0,0,0,0,0,0,AAXX 29154 48376 31556 20000 10253 20235 30006 40152 52021 71000 82505 333 58010
1:00 AM +07 on October 30,2017,2017,10,30,1,0,Asia/Bangkok,24,75,23,73,91,0,0,,,,,4,2,1015,29.98,-999,-999,-9999,-9999,,,Mist,hazy,0,0,0,0,0,0,AAXX 29184 48376 31940 20000 10240 20227 30005 40151 56002 71000 80005 333 58011
4:00 AM +07 on October 30,2017,2017,10,30,4,0,Asia/Bangkok,23,73,22,71,93,0,0,,,,,4,2,1014,29.96,-999,-999,-9999,-9999,,,Mist,hazy,0,0,0,0,0,0,AAXX 29214 48376 31540 20000 10230 20219 39997 40144 56007 71000 82505 333 58008
7:00 AM +07 on October 30,2017,2017,10,30,7,0,Asia/Bangkok,22,72,21,71,94,0,0,,,,,4,2,1016,30.01,-999,-999,-9999,-9999,,,Mist,hazy,0,0,0,0,0,0,AAXX 30004 48376 31940 20000 10225 20214 30014 40161 52016 71000 80005 333 20217 58017
10:00 AM +07 on October 30,2017,2017,10,30,10,0,Asia/Bangkok,28,82,22,72,64,5.6,3.5,,,80,East,5,3,1017,30.04,-999,-999,-9999,-9999,,,Mist,hazy,0,0,0,0,0,0,AAXX 30034 48376 31550 30803 10280 20221 30026 40171 52013 71000 82535 333 58014
1:00 PM +07 on October 30,2017,2017,10,30,13,0,Asia/Bangkok,29,84,21,70,55,7.4,4.6,,,90,East,5,3,1014,29.95,-999,-999,-9999,-9999,,,Haze,hazy,0,0,0,0,0,0,AAXX 30064 48376 31550 70904 10290 20212 39998 40142 57028 70520 83636 333 58011
4:00 PM +07 on October 30,2017,2017,10,30,16,0,Asia/Bangkok,29,84,20,68,50,0,0,,,,,5,3,1012,29.9,-999,-999,-9999,-9999,,,Haze,hazy,0,0,0,0,0,0,AAXX 30094 48376 31550 30000 10287 20200 39979 40123 57019 70510 82535 333 58006
7:00 PM +07 on October 30,2017,2017,10,30,19,0,Asia/Bangkok,25,78,22,72,75,0,0,,,,,5,3,1014,29.94,-999,-999,-9999,-9999,,,Mist,hazy,0,0,0,0,0,0,AAXX 30124 48376 31550 20000 10253 20220 39990 40136 52011 71010 81505 333 10297 58006
10:00 PM +07 on October 30,2017,2017,10,30,22,0,Asia/Bangkok,24,74,22,72,91,0,0,,,,,2.5,2,1016,30,-999,-999,-9999,-9999,,,Mist,hazy,0,0,0,0,0,0,AAXX 30154 48376 31925 20000 10235 20221 30012 40159 52022 71000 80005 333 58006
1:00 AM +07 on October 31,2017,2017,10,31,1,0,Asia/Bangkok,23,73,22,71,90,0,0,,,,,2,1,1015,29.99,-999,-999,-9999,-9999,,,Mist,hazy,0,0,0,0,0,0,AAXX 30184 48376 31520 20000 10227 20215 30005 40153 56007 71000 82505 333 58001
4:00 AM +07 on October 31,2017,2017,10,31,4,0,Asia/Bangkok,22,71,21,69,92,0,0,,,,,2,1,1015,29.97,-999,-999,-9999,-9999,,,Mist,hazy,0,0,0,0,0,0,AAXX 30214 48376 31520 50000 10218 20207 30000 40147 56006 71021 82536 333 58003
7:00 AM +07 on October 31,2017,2017,10,31,7,0,Asia/Bangkok,21,70,20,68,93,0,0,,,,,4,2,1016,30.01,-999,-999,-9999,-9999,,,Mist,hazy,0,0,0,0,0,0,AAXX 31004 48376 31540 20000 10210 20202 30013 40161 52013 71021 82605 333 20206 58000
10:00 AM +07 on October 31,2017,2017,10,31,10,0,Asia/Bangkok,26,79,18,64,51,5.6,3.5,,,60,ENE,5,3,1017,30.04,-999,-999,-9999,-9999,,,Haze,hazy,0,0,0,0,0,0,AAXX 31034 48376 31550 20603 10263 20179 30024 40170 52011 70500 81205 333 59001
1:00 PM +07 on October 31,2017,2017,10,31,13,0,Asia/Bangkok,29,85,19,65,42,5.6,3.5,,,60,ENE,5,3,1014,29.94,-999,-999,-9999,-9999,,,Haze,hazy,0,0,0,0,0,0,AAXX 31064 48376 31550 20603 10293 20186 39996 40139 57029 70500 81205 333 59003
4:00 PM +07 on October 31,2017,2017,10,31,16,0,Asia/Bangkok,29,85,19,66,43,3.7,2.3,,,100,East,5,3,1012,29.88,-999,-999,-9999,-9999,,,Haze,hazy,0,0,0,0,0,0,AAXX 31094 48376 31950 21002 10292 20188 39974 40117 57022 70500 81035 333 59006
7:00 PM +07 on October 31,2017,2017,10,31,19,0,Asia/Bangkok,25,77,21,70,74,0,0,,,,,5,3,1013,29.93,-999,-999,-9999,-9999,,,Mist,hazy,0,0,0,0,0,0,AAXX 31124 48376 31550 20000 10251 20212 39988 40134 52014 71000 81505 333 10300 59002
10:00 PM +07 on October 31,2017,2017,10,31,22,0,Asia/Bangkok,23,74,21,70,85,0,0,,,,,4,2,1016,30,-999,-999,-9999,-9999,,,Mist,hazy,0,0,0,0,0,0,AAXX 31154 48376 31940 80000 10234 20213 30010 40157 52022 71021 86036 333 59002
1:00 AM +07 on October 03,2017,2017,10,3,1,0,Asia/Bangkok,25,77,24,76,96,0,0,,,,,6,4,1008,29.78,-999,-999,-9999,-9999,,,Mist,hazy,0,0,0,0,0,0,AAXX 02184 48376 31556 30000 10251 20245 39939 40084 56007 71020 82555 333 59003 70018
4:00 AM +07 on October 03,2017,2017,10,3,4,0,Asia/Bangkok,24,76,24,75,95,0,0,,,,,7,4,1007,29.75,-999,-999,-9999,-9999,,,Mist,hazy,0,0,0,0,0,0,AAXX 02214 48376 31557 20000 10245 20238 39927 40072 57012 71000 82505 333 59004
7:00 AM +07 on October 03,2017,2017,10,3,7,0,Asia/Bangkok,24,76,24,75,97,0,0,,,,,4,2,1008,29.78,-999,-999,-9999,-9999,,,Mist,hazy,0,0,0,0,0,0,AAXX 03004 48376 11540 80000 10245 20241 39940 40085 52013 60024 71020 8652/ 333 20235 59005 70018
10:00 AM +07 on October 03,2017,2017,10,3,10,0,Asia/Bangkok,28,83,26,78,81,5.6,3.5,,,280,West,7,4,1010,29.84,-999,-999,-9999,-9999,,,Mist,hazy,0,0,0,0,0,0,AAXX 03034 48376 31557 82803 10282 20256 39960 40104 52021 71022 85576 333 58001
1:00 PM +07 on October 03,2017,2017,10,3,13,0,Asia/Bangkok,26,80,26,79,94,7.4,4.6,,,320,NW,4,2,1008,29.78,-999,-999,-9999,-9999,,,Light Rain,rain,0,1,0,0,0,0,AAXX 03064 48376 01540 83204 10265 20259 39939 40083 57021 60211 76162 8672/ 333 58007 60216 70222
4:00 PM +07 on October 03,2017,2017,10,3,16,0,Asia/Bangkok,26,79,26,78,95,0,0,,,,,4,2,1007,29.73,-999,-999,-9999,-9999,,,Light Rain,rain,0,1,0,0,0,0,AAXX 03094 48376 21540 80000 10261 20255 39922 40066 57017 76166 8652/ 333 58018 60067
7:00 PM +07 on October 03,2017,2017,10,3,19,0,Asia/Bangkok,25,76,24,75,97,0,0,,,,,4,2,1007,29.75,-999,-999,-9999,-9999,,,Light Rain,rain,0,1,0,0,0,0,AAXX 03124 48376 01540 80000 10247 20241 39928 40073 51006 60412 72162 8652/ 333 10286 58002 60157 70412
10:00 PM +07 on October 03,2017,2017,10,3,22,0,Asia/Bangkok,25,77,24,76,96,0,0,,,,,3,2,1009,29.81,-999,-999,-9999,-9999,,,Light Rain,rain,0,1,0,0,0,0,AAXX 03154 48376 21530 80000 10249 20245 39947 40092 52019 76166 8652/ 333 58002 60137
1:00 AM +07 on October 05,2017,2017,10,5,1,0,Asia/Bangkok,25,77,24,76,94,0,0,,,,,4,2,1010,29.83,-999,-999,-9999,-9999,,,Light Rain,rain,0,1,0,0,0,0,AAXX 04184 48376 01540 80000 10249 20242 39955 40100 56005 60123 76162 8652/ 333 58016 60046 70120
4:00 AM +07 on October 05,2017,2017,10,5,4,0,Asia/Bangkok,24,75,24,74,98,0,0,,,,,3,2,1009,29.8,-999,-999,-9999,-9999,,,Light Rain,rain,0,1,0,0,0,0,AAXX 04214 48376 21530 80000 10240 20236 39943 40089 57012 76162 8652/ 333 58017 60086
7:00 AM +07 on October 05,2017,2017,10,5,7,0,Asia/Bangkok,24,76,24,75,95,0,0,,,,,2.5,2,1010,29.84,-999,-999,-9999,-9999,,,Mist,hazy,0,0,0,0,0,0,AAXX 05004 48376 11525 80000 10242 20238 39957 40103 52014 60204 71062 8652/ 333 20233 58018 70202
10:00 AM +07 on October 05,2017,2017,10,5,10,0,Asia/Bangkok,27,80,24,76,84,0,0,,,,,4,2,1012,29.88,-999,-999,-9999,-9999,,,Mist,hazy,0,0,0,0,0,0,AAXX 05034 48376 31540 70000 10266 20244 39973 40118 52016 71022 84576 333 58017
1:00 PM +07 on October 05,2017,2017,10,5,13,0,Asia/Bangkok,29,84,25,77,74,0,0,,,,,6,4,1010,29.82,-999,-999,-9999,-9999,,,Mist,hazy,0,0,0,0,0,0,AAXX 05064 48376 31556 70000 10287 20250 39953 40096 57020 71022 85936 333 58011 70124
4:00 PM +07 on October 05,2017,2017,10,5,16,0,Asia/Bangkok,26,79,25,77,90,0,0,,,,,4,2,1008,29.78,-999,-999,-9999,-9999,,,Thunderstorm,tstorms,0,0,0,0,1,0,AAXX 05094 48376 21540 80000 10260 20248 39939 40084 57014 71796 84976 333 58015 60016
7:00 PM +07 on October 05,2017,2017,10,5,19,0,Asia/Bangkok,25,78,25,77,94,0,0,,,,,3,2,1009,29.8,-999,-999,-9999,-9999,,,Light Rain,rain,0,1,0,0,0,0,AAXX 05124 48376 01530 80000 10254 20248 39946 40090 51006 60022 72196 8652/ 333 10295 58011 60016 70146
10:00 PM +07 on October 05,2017,2017,10,5,22,0,Asia/Bangkok,25,77,25,77,99,0,0,,,,,4,2,1012,29.88,-999,-999,-9999,-9999,,,Mist,hazy,0,0,0,0,0,0,AAXX 05154 48376 31540 80000 10252 20249 39971 40117 52026 71022 8652/ 333 58013
1:00 AM +07 on October 07,2017,2017,10,7,1,0,Asia/Bangkok,24,75,24,75,99,0,0,,,,,2,1,1011,29.85,-999,-999,-9999,-9999,,,Light Rain,rain,0,1,0,0,0,0,AAXX 06184 48376 01420 80000 10241 20237 39961 40107 57014 60293 76196 85976 333 59003 60107 70292
4:00 AM +07 on October 07,2017,2017,10,7,4,0,Asia/Bangkok,24,76,24,75,95,5.6,3.5,,,280,West,2,1,1009,29.81,-999,-999,-9999,-9999,,,Light Rain,rain,0,1,0,0,0,0,AAXX 06214 48376 21420 82803 10242 20238 39949 40094 57012 76196 85976 333 59007 60057
7:00 AM +07 on October 07,2017,2017,10,7,7,0,Asia/Bangkok,24,76,24,75,95,5.6,3.5,,,310,NW,5,3,1010,29.83,-999,-999,-9999,-9999,,,Mist,hazy,0,0,0,0,0,0,AAXX 07004 48376 01550 73103 10242 20238 39955 40100 51006 60354 71062 84536 333 20229 59011 69987 70354
10:00 AM +07 on October 07,2017,2017,10,7,10,0,Asia/Bangkok,28,83,25,78,80,3.7,2.3,,,20,NNE,7,4,1012,29.88,-999,-999,-9999,-9999,,,Mist,hazy,0,0,0,0,0,0,AAXX 07034 48376 21557 70202 10282 20254 39975 40119 52020 71062 85576 333 59011 69927
1:00 PM +07 on October 07,2017,2017,10,7,13,0,Asia/Bangkok,30,86,27,80,77,0,0,,,,,8,5,1008,29.78,-999,-999,-9999,-9999,,,Mist,hazy,0,0,0,0,0,0,AAXX 07064 48376 11558 60000 10302 20266 39941 40084 57034 69921 71062 84536 333 59013 70356
4:00 PM +07 on October 07,2017,2017,10,7,16,0,Asia/Bangkok,32,89,25,77,60,9.3,5.8,,,300,WNW,7,4,1006,29.7,-999,-999,-9999,-9999,,,Mist,hazy,0,0,0,0,0,0,AAXX 07094 48376 31557 23005 10318 20250 39917 40058 57024 71010 82205 333 59008
7:00 PM +07 on October 07,2017,2017,10,7,19,0,Asia/Bangkok,28,82,26,79,89,0,0,,,,,6,4,1008,29.77,-999,-999,-9999,-9999,,,Mist,hazy,0,0,0,0,0,0,AAXX 07124 48376 31556 20000 10280 20263 39936 40080 52019 71010 82205 333 10320 59004 70346
1:00 AM +07 on October 24,2017,2017,10,24,1,0,Asia/Bangkok,24,76,23,73,89,3.7,2.3,,,170,South,7,4,1013,29.91,-999,-999,-9999,-9999,,,Thunderstorms and Rain,tstorms,0,1,0,0,1,0,AAXX 23184 48376 01457 81702 10245 20230 39980 40126 51004 69943 79592 8392/ 333 58026 69945 70004
4:00 AM +07 on October 24,2017,2017,10,24,4,0,Asia/Bangkok,24,76,23,74,91,0,0,,,,,6,4,1012,29.89,-999,-999,-9999,-9999,,,Mist,hazy,0,0,0,0,0,0,AAXX 23214 48376 31556 80000 10245 20232 39974 40120 56006 71092 8552/ 333 58027
7:00 AM +07 on October 24,2017,2017,10,24,7,0,Asia/Bangkok,25,76,24,75,94,0,0,,,,,6,4,1014,29.94,-999,-999,-9999,-9999,,,Mist,hazy,0,0,0,0,0,0,AAXX 24004 48376 11556 60000 10247 20237 39991 40137 52017 69944 71092 83536 333 20235 58025 70004
10:00 AM +07 on October 24,2017,2017,10,24,10,0,Asia/Bangkok,29,84,24,75,68,7.4,4.6,,,180,South,8,5,1015,29.99,-999,-999,-9999,-9999,,,Mist,hazy,0,0,0,0,0,0,AAXX 24034 48376 31558 61804 10288 20239 30010 40154 52019 71022 82536 333 58029
1:00 PM +07 on October 24,2017,2017,10,24,13,0,Asia/Bangkok,32,90,23,73,49,5.6,3.5,,,120,ESE,8,5,1012,29.9,-999,-999,-9999,-9999,,,Haze,hazy,0,0,0,0,0,0,AAXX 24064 48376 31558 61203 10324 20228 39983 40125 57027 70522 82236 333 58025 70004
4:00 PM +07 on October 24,2017,2017,10,24,16,0,Asia/Bangkok,31,88,24,75,57,3.7,2.3,,,130,SE,7,4,1011,29.85,-999,-999,-9999,-9999,,,Haze,hazy,0,0,0,0,0,0,AAXX 24094 48376 31557 31302 10313 20237 39963 40106 57020 70510 82205 333 58026
7:00 PM +07 on October 24,2017,2017,10,24,19,0,Asia/Bangkok,28,82,25,76,78,0,0,,,,,6,4,1012,29.9,-999,-999,-9999,-9999,,,Mist,hazy,0,0,0,0,0,0,AAXX 24124 48376 31556 20000 10280 20246 39979 40123 52016 71010 82505 333 10327 58025 70004
10:00 PM +07 on October 24,2017,2017,10,24,22,0,Asia/Bangkok,26,79,24,74,81,0,0,,,,,5,3,1015,29.98,-999,-999,-9999,-9999,,,Mist,hazy,0,0,0,0,0,0,AAXX 24154 48376 31550 20000 10263 20235 30007 40152 52028 71000 82505 333 58031
1:00 AM +07 on October 25,2017,2017,10,25,1,0,Asia/Bangkok,25,77,23,74,88,0,0,,,,,5,3,1014,29.96,-999,-999,-9999,-9999,,,Mist,hazy,0,0,0,0,0,0,AAXX 24184 48376 31550 20000 10252 20234 39999 40145 56007 71000 82505 333 58019
4:00 AM +07 on October 25,2017,2017,10,25,4,0,Asia/Bangkok,24,76,23,73,89,0,0,,,,,2,1,1014,29.94,-999,-999,-9999,-9999,,,Mist,hazy,0,0,0,0,0,0,AAXX 24214 48376 31520 20000 10242 20230 39990 40136 56009 71000 82505 333 58016
7:00 AM +07 on October 25,2017,2017,10,25,7,0,Asia/Bangkok,25,77,24,74,90,0,0,,,,,3,2,1016,30,-999,-999,-9999,-9999,,,Mist,hazy,0,0,0,0,0,0,AAXX 25004 48376 31530 80000 10248 20236 30011 40157 52021 71021 85536 333 20235 58020
10:00 AM +07 on October 25,2017,2017,10,25,10,0,Asia/Bangkok,30,85,24,76,67,5.6,3.5,,,180,South,5,3,1017,30.04,-999,-999,-9999,-9999,,,Mist,hazy,0,0,0,0,0,0,AAXX 25034 48376 31550 61803 10296 20243 30027 40171 52016 71022 83536 333 58016
1:00 PM +07 on October 25,2017,2017,10,25,13,0,Asia/Bangkok,30,86,24,75,62,7.4,4.6,,,180,South,5,3,1015,29.97,-999,-999,-9999,-9999,,,Mist,hazy,0,0,0,0,0,0,AAXX 25064 48376 31550 61804 10301 20237 30003 40147 57024 71022 83976 333 58021
4:00 PM +07 on October 25,2017,2017,10,25,16,0,Asia/Bangkok,32,89,24,74,54,9.3,5.8,,,190,South,5,3,1012,29.89,-999,-999,-9999,-9999,,,Haze,hazy,0,0,0,0,0,0,AAXX 25094 48376 31550 51905 10317 20235 39979 40121 57024 70522 82336 333 58016
7:00 PM +07 on October 25,2017,2017,10,25,19,0,Asia/Bangkok,28,83,25,77,78,0,0,,,,,5,3,1013,29.93,-999,-999,-9999,-9999,,,Mist,hazy,0,0,0,0,0,0,AAXX 25124 48376 31550 20000 10282 20251 39989 40133 52010 71021 82505 333 10329 58010
10:00 PM +07 on October 25,2017,2017,10,25,22,0,Asia/Bangkok,26,79,24,76,87,0,0,,,,,5,3,1016,29.99,-999,-999,-9999,-9999,,,Mist,hazy,0,0,0,0,0,0,AAXX 25154 48376 31550 20000 10260 20243 30009 40155 52020 71000 82505 333 58003
1:00 AM +07 on October 01,2017,2017,10,1,1,0,Asia/Bangkok,27,80,26,78,93,0,0,,,,,6,4,1010,29.84,-999,-999,-9999,-9999,,,Mist,hazy,0,0,0,0,0,0,AAXX 30184 48376 31556 60000 10269 20258 39959 40104 56008 71022 83536 333 59002
4:00 AM +07 on October 01,2017,2017,10,1,4,0,Asia/Bangkok,26,79,25,77,93,0,0,,,,,4,2,1010,29.82,-999,-999,-9999,-9999,,,Thunderstorms and Rain,tstorms,0,1,0,0,1,0,AAXX 30214 48376 21440 80000 10259 20252 39953 40098 56006 79522 85976 333 58008 60025
7:00 AM +07 on October 01,2017,2017,10,1,7,0,Asia/Bangkok,26,78,25,77,95,0,0,,,,,3.5,2,1011,29.86,-999,-999,-9999,-9999,,,Light Rain,rain,0,1,0,0,0,0,AAXX 01004 48376 01535 60000 10256 20249 39966 40111 52013 60034 72192 84556 333 20245 59006 69965 70026
10:00 AM +07 on October 01,2017,2017,10,1,10,0,Asia/Bangkok,31,87,27,80,75,5.6,3.5,,,340,NNW,7,4,1012,29.89,-999,-999,-9999,-9999,,,Mist,hazy,0,0,0,0,0,0,AAXX 01034 48376 31557 53403 10306 20268 39979 40122 52013 71022 82336 333 59008
1:00 PM +07 on October 01,2017,2017,10,1,13,0,Asia/Bangkok,32,90,27,80,66,5.6,3.5,,,100,East,7,4,1009,29.79,-999,-999,-9999,-9999,,,Mist,hazy,0,0,0,0,0,0,AAXX 01064 48376 31557 61003 10323 20266 39945 40087 57034 71022 83236 333 59019 70026
4:00 PM +07 on October 01,2017,2017,10,1,16,0,Asia/Bangkok,33,92,26,80,60,5.6,3.5,,,90,East,7,4,1006,29.7,-999,-999,-9999,-9999,,,Mist,hazy,0,0,0,0,0,0,AAXX 01094 48376 31557 50903 10332 20265 39914 40055 57031 71022 82966 333 59020
7:00 PM +07 on October 01,2017,2017,10,1,19,0,Asia/Bangkok,31,87,27,81,79,0,0,,,,,7,4,1007,29.73,-999,-999,-9999,-9999,,,Scattered Clouds,partlycloudy,0,0,0,0,0,0,AAXX 01124 48376 31557 50000 10307 20274 39926 40068 52011 71322 82966 333 10338 59027 70026
1:00 AM +07 on October 10,2017,2017,10,10,1,0,Asia/Bangkok,26,79,26,78,96,0,0,,,,,5,3,1007,29.74,-999,-999,-9999,-9999,,,Mist,hazy,0,0,0,0,0,0,AAXX 09184 48376 31550 60000 10263 20256 39925 40070 56006 71022 83516 333 59027 70036
4:00 AM +07 on October 10,2017,2017,10,10,4,0,Asia/Bangkok,26,78,25,77,95,5.6,3.5,,,260,West,5,3,1006,29.7,-999,-999,-9999,-9999,,,Mist,hazy,0,0,0,0,0,0,AAXX 09214 48376 31550 22603 10256 20249 39911 40056 57014 71010 82505 333 59035
7:00 AM +07 on October 10,2017,2017,10,10,7,0,Asia/Bangkok,26,78,25,77,94,5.6,3.5,,,260,West,7,4,1006,29.73,-999,-999,-9999,-9999,,,Mist,hazy,0,0,0,0,0,0,AAXX 10004 48376 31557 32603 10255 20248 39921 40065 51009 71010 82515 333 20243 59034
10:00 AM +07 on October 10,2017,2017,10,10,10,0,Asia/Bangkok,31,88,26,80,70,5.6,3.5,,,280,West,8,5,1007,29.73,-999,-999,-9999,-9999,,,Mist,hazy,0,0,0,0,0,0,AAXX 10034 48376 31558 22803 10310 20264 39925 40067 51005 71000 82505 333 59039
1:00 PM +07 on October 10,2017,2017,10,10,13,0,Asia/Bangkok,35,94,26,78,52,7.4,4.6,,,300,WNW,9,6,1004,29.65,-999,-999,-9999,-9999,,,Haze,hazy,0,0,0,0,0,0,AAXX 10064 48376 31559 33004 10346 20258 39899 40039 57026 70500 82335 333 59033
4:00 PM +07 on October 10,2017,2017,10,10,16,0,Asia/Bangkok,28,82,24,76,77,9.3,5.8,,,70,ENE,7,4,1002,29.6,-999,-999,-9999,-9999,,,Thunderstorm,tstorms,0,0,0,0,1,0,AAXX 10094 48376 31557 70705 10280 20244 39882 40024 57017 71792 85976 333 59022
7:00 PM +07 on October 10,2017,2017,10,10,19,0,Asia/Bangkok,27,81,25,78,87,0,0,,,,,6,4,1004,29.65,-999,-999,-9999,-9999,,,Thunderstorm,tstorms,0,0,0,0,1,0,AAXX 10124 48376 31556 70000 10273 20254 39898 40041 52016 71792 85976 333 10356 59019
10:00 PM +07 on October 10,2017,2017,10,10,22,0,Asia/Bangkok,26,79,25,78,95,0,0,,,,,6,4,1006,29.7,-999,-999,-9999,-9999,,,Mist,hazy,0,0,0,0,0,0,AAXX 10154 48376 31556 30000 10263 20254 39913 40057 52016 71010 82535 333 59017
1:00 AM +07 on October 28,2017,2017,10,28,1,0,Asia/Bangkok,25,77,24,74,90,0,0,,,,,5,3,1012,29.9,-999,-999,-9999,-9999,,,Mist,hazy,0,0,0,0,0,0,AAXX 27184 48376 31550 20000 10249 20236 39979 40124 51003 71000 81505 333 59006
10:00 AM +07 on October 28,2017,2017,10,28,10,0,Asia/Bangkok,28,82,24,76,76,5.6,3.5,,,100,East,5,3,1015,29.98,-999,-999,-9999,-9999,,,Mist,hazy,0,0,0,0,0,0,AAXX 28034 48376 31550 61003 10279 20243 30005 40150 52012 71022 83536 333 59003
1:00 PM +07 on October 28,2017,2017,10,28,13,0,Asia/Bangkok,30,87,24,76,62,5.6,3.5,,,90,East,5,3,1012,29.88,-999,-999,-9999,-9999,,,Mist,hazy,0,0,0,0,0,0,AAXX 28064 48376 31550 50903 10303 20243 39976 40119 57029 71022 82966 333 58004
4:00 PM +07 on October 28,2017,2017,10,28,16,0,Asia/Bangkok,32,90,24,75,53,5.6,3.5,,,60,ENE,6,4,1010,29.84,-999,-999,-9999,-9999,,,Haze,hazy,0,0,0,0,0,0,AAXX 28094 48376 31556 30603 10321 20239 39961 40103 57015 70510 82305 333 58012
7:00 PM +07 on October 28,2017,2017,10,28,19,0,Asia/Bangkok,27,81,24,76,79,0,0,,,,,5,3,1012,29.89,-999,-999,-9999,-9999,,,Mist,hazy,0,0,0,0,0,0,AAXX 28124 48376 31550 20000 10272 20242 39976 40121 52015 71010 82505 333 10328 58017
10:00 PM +07 on October 28,2017,2017,10,28,22,0,Asia/Bangkok,26,78,24,75,86,0,0,,,,,5,3,1014,29.95,-999,-999,-9999,-9999,,,Mist,hazy,0,0,0,0,0,0,AAXX 28154 48376 31550 60000 10255 20237 39997 40142 52020 71021 83536 333 58022
1:00 AM +07 on October 13,2017,2017,10,13,1,0,Asia/Bangkok,27,80,26,78,93,0,0,,,,,6,4,1008,29.78,-999,-999,-9999,-9999,,,Mist,hazy,0,0,0,0,0,0,AAXX 12184 48376 31556 50000 10268 20257 39939 40083 56009 71022 82536 333 59012 70984
4:00 AM +07 on October 13,2017,2017,10,13,4,0,Asia/Bangkok,26,78,25,77,95,0,0,,,,,6,4,1007,29.74,-999,-999,-9999,-9999,,,Mist,hazy,0,0,0,0,0,0,AAXX 12214 48376 31556 60000 10258 20249 39927 40071 57012 71022 83556 333 59008
7:00 AM +07 on October 13,2017,2017,10,13,7,0,Asia/Bangkok,26,78,25,77,96,0,0,,,,,4,2,1008,29.77,-999,-999,-9999,-9999,,,Mist,hazy,0,0,0,0,0,0,AAXX 13004 48376 11540 80000 10256 20250 39934 40079 51007 60854 71022 8652/ 333 20240 59018 70847
10:00 AM +07 on October 13,2017,2017,10,13,10,0,Asia/Bangkok,26,79,25,76,90,0,0,,,,,5,3,1010,29.83,-999,-999,-9999,-9999,,,Thunderstorm,tstorms,0,0,0,0,1,0,AAXX 13034 48376 31550 80000 10261 20247 39957 40101 52022 71722 83976 333 58000
1:00 PM +07 on October 13,2017,2017,10,13,13,0,Asia/Bangkok,27,81,25,78,86,0,0,,,,,5,3,1008,29.77,-999,-999,-9999,-9999,,,Mist,hazy,0,0,0,0,0,0,AAXX 13064 48376 01550 80000 10270 20253 39936 40080 57021 60021 71092 8652/ 333 58000 60027 70020
4:00 PM +07 on October 13,2017,2017,10,13,16,0,Asia/Bangkok,29,84,25,77,74,0,0,,,,,6,4,1005,29.69,-999,-999,-9999,-9999,,,Mist,hazy,0,0,0,0,0,0,AAXX 13094 48376 31556 70000 10290 20250 39911 40053 57025 71022 83976 333 58003
7:00 PM +07 on October 13,2017,2017,10,13,19,0,Asia/Bangkok,27,81,26,79,90,0,0,,,,,6,4,1006,29.72,-999,-999,-9999,-9999,,,Mist,hazy,0,0,0,0,0,0,AAXX 13124 48376 31556 60000 10270 20259 39919 40063 51008 71022 84536 333 10292 59005 70020
10:00 PM +07 on October 13,2017,2017,10,13,22,0,Asia/Bangkok,26,79,26,78,97,0,0,,,,,5,3,1008,29.78,-999,-999,-9999,-9999,,,Mist,hazy,0,0,0,0,0,0,AAXX 13154 48376 31550 70000 10263 20257 39941 40085 52022 71022 84576 333 59006
1:00 AM +07 on October 18,2017,2017,10,18,1,0,Asia/Bangkok,24,76,24,76,98,0,0,,,,,1,1,1011,29.85,-999,-999,-9999,-9999,,,Light Rain,rain,0,1,0,0,0,0,AAXX 17184 48376 01510 80000 10245 20242 39960 40106 56003 61023 76196 8652/ 333 58030 60257 71019
4:00 AM +07 on October 18,2017,2017,10,18,4,0,Asia/Bangkok,24,75,24,74,97,0,0,,,,,1,1,1010,29.81,-999,-999,-9999,-9999,,,Light Rain,rain,0,1,0,0,0,0,AAXX 17214 48376 21510 80000 10238 20235 39950 40095 57010 76166 8652/ 333 58026 60397
7:00 AM +07 on October 18,2017,2017,10,18,7,0,Asia/Bangkok,24,75,24,74,97,0,0,,,,,1,1,1011,29.86,-999,-999,-9999,-9999,,,Light Rain,rain,0,1,0,0,0,0,AAXX 18004 48376 01510 80000 10237 20235 39965 40111 52015 61524 76166 8652/ 333 20228 58029 60127 71521
10:00 AM +07 on October 18,2017,2017,10,18,10,0,Asia/Bangkok,26,78,25,77,94,0,0,,,,,2,1,1014,29.93,-999,-999,-9999,-9999,,,Mist,hazy,0,0,0,0,0,0,AAXX 18034 48376 21520 80000 10255 20248 39989 40135 52024 71062 8652/ 333 58031 69937
1:00 PM +07 on October 18,2017,2017,10,18,13,0,Asia/Bangkok,27,81,24,76,80,5.6,3.5,,,60,ENE,4,2,1011,29.87,-999,-999,-9999,-9999,,,Mist,hazy,0,0,0,0,0,0,AAXX 18064 48376 11540 80603 10270 20244 39969 40113 57021 69931 71062 8652/ 333 58034 71524
4:00 PM +07 on October 18,2017,2017,10,18,16,0,Asia/Bangkok,26,79,25,77,92,3.7,2.3,,,20,NNE,4,2,1010,29.82,-999,-999,-9999,-9999,,,Mist,hazy,0,0,0,0,0,0,AAXX 18094 48376 21540 80202 10263 20251 39953 40097 57016 71062 8652/ 333 58045 60016
7:00 PM +07 on October 18,2017,2017,10,18,19,0,Asia/Bangkok,25,77,24,76,95,5.6,3.5,,,290,WNW,2,1,1011,29.86,-999,-999,-9999,-9999,,,Light Rain,rain,0,1,0,0,0,0,AAXX 18124 48376 01520 82903 10250 20244 39966 40112 52014 60022 76062 8652/ 333 10285 58033 60016 71432
10:00 PM +07 on October 18,2017,2017,10,18,22,0,Asia/Bangkok,24,76,24,75,95,0,0,,,,,6,4,1013,29.93,-999,-999,-9999,-9999,,,Mist,hazy,0,0,0,0,0,0,AAXX 18154 48376 21556 80000 10242 20238 39987 40133 52020 71092 85976 333 58024 60257
1:00 AM +07 on October 26,2017,2017,10,26,1,0,Asia/Bangkok,25,77,24,74,89,5.6,3.5,,,290,WNW,4,2,1015,29.96,-999,-999,-9999,-9999,,,Mist,hazy,0,0,0,0,0,0,AAXX 25184 48376 31540 22903 10251 20235 30001 40146 56009 71000 82505 333 58001
4:00 AM +07 on October 26,2017,2017,10,26,4,0,Asia/Bangkok,25,77,24,74,90,3.7,2.3,,,300,WNW,3,2,1014,29.95,-999,-999,-9999,-9999,,,Mist,hazy,0,0,0,0,0,0,AAXX 25214 48376 31530 63002 10249 20236 39995 40141 56006 71021 82516 333 58004
7:00 AM +07 on October 26,2017,2017,10,26,7,0,Asia/Bangkok,25,77,24,74,90,0,0,,,,,4,2,1015,29.98,-999,-999,-9999,-9999,,,Mist,hazy,0,0,0,0,0,0,AAXX 26004 48376 31540 80000 10249 20236 30005 40151 52010 71021 85636 333 20237 59006
10:00 AM +07 on October 26,2017,2017,10,26,10,0,Asia/Bangkok,28,82,24,75,74,3.7,2.3,,,270,West,5,3,1015,29.99,-999,-999,-9999,-9999,,,Mist,hazy,0,0,0,0,0,0,AAXX 26034 48376 31550 72702 10278 20239 30010 40154 51005 71022 84536 333 59016
1:00 PM +07 on October 26,2017,2017,10,26,13,0,Asia/Bangkok,32,89,24,74,54,3.7,2.3,,,60,ENE,7,4,1013,29.93,-999,-999,-9999,-9999,,,Haze,hazy,0,0,0,0,0,0,AAXX 26064 48376 31557 60602 10315 20236 39992 40134 57018 70522 82236 333 59012
4:00 PM +07 on October 26,2017,2017,10,26,16,0,Asia/Bangkok,32,90,24,76,55,0,0,,,,,8,5,1011,29.85,-999,-999,-9999,-9999,,,Haze,hazy,0,0,0,0,0,0,AAXX 26094 48376 31558 20000 10320 20243 39965 40107 57027 70510 82305 333 59014
7:00 PM +07 on October 26,2017,2017,10,26,19,0,Asia/Bangkok,28,82,25,77,79,0,0,,,,,6,4,1012,29.89,-999,-999,-9999,-9999,,,Mist,hazy,0,0,0,0,0,0,AAXX 26124 48376 31956 20000 10280 20248 39977 40121 52012 71010 80005 333 10328 59012
10:00 PM +07 on October 26,2017,2017,10,26,22,0,Asia/Bangkok,26,80,24,76,83,0,0,,,,,6,4,1014,29.94,-999,-999,-9999,-9999,,,Mist,hazy,0,0,0,0,0,0,AAXX 26154 48376 31956 20000 10265 20243 39994 40139 52017 71000 80005 333 59015
1:00 AM +07 on October 22,2017,2017,10,22,1,0,Asia/Bangkok,28,82,22,72,66,5.6,3.5,,,240,WSW,7,4,1010,29.83,-999,-999,-9999,-9999,,,Mist,hazy,0,0,0,0,0,0,AAXX 21184 48376 31957 22403 10276 20224 39958 40102 57011 71000 80005 333 59013
4:00 AM +07 on October 22,2017,2017,10,22,4,0,Asia/Bangkok,26,80,23,73,75,0,0,,,,,6,4,1010,29.83,-999,-999,-9999,-9999,,,Mist,hazy,0,0,0,0,0,0,AAXX 21214 48376 31956 20000 10264 20230 39955 40100 56002 71000 80005 333 59016
7:00 AM +07 on October 22,2017,2017,10,22,7,0,Asia/Bangkok,26,78,23,74,83,0,0,,,,,10,6,1011,29.86,-999,-999,-9999,-9999,,,Scattered Clouds,partlycloudy,0,0,0,0,0,0,AAXX 22004 48376 32560 20000 10256 20232 39965 40110 51009 81505 333 20247 59009
10:00 AM +07 on October 22,2017,2017,10,22,10,0,Asia/Bangkok,32,89,22,72,49,11.1,6.9,,,260,West,10,6,1012,29.88,-999,-999,-9999,-9999,,,Scattered Clouds,partlycloudy,0,0,0,0,0,0,AAXX 22034 48376 32560 22606 10317 20225 39974 40116 51009 81245 333 59016
1:00 PM +07 on October 22,2017,2017,10,22,13,0,Asia/Bangkok,34,93,22,72,42,11.1,6.9,,,250,WSW,10,6,1009,29.81,-999,-999,-9999,-9999,,,Scattered Clouds,partlycloudy,0,0,0,0,0,0,AAXX 22064 48376 32560 22506 10338 20225 39953 40094 57021 82245 333 59006
4:00 PM +07 on October 22,2017,2017,10,22,16,0,Asia/Bangkok,34,93,23,73,43,11.1,6.9,,,260,West,10,6,1007,29.75,-999,-999,-9999,-9999,,,Scattered Clouds,partlycloudy,0,0,0,0,0,0,AAXX 22094 48376 32560 22606 10340 20227 39933 40073 57020 81305 333 58000
7:00 PM +07 on October 22,2017,2017,10,22,19,0,Asia/Bangkok,30,87,24,75,61,5.6,3.5,,,240,WSW,10,6,1008,29.77,-999,-999,-9999,-9999,,,Scattered Clouds,partlycloudy,0,0,0,0,0,0,AAXX 22124 48376 31560 32403 10304 20241 39937 40079 52004 71300 82905 333 10348 59002
10:00 PM +07 on October 22,2017,2017,10,22,22,0,Asia/Bangkok,28,82,23,74,70,5.6,3.5,,,220,SW,8,5,1011,29.86,-999,-999,-9999,-9999,,,Mist,hazy,0,0,0,0,0,0,AAXX 22154 48376 31558 22203 10278 20233 39965 40109 52028 71000 82505 333 59003
1:00 AM +07 on November 01,2017,2017,11,1,1,0,Asia/Bangkok,23,73,21,69,85,0,0,,,,,4,2,1015,29.98,-999,-999,-9999,-9999,,,Mist,hazy,0,0,0,0,0,0,AAXX 31184 48376 31540 60000 10228 20208 30003 40150 56007 71021 82536 333 59002
4:00 AM +07 on November 01,2017,2017,11,1,4,0,Asia/Bangkok,21,70,20,68,91,0,0,,,,,4,2,1014,29.96,-999,-999,-9999,-9999,,,Mist,hazy,0,0,0,0,0,0,AAXX 31214 48376 31540 20000 10212 20199 39998 40145 56006 71010 82505 333 59002
10:00 AM +07 on November 01,2017,2017,11,1,10,0,Asia/Bangkok,26,80,19,66,53,9.3,5.8,,,320,NW,5,3,1016,30.02,-999,-999,-9999,-9999,,,Haze,hazy,0,0,0,0,0,0,AAXX 01034 48376 31950 23205 10265 20187 30020 40165 52013 70500 80005 333 59005
1:00 PM +07 on November 01,2017,2017,11,1,13,0,Asia/Bangkok,30,86,20,67,44,5.6,3.5,,,90,East,7,4,1013,29.93,-999,-999,-9999,-9999,,,Haze,hazy,0,0,0,0,0,0,AAXX 01064 48376 31557 20903 10302 20197 39990 40133 57030 70500 82205 333 59006
4:00 PM +07 on November 01,2017,2017,11,1,16,0,Asia/Bangkok,30,87,19,67,41,3.7,2.3,,,90,East,7,4,1011,29.85,-999,-999,-9999,-9999,,,Haze,hazy,0,0,0,0,0,0,AAXX 01094 48376 31557 20902 10305 20192 39965 40108 57025 70500 81205 333 59010
7:00 PM +07 on November 01,2017,2017,11,1,19,0,Asia/Bangkok,26,80,22,71,66,0,0,,,,,5,3,1013,29.91,-999,-999,-9999,-9999,,,Mist,hazy,0,0,0,0,0,0,AAXX 01124 48376 31550 30000 10265 20215 39981 40126 52016 71000 82535 333 10308 59008
10:00 PM +07 on November 01,2017,2017,11,1,22,0,Asia/Bangkok,24,76,22,71,80,0,0,,,,,4,2,1014,29.94,-999,-999,-9999,-9999,,,Mist,hazy,0,0,0,0,0,0,AAXX 01154 48376 31540 20000 10245 20216 39992 40138 52011 71000 81535 333 59019
1:00 AM +07 on October 04,2017,2017,10,4,1,0,Asia/Bangkok,25,76,24,75,97,0,0,,,,,3,2,1008,29.78,-999,-999,-9999,-9999,,,Light Rain,rain,0,1,0,0,0,0,AAXX 03184 48376 01530 80000 10247 20241 39939 40084 56009 60763 76166 8652/ 333 58000 60227 70758
4:00 AM +07 on October 04,2017,2017,10,4,4,0,Asia/Bangkok,25,76,24,75,97,0,0,,,,,4,2,1007,29.74,-999,-999,-9999,-9999,,,Mist,hazy,0,0,0,0,0,0,AAXX 03214 48376 21540 80000 10247 20241 39926 40071 57012 71062 8652/ 333 59001 69927
7:00 AM +07 on October 04,2017,2017,10,4,7,0,Asia/Bangkok,25,77,24,76,96,0,0,,,,,6,4,1008,29.78,-999,-999,-9999,-9999,,,Mist,hazy,0,0,0,0,0,0,AAXX 04004 48376 11556 60000 10249 20245 39940 40085 52014 60764 71062 83536 333 20234 58000 70760
10:00 AM +07 on October 04,2017,2017,10,4,10,0,Asia/Bangkok,27,81,26,79,91,3.7,2.3,,,80,East,4,2,1010,29.83,-999,-999,-9999,-9999,,,Light Rain,rain,0,1,0,0,0,0,AAXX 04034 48376 21540 70802 10273 20260 39957 40101 52017 76022 85576 333 59003 69965
4:00 PM +07 on October 04,2017,2017,10,4,16,0,Asia/Bangkok,28,82,26,79,87,0,0,,,,,5,3,1007,29.74,-999,-999,-9999,-9999,,,Mist,hazy,0,0,0,0,0,0,AAXX 04094 48376 21550 80000 10278 20260 39926 40069 57016 71092 85976 333 58003 69927
7:00 PM +07 on October 04,2017,2017,10,4,19,0,Asia/Bangkok,26,79,25,77,92,0,0,,,,,5,3,1008,29.77,-999,-999,-9999,-9999,,,Mist,hazy,0,0,0,0,0,0,AAXX 04124 48376 11550 60000 10260 20251 39935 40079 51009 60082 71092 83556 333 10295 58007 70428
10:00 PM +07 on October 04,2017,2017,10,4,22,0,Asia/Bangkok,26,79,25,78,94,0,0,,,,,5,3,1010,29.84,-999,-999,-9999,-9999,,,Mist,hazy,0,0,0,0,0,0,AAXX 04154 48376 31550 80000 10260 20253 39960 40104 52025 71022 8652/ 333 58012
1:00 AM +07 on November 02,2017,2017,11,2,1,0,Asia/Bangkok,23,73,21,70,86,0,0,,,,,4,2,1012,29.9,-999,-999,-9999,-9999,,,Mist,hazy,0,0,0,0,0,0,AAXX 01184 48376 31540 20000 10226 20209 39978 40125 57013 71000 81505 333 59025
4:00 AM +07 on November 02,2017,2017,11,2,4,0,Asia/Bangkok,22,72,21,69,88,3.7,2.3,,,270,West,4,2,1012,29.88,-999,-999,-9999,-9999,,,Mist,hazy,0,0,0,0,0,0,AAXX 01214 48376 31540 62702 10220 20206 39969 40116 56009 71021 83536 333 59029
7:00 AM +07 on November 02,2017,2017,11,2,7,0,Asia/Bangkok,22,72,20,68,85,5.6,3.5,,,290,WNW,4,2,1013,29.92,-999,-999,-9999,-9999,,,Mist,hazy,0,0,0,0,0,0,AAXX 02004 48376 31540 72903 10225 20202 39983 40130 52014 71021 84536 333 20198 59025
10:00 AM +07 on November 02,2017,2017,11,2,10,0,Asia/Bangkok,27,81,21,70,61,5.6,3.5,,,310,NW,6,4,1014,29.95,-999,-999,-9999,-9999,,,Mist,hazy,0,0,0,0,0,0,AAXX 02034 48376 31556 33103 10272 20209 39997 40142 52014 71010 82235 333 59024
1:00 PM +07 on November 02,2017,2017,11,2,13,0,Asia/Bangkok,30,87,21,70,47,0,0,,,,,6,4,1011,29.85,-999,-999,-9999,-9999,,,Haze,hazy,0,0,0,0,0,0,AAXX 02064 48376 31556 60000 10305 20209 39964 40107 57033 70521 83236 333 59026
4:00 PM +07 on November 02,2017,2017,11,2,16,0,Asia/Bangkok,30,86,21,70,51,7.4,4.6,,,90,East,6,4,1009,29.81,-999,-999,-9999,-9999,,,Haze,hazy,0,0,0,0,0,0,AAXX 02094 48376 31556 70904 10301 20213 39949 40092 57015 70522 84536 333 59016
7:00 PM +07 on November 02,2017,2017,11,2,19,0,Asia/Bangkok,28,82,23,74,69,0,0,,,,,6,4,1010,29.84,-999,-999,-9999,-9999,,,Mist,hazy,0,0,0,0,0,0,AAXX 02124 48376 31556 70000 10275 20231 39959 40103 52010 71022 84636 333 10317 59023
10:00 PM +07 on November 02,2017,2017,11,2,22,0,Asia/Bangkok,25,77,23,73,84,0,0,,,,,6,4,1012,29.89,-999,-999,-9999,-9999,,,Mist,hazy,0,0,0,0,0,0,AAXX 02154 48376 31556 60000 10252 20228 39975 40121 52016 71022 83536 333 59017
1:00 AM +07 on November 03,2017,2017,11,3,1,0,Asia/Bangkok,24,75,22,72,89,0,0,,,,,4,2,1011,29.85,-999,-999,-9999,-9999,,,Mist,hazy,0,0,0,0,0,0,AAXX 02184 48376 31540 60000 10240 20225 39962 40108 57013 71022 83536 333 59017
4:00 AM +07 on November 03,2017,2017,11,3,4,0,Asia/Bangkok,23,74,22,71,88,0,0,,,,,4,2,1011,29.87,-999,-999,-9999,-9999,,,Mist,hazy,0,0,0,0,0,0,AAXX 02214 48376 31540 60000 10231 20217 39967 40113 51005 71022 83536 333 59003
7:00 AM +07 on November 03,2017,2017,11,3,7,0,Asia/Bangkok,23,73,22,71,92,0,0,,,,,4,2,1013,29.92,-999,-999,-9999,-9999,,,Mist,hazy,0,0,0,0,0,0,AAXX 03004 48376 31540 60000 10226 20217 39984 40131 52017 71022 83536 333 20218 58001
10:00 AM +07 on November 03,2017,2017,11,3,10,0,Asia/Bangkok,29,84,22,71,57,5.6,3.5,,,90,East,7,4,1014,29.94,-999,-999,-9999,-9999,,,Mist,hazy,0,0,0,0,0,0,AAXX 03034 48376 31557 20903 10287 20217 39994 40138 52010 71010 81205 333 59003
1:00 PM +07 on November 03,2017,2017,11,3,13,0,Asia/Bangkok,31,88,19,66,38,9.3,5.8,,,110,ESE,7,4,1011,29.86,-999,-999,-9999,-9999,,,Haze,hazy,0,0,0,0,0,0,AAXX 03064 48376 31557 21105 10309 20187 39967 40110 57027 70510 81105 333 58003
4:00 PM +07 on November 03,2017,2017,11,3,16,0,Asia/Bangkok,31,88,20,68,42,7.4,4.6,,,90,East,6,4,1009,29.8,-999,-999,-9999,-9999,,,Haze,hazy,0,0,0,0,0,0,AAXX 03094 48376 31556 20904 10312 20200 39948 40090 57019 70500 81205 333 59001
7:00 PM +07 on November 03,2017,2017,11,3,19,0,Asia/Bangkok,27,80,23,73,73,0,0,,,,,6,4,1011,29.87,-999,-999,-9999,-9999,,,Mist,hazy,0,0,0,0,0,0,AAXX 03124 48376 31956 20000 10267 20227 39969 40113 52020 71000 80005 333 10318 58010
10:00 PM +07 on November 03,2017,2017,11,3,22,0,Asia/Bangkok,24,76,22,72,85,0,0,,,,,5,3,1014,29.94,-999,-999,-9999,-9999,,,Mist,hazy,0,0,0,0,0,0,AAXX 03154 48376 31550 20000 10243 20224 39991 40138 52023 71000 81205 333 58017
1:00 AM +07 on November 04,2017,2017,11,4,1,0,Asia/Bangkok,23,73,22,71,90,0,0,,,,,3,2,1013,29.93,-999,-999,-9999,-9999,,,Mist,hazy,0,0,0,0,0,0,AAXX 03184 48376 31930 20000 10230 20215 39986 40133 56005 71000 80005 333 58025
4:00 AM +07 on November 04,2017,2017,11,4,4,0,Asia/Bangkok,22,71,21,70,94,0,0,,,,,2,1,1012,29.9,-999,-999,-9999,-9999,,,Mist,hazy,0,0,0,0,0,0,AAXX 03214 48376 31920 20000 10217 20209 39977 40124 56009 71000 80005 333 58011
7:00 AM +07 on November 04,2017,2017,11,4,7,0,Asia/Bangkok,21,70,20,69,94,0,0,,,,,5,3,1014,29.94,-999,-999,-9999,-9999,,,Mist,hazy,0,0,0,0,0,0,AAXX 04004 48376 31950 20000 10212 20203 39990 40137 52013 71000 80005 333 20206 58006
10:00 AM +07 on November 04,2017,2017,11,4,10,0,Asia/Bangkok,28,82,21,69,57,7.4,4.6,,,90,East,6,4,1015,29.97,-999,-999,-9999,-9999,,,Mist,hazy,0,0,0,0,0,0,AAXX 04034 48376 31556 20904 10275 20207 30004 40149 52015 71000 81505 333 58011
1:00 PM +07 on November 04,2017,2017,11,4,13,0,Asia/Bangkok,31,87,18,64,37,9.3,5.8,,,90,East,6,4,1012,29.87,-999,-999,-9999,-9999,,,Haze,hazy,0,0,0,0,0,0,AAXX 04064 48376 31556 20905 10308 20179 39973 40115 57031 70500 82205 333 58006
7:00 PM +07 on November 04,2017,2017,11,4,19,0,Asia/Bangkok,26,80,20,68,58,0,0,,,,,6,4,1012,29.88,-999,-999,-9999,-9999,,,Mist,hazy,0,0,0,0,0,0,AAXX 04124 48376 31556 20000 10265 20199 39972 40116 52015 71000 81505 333 10316 58003
10:00 PM +07 on November 04,2017,2017,11,4,22,0,Asia/Bangkok,24,74,21,70,82,0,0,,,,,6,4,1014,29.95,-999,-999,-9999,-9999,,,Mist,hazy,0,0,0,0,0,0,AAXX 04154 48376 31556 30000 10235 20209 39994 40140 52022 71000 82555 333 58003
1:00 AM +07 on November 08,2017,2017,11,8,1,0,Asia/Bangkok,25,77,22,72,79,0,0,,,,,4,2,1012,29.9,-999,-999,-9999,-9999,,,Mist,hazy,0,0,0,0,0,0,AAXX 07184 48376 31540 60000 10249 20221 39977 40123 56006 71022 83536 333 59015
4:00 AM +07 on November 08,2017,2017,11,8,4,0,Asia/Bangkok,24,74,22,72,90,0,0,,,,,4,2,1012,29.89,-999,-999,-9999,-9999,,,Mist,hazy,0,0,0,0,0,0,AAXX 07214 48376 31540 60000 10235 20220 39976 40122 56002 71022 83536 333 59006
7:00 AM +07 on November 08,2017,2017,11,8,7,0,Asia/Bangkok,24,75,22,71,85,0,0,,,,,4,2,1014,29.94,-999,-999,-9999,-9999,,,Mist,hazy,0,0,0,0,0,0,AAXX 08004 48376 31540 80000 10237 20219 39991 40137 52015 71022 84576 333 20207 58000
10:00 AM +07 on November 08,2017,2017,11,8,10,0,Asia/Bangkok,26,79,22,72,73,0,0,,,,,7,4,1015,29.98,-999,-999,-9999,-9999,,,Mist,hazy,0,0,0,0,0,0,AAXX 08034 48376 31557 80000 10260 20221 30004 40150 52014 71022 8652/ 333 58000
1:00 PM +07 on November 08,2017,2017,11,8,13,0,Asia/Bangkok,28,82,22,72,66,0,0,,,,,6,4,1013,29.91,-999,-999,-9999,-9999,,,Mist,hazy,0,0,0,0,0,0,AAXX 08064 48376 31556 80000 10280 20224 39982 40126 57023 71022 8652/ 333 58007
4:00 PM +07 on November 08,2017,2017,11,8,16,0,Asia/Bangkok,28,82,22,72,66,0,0,,,,,7,4,1011,29.86,-999,-999,-9999,-9999,,,Mist,hazy,0,0,0,0,0,0,AAXX 08094 48376 31557 80000 10280 20225 39966 40110 57015 71022 8652/ 333 58014
7:00 PM +07 on November 08,2017,2017,11,8,19,0,Asia/Bangkok,26,79,23,73,78,0,0,,,,,6,4,1012,29.88,-999,-999,-9999,-9999,,,Mist,hazy,0,0,0,0,0,0,AAXX 08124 48376 31556 80000 10263 20229 39971 40116 51005 71022 8652/ 333 10284 59002
10:00 PM +07 on November 08,2017,2017,11,8,22,0,Asia/Bangkok,25,78,23,74,84,0,0,,,,,5,3,1013,29.91,-999,-999,-9999,-9999,,,Mist,hazy,0,0,0,0,0,0,AAXX 08154 48376 31550 80000 10253 20234 39981 40127 52010 71022 8652/ 333 59002
1:00 AM +07 on November 10,2017,2017,11,10,1,0,Asia/Bangkok,25,77,24,74,89,0,0,,,,,5,3,1012,29.89,-999,-999,-9999,-9999,,,Mist,hazy,0,0,0,0,0,0,AAXX 09184 48376 31550 60000 10251 20235 39974 40120 56004 71022 82536 333 58000
4:00 AM +07 on November 10,2017,2017,11,10,4,0,Asia/Bangkok,25,77,23,74,86,5.6,3.5,,,300,WNW,5,3,1011,29.87,-999,-999,-9999,-9999,,,Mist,hazy,0,0,0,0,0,0,AAXX 09214 48376 31550 83003 10250 20231 39969 40114 56006 71022 8552/ 333 58001
7:00 AM +07 on November 10,2017,2017,11,10,7,0,Asia/Bangkok,25,76,23,74,90,0,0,,,,,4,2,1012,29.9,-999,-999,-9999,-9999,,,Mist,hazy,0,0,0,0,0,0,AAXX 10004 48376 01540 80000 10246 20231 39979 40125 52010 69904 71062 8552/ 333 20232 59001 69907 79999
10:00 AM +07 on November 10,2017,2017,11,10,10,0,Asia/Bangkok,27,81,24,76,80,0,0,,,,,7,4,1014,29.93,-999,-999,-9999,-9999,,,Mist,hazy,0,0,0,0,0,0,AAXX 10034 48376 21557 60000 10272 20243 39990 40135 52011 71062 83536 333 59004 69956
1:00 PM +07 on November 10,2017,2017,11,10,13,0,Asia/Bangkok,31,88,24,75,57,0,0,,,,,8,5,1010,29.84,-999,-999,-9999,-9999,,,Mist,hazy,0,0,0,0,0,0,AAXX 10064 48376 11558 50000 10310 20238 39962 40105 57028 69951 71062 82236 333 59010 70005
4:00 PM +07 on November 10,2017,2017,11,10,16,0,Asia/Bangkok,30,86,24,75,63,0,0,,,,,8,5,1009,29.79,-999,-999,-9999,-9999,,,Mist,hazy,0,0,0,0,0,0,AAXX 10094 48376 31558 50000 10302 20239 39943 40086 57019 71022 82236 333 59009
7:00 PM +07 on November 10,2017,2017,11,10,19,0,Asia/Bangkok,28,82,25,76,78,0,0,,,,,6,4,1010,29.81,-999,-999,-9999,-9999,,,Mist,hazy,0,0,0,0,0,0,AAXX 10124 48376 31556 20000 10280 20246 39952 40095 51009 71011 81535 333 10310 59012 70005
10:00 PM +07 on November 10,2017,2017,11,10,22,0,Asia/Bangkok,26,78,24,76,91,0,0,,,,,5,3,1012,29.89,-999,-999,-9999,-9999,,,Mist,hazy,0,0,0,0,0,0,AAXX 10154 48376 31950 20000 10257 20244 39976 40122 52025 71000 80005 333 59002
1:00 AM +07 on November 11,2017,2017,11,11,1,0,Asia/Bangkok,25,77,23,74,87,0,0,,,,,5,3,1012,29.88,-999,-999,-9999,-9999,,,Mist,hazy,0,0,0,0,0,0,AAXX 10184 48376 31550 20000 10248 20232 39971 40117 56005 71000 82505 333 59003 70005
4:00 AM +07 on November 11,2017,2017,11,11,4,0,Asia/Bangkok,25,77,24,74,90,0,0,,,,,5,3,1011,29.85,-999,-999,-9999,-9999,,,Mist,hazy,0,0,0,0,0,0,AAXX 10214 48376 21550 30000 10248 20236 39963 40108 56008 71060 82535 333 59006 60047
10:00 AM +07 on November 11,2017,2017,11,11,10,0,Asia/Bangkok,30,85,25,77,71,0,0,,,,,7,4,1014,29.93,-999,-999,-9999,-9999,,,Mist,hazy,0,0,0,0,0,0,AAXX 11034 48376 31557 50000 10297 20249 39991 40135 56006 71022 82236 333 58000
1:00 PM +07 on November 11,2017,2017,11,11,13,0,Asia/Bangkok,32,89,23,74,53,0,0,,,,,8,5,1010,29.84,-999,-999,-9999,-9999,,,Haze,hazy,0,0,0,0,0,0,AAXX 11064 48376 31558 50000 10318 20234 39961 40103 57030 70522 82236 333 59002 70035
4:00 PM +07 on November 11,2017,2017,11,11,16,0,Asia/Bangkok,31,88,26,78,67,5.6,3.5,,,160,SSE,5,3,1009,29.79,-999,-999,-9999,-9999,,,Light Rain,rain,0,1,0,0,0,0,AAXX 11094 48376 21550 61603 10309 20258 39944 40086 57017 76022 83536 333 58000 69985
7:00 PM +07 on November 11,2017,2017,11,11,19,0,Asia/Bangkok,27,81,24,76,81,0,0,,,,,6,4,1010,29.83,-999,-999,-9999,-9999,,,Mist,hazy,0,0,0,0,0,0,AAXX 11124 48376 11556 60000 10272 20245 39956 40101 52013 69982 71062 83536 333 10329 58005 70043
10:00 PM +07 on November 11,2017,2017,11,11,22,0,Asia/Bangkok,26,78,24,76,91,0,0,,,,,5,3,1012,29.88,-999,-999,-9999,-9999,,,Mist,hazy,0,0,0,0,0,0,AAXX 11154 48376 31550 60000 10256 20243 39972 40117 52015 71022 83536 333 59005
1:00 AM +07 on November 12,2017,2017,11,12,1,0,Asia/Bangkok,24,76,24,75,95,0,0,,,,,5,3,1011,29.85,-999,-999,-9999,-9999,,,Mist,hazy,0,0,0,0,0,0,AAXX 11184 48376 31550 50000 10245 20238 39961 40107 57010 71022 82536 333 59010 70043
4:00 AM +07 on November 12,2017,2017,11,12,4,0,Asia/Bangkok,24,75,23,73,92,0,0,,,,,5,3,1010,29.83,-999,-999,-9999,-9999,,,Mist,hazy,0,0,0,0,0,0,AAXX 11214 48376 31550 20000 10240 20228 39954 40099 56008 71011 82505 333 59009
7:00 AM +07 on November 12,2017,2017,11,12,7,0,Asia/Bangkok,23,74,23,73,94,0,0,,,,,5,3,1011,29.86,-999,-999,-9999,-9999,,,Mist,hazy,0,0,0,0,0,0,AAXX 12004 48376 11550 30000 10234 20226 39964 40110 52010 69984 71011 82235 333 20227 59014 70008
10:00 AM +07 on November 12,2017,2017,11,12,10,0,Asia/Bangkok,30,86,24,74,61,5.6,3.5,,,250,WSW,7,4,1012,29.88,-999,-999,-9999,-9999,,,Mist,hazy,0,0,0,0,0,0,AAXX 12034 48376 31557 22503 10299 20235 39976 40119 52013 71011 82205 333 59015
1:00 PM +07 on November 12,2017,2017,11,12,13,0,Asia/Bangkok,32,90,24,76,54,5.6,3.5,,,260,West,7,4,1009,29.79,-999,-999,-9999,-9999,,,Haze,hazy,0,0,0,0,0,0,AAXX 12064 48376 31557 32603 10322 20242 39946 40087 57030 70511 82205 333 59015 70008
4:00 PM +07 on November 12,2017,2017,11,12,16,0,Asia/Bangkok,30,85,25,77,71,5.6,3.5,,,120,ESE,7,4,1007,29.75,-999,-999,-9999,-9999,,,Mist,hazy,0,0,0,0,0,0,AAXX 12094 48376 31557 61203 10297 20249 39929 40072 57017 71011 83536 333 59014
7:00 PM +07 on November 12,2017,2017,11,12,19,0,Asia/Bangkok,27,81,24,75,78,0,0,,,,,6,4,1009,29.79,-999,-999,-9999,-9999,,,Mist,hazy,0,0,0,0,0,0,AAXX 12124 48376 31556 30000 10271 20241 39942 40086 52014 71011 82535 333 10329 59014
10:00 PM +07 on November 12,2017,2017,11,12,22,0,Asia/Bangkok,26,79,24,75,85,0,0,,,,,6,4,1010,29.84,-999,-999,-9999,-9999,,,Mist,hazy,0,0,0,0,0,0,AAXX 12154 48376 31556 20000 10259 20240 39960 40105 52017 71000 82505 333 59012
4:00 AM +07 on November 13,2017,2017,11,13,4,0,Asia/Bangkok,24,75,23,73,93,0,0,,,,,5,3,1009,29.79,-999,-999,-9999,-9999,,,Mist,hazy,0,0,0,0,0,0,AAXX 12214 48376 31550 20000 10240 20230 39942 40088 57013 71000 82505 333 59011
7:00 AM +07 on November 13,2017,2017,11,13,7,0,Asia/Bangkok,23,74,23,73,94,0,0,,,,,5,3,1011,29.86,-999,-999,-9999,-9999,,,Mist,hazy,0,0,0,0,0,0,AAXX 13004 48376 31550 50000 10234 20226 39963 40109 52021 71011 82536 333 20228 59001
10:00 AM +07 on November 13,2017,2017,11,13,10,0,Asia/Bangkok,29,84,24,76,70,0,0,,,,,7,4,1012,29.89,-999,-999,-9999,-9999,,,Mist,hazy,0,0,0,0,0,0,AAXX 13034 48376 31557 20000 10288 20242 39976 40120 52013 71011 81235 333 58000
1:00 PM +07 on November 13,2017,2017,11,13,13,0,Asia/Bangkok,32,89,24,76,57,0,0,,,,,7,4,1008,29.78,-999,-999,-9999,-9999,,,Mist,hazy,0,0,0,0,0,0,AAXX 13064 48376 31557 30000 10315 20244 39943 40085 57033 71011 82305 333 59002
4:00 PM +07 on November 13,2017,2017,11,13,16,0,Asia/Bangkok,33,91,24,75,51,0,0,,,,,7,4,1006,29.72,-999,-999,-9999,-9999,,,Haze,hazy,0,0,0,0,0,0,AAXX 13094 48376 31557 30000 10328 20238 39923 40064 57020 70500 82535 333 59008
7:00 PM +07 on November 13,2017,2017,11,13,19,0,Asia/Bangkok,30,86,25,77,68,0,0,,,,,6,4,1008,29.76,-999,-999,-9999,-9999,,,Mist,hazy,0,0,0,0,0,0,AAXX 13124 48376 31556 30000 10298 20250 39934 40077 52012 71000 82535 333 10332 59009
10:00 PM +07 on November 13,2017,2017,11,13,22,0,Asia/Bangkok,27,81,25,77,83,0,0,,,,,5,3,1009,29.81,-999,-999,-9999,-9999,,,Mist,hazy,0,0,0,0,0,0,AAXX 13154 48376 31550 20000 10270 20248 39949 40093 52014 71000 82505 333 59012
1:00 AM +07 on November 14,2017,2017,11,14,1,0,Asia/Bangkok,25,77,24,75,93,0,0,,,,,5,3,1009,29.81,-999,-999,-9999,-9999,,,Mist,hazy,0,0,0,0,0,0,AAXX 13184 48376 31550 20000 10251 20241 39948 40093 56001 71000 81505 333 59008
4:00 AM +07 on November 14,2017,2017,11,14,4,0,Asia/Bangkok,24,75,23,74,96,0,0,,,,,5,3,1009,29.81,-999,-999,-9999,-9999,,,Mist,hazy,0,0,0,0,0,0,AAXX 13214 48376 31550 30000 10240 20234 39946 40092 56001 71000 82535 333 58004
7:00 AM +07 on November 14,2017,2017,11,14,7,0,Asia/Bangkok,24,76,24,75,95,0,0,,,,,4,2,1011,29.87,-999,-999,-9999,-9999,,,Light Rain,rain,0,1,0,0,0,0,AAXX 14004 48376 01540 80000 10245 20238 39967 40113 52021 60144 72161 8652/ 333 20236 58004 60146 70140
10:00 AM +07 on November 14,2017,2017,11,14,10,0,Asia/Bangkok,26,79,25,76,89,0,0,,,,,5,3,1013,29.92,-999,-999,-9999,-9999,,,Mist,hazy,0,0,0,0,0,0,AAXX 14034 48376 21550 60000 10260 20246 39984 40130 52017 71062 83536 333 58010 60107
1:00 PM +07 on November 14,2017,2017,11,14,13,0,Asia/Bangkok,30,86,26,78,72,0,0,,,,,7,4,1010,29.82,-999,-999,-9999,-9999,,,Mist,hazy,0,0,0,0,0,0,AAXX 14064 48376 11557 60000 10301 20257 39954 40096 57031 60101 71062 82336 333 58011 70242
4:00 PM +07 on November 14,2017,2017,11,14,16,0,Asia/Bangkok,32,89,25,77,60,0,0,,,,,7,4,1007,29.75,-999,-999,-9999,-9999,,,Mist,hazy,0,0,0,0,0,0,AAXX 14094 48376 31557 50000 10318 20249 39932 40074 57021 71022 82936 333 58010
7:00 PM +07 on November 14,2017,2017,11,14,19,0,Asia/Bangkok,29,83,25,77,77,0,0,,,,,6,4,1009,29.79,-999,-999,-9999,-9999,,,Mist,hazy,0,0,0,0,0,0,AAXX 14124 48376 31556 20000 10286 20249 39944 40087 52012 71011 82505 333 10332 58010 70242
10:00 PM +07 on November 14,2017,2017,11,14,22,0,Asia/Bangkok,26,79,25,76,89,0,0,,,,,6,4,1011,29.86,-999,-999,-9999,-9999,,,Mist,hazy,0,0,0,0,0,0,AAXX 14154 48376 31556 20000 10260 20246 39967 40112 52023 71000 82505 333 58020
1:00 AM +07 on November 15,2017,2017,11,15,1,0,Asia/Bangkok,25,78,24,75,88,0,0,,,,,5,3,1011,29.86,-999,-999,-9999,-9999,,,Mist,hazy,0,0,0,0,0,0,AAXX 14184 48376 31550 20000 10253 20240 39967 40112 56001 71000 82505 333 58019 70242
4:00 AM +07 on November 15,2017,2017,11,15,4,0,Asia/Bangkok,24,76,24,74,94,0,0,,,,,4,2,1010,29.84,-999,-999,-9999,-9999,,,Mist,hazy,0,0,0,0,0,0,AAXX 14214 48376 31540 50000 10245 20236 39957 40103 57010 71011 82536 333 58011
7:00 AM +07 on November 15,2017,2017,11,15,7,0,Asia/Bangkok,24,76,24,74,93,0,0,,,,,6,4,1012,29.88,-999,-999,-9999,-9999,,,Mist,hazy,0,0,0,0,0,0,AAXX 15004 48376 11556 30000 10242 20235 39972 40118 52015 60104 71011 82535 333 20236 58005 70102
10:00 AM +07 on November 15,2017,2017,11,15,10,0,Asia/Bangkok,30,85,24,76,68,0,0,,,,,6,4,1013,29.92,-999,-999,-9999,-9999,,,Mist,hazy,0,0,0,0,0,0,AAXX 15034 48376 31556 30000 10297 20244 39989 40132 52017 71000 82235 333 58003
1:00 PM +07 on November 15,2017,2017,11,15,13,0,Asia/Bangkok,33,91,24,76,53,5.6,3.5,,,120,ESE,7,4,1010,29.84,-999,-999,-9999,-9999,,,Haze,hazy,0,0,0,0,0,0,AAXX 15064 48376 31557 21203 10327 20245 39963 40105 57026 70500 82205 333 58008
4:00 PM +07 on November 15,2017,2017,11,15,16,0,Asia/Bangkok,33,91,25,77,56,0,0,,,,,7,4,1008,29.78,-999,-999,-9999,-9999,,,Haze,hazy,0,0,0,0,0,0,AAXX 15094 48376 31557 20000 10328 20250 39943 40085 57020 70500 82205 333 58011
7:00 PM +07 on November 15,2017,2017,11,15,19,0,Asia/Bangkok,29,84,26,78,78,0,0,,,,,6,4,1009,29.81,-999,-999,-9999,-9999,,,Mist,hazy,0,0,0,0,0,0,AAXX 15124 48376 31556 20000 10288 20257 39951 40094 51007 71000 81505 333 10340 58007
10:00 PM +07 on November 15,2017,2017,11,15,22,0,Asia/Bangkok,26,79,24,76,88,0,0,,,,,5,3,1011,29.87,-999,-999,-9999,-9999,,,Mist,hazy,0,0,0,0,0,0,AAXX 15154 48376 31550 20000 10262 20245 39969 40114 52019 71000 82505 333 58002
1:00 AM +07 on November 16,2017,2017,11,16,1,0,Asia/Bangkok,24,76,24,75,95,0,0,,,,,5,3,1011,29.86,-999,-999,-9999,-9999,,,Mist,hazy,0,0,0,0,0,0,AAXX 15184 48376 31550 20000 10245 20238 39966 40111 56003 71000 81505 333 59001
4:00 AM +07 on November 16,2017,2017,11,16,4,0,Asia/Bangkok,24,76,23,74,91,0,0,,,,,5,3,1010,29.84,-999,-999,-9999,-9999,,,Mist,hazy,0,0,0,0,0,0,AAXX 15214 48376 31550 30000 10245 20232 39959 40105 56007 71000 82535 333 58002
7:00 AM +07 on November 16,2017,2017,11,16,7,0,Asia/Bangkok,24,76,24,74,93,0,0,,,,,4,2,1012,29.88,-999,-999,-9999,-9999,,,Light Rain,rain,0,1,0,0,0,0,AAXX 16004 48376 01540 80000 10244 20235 39973 40119 52014 69944 76011 8652/ 333 20235 58001 69945 70004
10:00 AM +07 on November 16,2017,2017,11,16,10,0,Asia/Bangkok,25,78,24,75,89,0,0,,,,,3,2,1014,29.96,-999,-999,-9999,-9999,,,Light Rain,rain,0,1,0,0,0,0,AAXX 16034 48376 21530 80000 10253 20241 39997 40143 52024 72162 8652/ 333 58011 60026
1:00 PM +07 on November 16,2017,2017,11,16,13,0,Asia/Bangkok,28,83,24,76,73,5.6,3.5,,,320,NW,5,3,1012,29.9,-999,-999,-9999,-9999,,,Mist,hazy,0,0,0,0,0,0,AAXX 16064 48376 11550 63203 10283 20243 39981 40125 57017 60021 71062 83556 333 58020 70024
4:00 PM +07 on November 16,2017,2017,11,16,16,0,Asia/Bangkok,28,83,25,77,77,0,0,,,,,6,4,1010,29.82,-999,-999,-9999,-9999,,,Mist,hazy,0,0,0,0,0,0,AAXX 16094 48376 31556 70000 10285 20249 39952 40096 57028 71022 83536 333 58011
7:00 PM +07 on November 16,2017,2017,11,16,19,0,Asia/Bangkok,27,80,25,77,87,0,0,,,,,6,4,1011,29.85,-999,-999,-9999,-9999,,,Mist,hazy,0,0,0,0,0,0,AAXX 16124 48376 31556 60000 10266 20249 39964 40108 52011 71022 83536 333 10290 58014 70024
10:00 PM +07 on November 16,2017,2017,11,16,22,0,Asia/Bangkok,25,78,24,76,91,0,0,,,,,6,4,1012,29.9,-999,-999,-9999,-9999,,,Mist,hazy,0,0,0,0,0,0,AAXX 16154 48376 31556 50000 10253 20244 39977 40123 52014 71022 82536 333 58009
1:00 AM +07 on November 17,2017,2017,11,17,1,0,Asia/Bangkok,25,77,24,75,92,0,0,,,,,5,3,1012,29.88,-999,-999,-9999,-9999,,,Mist,hazy,0,0,0,0,0,0,AAXX 16184 48376 31550 60000 10248 20239 39972 40118 56005 71022 83536 333 58007 70024
4:00 AM +07 on November 17,2017,2017,11,17,4,0,Asia/Bangkok,24,76,24,75,95,0,0,,,,,4,2,1011,29.86,-999,-999,-9999,-9999,,,Mist,hazy,0,0,0,0,0,0,AAXX 16214 48376 31540 60000 10245 20238 39965 40110 56008 71022 83556 333 58006
7:00 AM +07 on November 17,2017,2017,11,17,7,0,Asia/Bangkok,25,77,24,75,92,0,0,,,,,7,4,1012,29.88,-999,-999,-9999,-9999,,,Mist,hazy,0,0,0,0,0,0,AAXX 17004 48376 11557 50000 10248 20239 39973 40119 51008 60024 71022 82536 333 20238 59001 70020
10:00 AM +07 on November 17,2017,2017,11,17,10,0,Asia/Bangkok,30,85,27,80,82,0,0,,,,,7,4,1012,29.9,-999,-999,-9999,-9999,,,Mist,hazy,0,0,0,0,0,0,AAXX 17034 48376 31557 20000 10296 20268 39980 40123 52007 71000 82205 333 59020
1:00 PM +07 on November 17,2017,2017,11,17,13,0,Asia/Bangkok,34,93,25,76,50,0,0,,,,,8,5,1010,29.82,-999,-999,-9999,-9999,,,Haze,hazy,0,0,0,0,0,0,AAXX 17064 48376 31558 30000 10337 20246 39955 40096 57025 70511 82205 333 59029
4:00 PM +07 on November 17,2017,2017,11,17,16,0,Asia/Bangkok,33,91,26,78,59,0,0,,,,,7,4,1007,29.74,-999,-999,-9999,-9999,,,Mist,hazy,0,0,0,0,0,0,AAXX 17094 48376 31557 30000 10328 20258 39928 40069 57026 71000 82235 333 59026
7:00 PM +07 on November 17,2017,2017,11,17,19,0,Asia/Bangkok,29,84,26,79,82,0,0,,,,,7,4,1008,29.77,-999,-999,-9999,-9999,,,Mist,hazy,0,0,0,0,0,0,AAXX 17124 48376 31557 20000 10290 20263 39936 40079 51008 71000 81505 333 10343 59029
10:00 PM +07 on November 17,2017,2017,11,17,22,0,Asia/Bangkok,27,81,25,78,86,0,0,,,,,6,4,1010,29.84,-999,-999,-9999,-9999,,,Mist,hazy,0,0,0,0,0,0,AAXX 17154 48376 31556 20000 10270 20253 39960 40104 52024 71000 81905 333 59018
1:00 AM +07 on November 18,2017,2017,11,18,1,0,Asia/Bangkok,26,78,24,75,89,0,0,,,,,6,4,1010,29.84,-999,-999,-9999,-9999,,,Mist,hazy,0,0,0,0,0,0,AAXX 17184 48376 31556 20000 10256 20241 39958 40103 56002 71000 82505 333 59015
4:00 AM +07 on November 18,2017,2017,11,18,4,0,Asia/Bangkok,25,77,24,75,91,0,0,,,,,5,3,1009,29.8,-999,-999,-9999,-9999,,,Mist,hazy,0,0,0,0,0,0,AAXX 17214 48376 31550 20000 10251 20238 39946 40091 57013 71000 81505 333 59020
7:00 AM +07 on November 18,2017,2017,11,18,7,0,Asia/Bangkok,25,76,24,75,94,0,0,,,,,8,5,1010,29.82,-999,-999,-9999,-9999,,,Mist,hazy,0,0,0,0,0,0,AAXX 18004 48376 31958 10000 10247 20237 39950 40096 51005 71000 80001 333 20237 59023
10:00 AM +07 on November 18,2017,2017,11,18,10,0,Asia/Bangkok,31,88,24,76,60,0,0,,,,,10,6,1011,29.85,-999,-999,-9999,-9999,,,Clear,clear,0,0,0,0,0,0,AAXX 18034 48376 32960 20000 10311 20244 39964 40106 52014 80005 333 59017
1:00 PM +07 on November 18,2017,2017,11,18,13,0,Asia/Bangkok,35,94,24,75,44,7.4,4.6,,,270,West,10,6,1008,29.77,-999,-999,-9999,-9999,,,Scattered Clouds,partlycloudy,0,0,0,0,0,0,AAXX 18064 48376 32560 22704 10346 20237 39940 40080 57024 82205 333 59016
4:00 PM +07 on November 18,2017,2017,11,18,16,0,Asia/Bangkok,35,95,25,77,47,0,0,,,,,10,6,1006,29.71,-999,-999,-9999,-9999,,,Scattered Clouds,partlycloudy,0,0,0,0,0,0,AAXX 18094 48376 32560 30000 10351 20248 39921 40061 57019 82235 333 59009
7:00 PM +07 on November 18,2017,2017,11,18,19,0,Asia/Bangkok,29,84,26,78,79,0,0,,,,,10,6,1008,29.75,-999,-999,-9999,-9999,,,Scattered Clouds,partlycloudy,0,0,0,0,0,0,AAXX 18124 48376 32560 20000 10290 20258 39932 40075 52011 82505 333 10359 59004
10:00 PM +07 on November 18,2017,2017,11,18,22,0,Asia/Bangkok,27,81,26,78,88,0,0,,,,,8,5,1010,29.82,-999,-999,-9999,-9999,,,Mist,hazy,0,0,0,0,0,0,AAXX 18154 48376 31558 20000 10271 20255 39954 40098 52022 71000 81505 333 59007
1:00 AM +07 on November 21,2017,2017,11,21,1,0,Asia/Bangkok,25,77,23,73,83,0,0,,,,,7,4,1011,29.86,-999,-999,-9999,-9999,,,Mist,hazy,0,0,0,0,0,0,AAXX 20184 48376 31557 20000 10251 20226 39963 40109 57010 71000 81505 333 59001
4:00 AM +07 on November 21,2017,2017,11,21,4,0,Asia/Bangkok,25,77,24,74,90,0,0,,,,,7,4,1010,29.83,-999,-999,-9999,-9999,,,Mist,hazy,0,0,0,0,0,0,AAXX 20214 48376 31557 70000 10249 20236 39956 40101 56008 71011 84536 333 58003
7:00 AM +07 on November 21,2017,2017,11,21,7,0,Asia/Bangkok,25,77,24,74,89,0,0,,,,,5,3,1012,29.88,-999,-999,-9999,-9999,,,Mist,hazy,0,0,0,0,0,0,AAXX 21004 48376 31550 60000 10250 20235 39971 40116 52015 71011 83536 333 20239 58002
10:00 AM +07 on November 21,2017,2017,11,21,10,0,Asia/Bangkok,28,82,24,75,75,0,0,,,,,6,4,1014,29.94,-999,-999,-9999,-9999,,,Mist,hazy,0,0,0,0,0,0,AAXX 21034 48376 31556 70000 10276 20241 39992 40136 52021 71022 84536 333 58004
1:00 PM +07 on November 21,2017,2017,11,21,13,0,Asia/Bangkok,30,86,24,76,65,7.4,4.6,,,170,South,7,4,1011,29.85,-999,-999,-9999,-9999,,,Mist,hazy,0,0,0,0,0,0,AAXX 21064 48376 31557 61704 10300 20243 39964 40107 57028 71022 83236 333 58009
4:00 PM +07 on November 21,2017,2017,11,21,16,0,Asia/Bangkok,30,87,23,73,54,7.4,4.6,,,130,SE,7,4,1008,29.78,-999,-999,-9999,-9999,,,Haze,hazy,0,0,0,0,0,0,AAXX 21094 48376 31557 51304 10305 20226 39941 40084 57023 70522 82236 333 58012
7:00 PM +07 on November 21,2017,2017,11,21,19,0,Asia/Bangkok,27,81,25,77,83,0,0,,,,,7,4,1010,29.82,-999,-999,-9999,-9999,,,Mist,hazy,0,0,0,0,0,0,AAXX 21124 48376 31557 50000 10273 20249 39951 40096 52010 71022 82536 333 10321 58001
10:00 PM +07 on November 21,2017,2017,11,21,22,0,Asia/Bangkok,26,79,25,76,90,0,0,,,,,7,4,1012,29.88,-999,-999,-9999,-9999,,,Mist,hazy,0,0,0,0,0,0,AAXX 21154 48376 31557 20000 10261 20247 39974 40119 52022 71011 81505 333 58001
1:00 AM +07 on November 22,2017,2017,11,22,1,0,Asia/Bangkok,25,77,24,75,91,0,0,,,,,6,4,1010,29.84,-999,-999,-9999,-9999,,,Mist,hazy,0,0,0,0,0,0,AAXX 21184 48376 31556 20000 10250 20238 39960 40105 57014 71011 81505 333 59004
4:00 AM +07 on November 22,2017,2017,11,22,4,0,Asia/Bangkok,25,76,23,74,92,0,0,,,,,6,4,1010,29.84,-999,-999,-9999,-9999,,,Mist,hazy,0,0,0,0,0,0,AAXX 21214 48376 31556 60000 10247 20234 39958 40103 56002 71011 83536 333 58002
7:00 AM +07 on November 22,2017,2017,11,22,7,0,Asia/Bangkok,25,77,24,75,91,0,0,,,,,5,3,1012,29.87,-999,-999,-9999,-9999,,,Mist,hazy,0,0,0,0,0,0,AAXX 22004 48376 31550 70000 10248 20238 39969 40115 52011 71011 84536 333 20238 59002
10:00 AM +07 on November 22,2017,2017,11,22,10,0,Asia/Bangkok,27,81,23,73,70,5.6,3.5,,,80,East,5,3,1013,29.92,-999,-999,-9999,-9999,,,Mist,hazy,0,0,0,0,0,0,AAXX 22034 48376 31550 70803 10271 20227 39987 40131 52018 71022 84536 333 59005
1:00 PM +07 on November 22,2017,2017,11,22,13,0,Asia/Bangkok,29,84,24,75,67,0,0,,,,,6,4,1011,29.86,-999,-999,-9999,-9999,,,Mist,hazy,0,0,0,0,0,0,AAXX 22064 48376 31556 80000 10288 20237 39968 40112 57019 71022 8652/ 333 58005
4:00 PM +07 on November 22,2017,2017,11,22,16,0,Asia/Bangkok,29,84,23,74,64,3.7,2.3,,,120,ESE,7,4,1009,29.8,-999,-999,-9999,-9999,,,Mist,hazy,0,0,0,0,0,0,AAXX 22094 48376 31557 51202 10290 20232 39946 40089 57023 71022 82556 333 58005
7:00 PM +07 on November 22,2017,2017,11,22,19,0,Asia/Bangkok,26,79,24,75,85,0,0,,,,,7,4,1010,29.84,-999,-999,-9999,-9999,,,Mist,hazy,0,0,0,0,0,0,AAXX 22124 48376 31557 20000 10261 20241 39959 40104 52014 71011 82505 333 10294 58008
10:00 PM +07 on November 22,2017,2017,11,22,22,0,Asia/Bangkok,25,77,24,74,90,0,0,,,,,6,4,1012,29.89,-999,-999,-9999,-9999,,,Mist,hazy,0,0,0,0,0,0,AAXX 22154 48376 31556 20000 10248 20236 39975 40121 52016 71000 82505 333 58002
1:00 AM +07 on November 23,2017,2017,11,23,1,0,Asia/Bangkok,24,75,23,74,94,0,0,,,,,5,3,1012,29.88,-999,-999,-9999,-9999,,,Mist,hazy,0,0,0,0,0,0,AAXX 22184 48376 31550 20000 10240 20231 39973 40119 57002 71000 82505 333 58014
4:00 AM +07 on November 23,2017,2017,11,23,4,0,Asia/Bangkok,23,74,22,72,92,0,0,,,,,5,3,1010,29.84,-999,-999,-9999,-9999,,,Mist,hazy,0,0,0,0,0,0,AAXX 22214 48376 31550 20000 10231 20223 39958 40105 57014 71000 82505 333 58001
10:00 AM +07 on November 23,2017,2017,11,23,10,0,Asia/Bangkok,26,79,23,74,79,0,0,,,,,5,3,1012,29.9,-999,-999,-9999,-9999,,,Mist,hazy,0,0,0,0,0,0,AAXX 23034 48376 31550 70000 10262 20231 39980 40125 52012 71022 84536 333 59006
4:00 PM +07 on November 23,2017,2017,11,23,16,0,Asia/Bangkok,30,86,24,74,61,0,0,,,,,6,4,1009,29.8,-999,-999,-9999,-9999,,,Mist,hazy,0,0,0,0,0,0,AAXX 23094 48376 31556 50000 10300 20236 39946 40089 57011 71022 82336 333 58000
7:00 PM +07 on November 23,2017,2017,11,23,19,0,Asia/Bangkok,27,81,24,75,77,0,0,,,,,6,4,1011,29.85,-999,-999,-9999,-9999,,,Mist,hazy,0,0,0,0,0,0,AAXX 23124 48376 31556 60000 10270 20238 39964 40108 52017 71022 83536 333 10313 58004
10:00 PM +07 on November 23,2017,2017,11,23,22,0,Asia/Bangkok,25,77,23,74,88,0,0,,,,,6,4,1013,29.93,-999,-999,-9999,-9999,,,Mist,hazy,0,0,0,0,0,0,AAXX 23154 48376 31556 60000 10252 20234 39988 40134 52025 71022 84536 333 58013
1:00 AM +07 on November 24,2017,2017,11,24,1,0,Asia/Bangkok,24,76,23,74,91,0,0,,,,,5,3,1013,29.91,-999,-999,-9999,-9999,,,Mist,hazy,0,0,0,0,0,0,AAXX 23184 48376 31550 30000 10242 20232 39982 40128 56006 71011 82535 333 58009
4:00 AM +07 on November 24,2017,2017,11,24,4,0,Asia/Bangkok,24,76,23,73,89,0,0,,,,,6,4,1012,29.89,-999,-999,-9999,-9999,,,Mist,hazy,0,0,0,0,0,0,AAXX 23214 48376 31556 60000 10243 20230 39976 40122 56006 71022 83536 333 58017
7:00 AM +07 on November 24,2017,2017,11,24,7,0,Asia/Bangkok,24,75,23,73,92,0,0,,,,,5,3,1013,29.93,-999,-999,-9999,-9999,,,Mist,hazy,0,0,0,0,0,0,AAXX 24004 48376 31550 60000 10238 20228 39987 40133 52011 71022 83536 333 20231 58018
10:00 AM +07 on November 24,2017,2017,11,24,10,0,Asia/Bangkok,28,82,21,69,57,5.6,3.5,,,190,South,6,4,1015,29.98,-999,-999,-9999,-9999,,,Mist,hazy,0,0,0,0,0,0,AAXX 24034 48376 31556 61903 10276 20206 30007 40152 52020 71022 83536 333 58026
1:00 PM +07 on November 24,2017,2017,11,24,13,0,Asia/Bangkok,30,86,21,69,48,3.7,2.3,,,130,SE,8,5,1013,29.91,-999,-999,-9999,-9999,,,Haze,hazy,0,0,0,0,0,0,AAXX 24064 48376 31558 51302 10300 20207 39983 40127 57023 70522 82236 333 58026
4:00 PM +07 on November 24,2017,2017,11,24,16,0,Asia/Bangkok,30,86,21,70,51,0,0,,,,,7,4,1011,29.85,-999,-999,-9999,-9999,,,Haze,hazy,0,0,0,0,0,0,AAXX 24094 48376 31557 50000 10298 20213 39965 40108 57018 70522 82536 333 58019
7:00 PM +07 on November 24,2017,2017,11,24,19,0,Asia/Bangkok,26,80,23,73,74,0,0,,,,,6,4,1013,29.91,-999,-999,-9999,-9999,,,Mist,hazy,0,0,0,0,0,0,AAXX 24124 48376 31556 20000 10265 20228 39983 40128 52018 71011 82505 333 10305 58020
10:00 PM +07 on November 24,2017,2017,11,24,22,0,Asia/Bangkok,26,79,23,74,79,0,0,,,,,5,3,1014,29.96,-999,-999,-9999,-9999,,,Mist,hazy,0,0,0,0,0,0,AAXX 24154 48376 31550 20000 10260 20231 39999 40144 52016 71000 81505 333 58010
1:00 AM +07 on November 26,2017,2017,11,26,1,0,Asia/Bangkok,23,73,22,71,90,0,0,,,,,5,3,1016,30,-999,-999,-9999,-9999,,,Mist,hazy,0,0,0,0,0,0,AAXX 25184 48376 31550 20000 10229 20215 30012 40159 56004 71000 81505 333 58023
4:00 AM +07 on November 26,2017,2017,11,26,4,0,Asia/Bangkok,22,72,21,70,92,0,0,,,,,5,3,1015,29.99,-999,-999,-9999,-9999,,,Mist,hazy,0,0,0,0,0,0,AAXX 25214 48376 31550 20000 10224 20212 30006 40153 56006 71000 81505 333 58012
7:00 AM +07 on November 26,2017,2017,11,26,7,0,Asia/Bangkok,22,72,21,70,90,5.6,3.5,,,320,NW,5,3,1016,30.02,-999,-999,-9999,-9999,,,Mist,hazy,0,0,0,0,0,0,AAXX 26004 48376 31550 53203 10220 20209 30017 40165 52011 71011 82516 333 20213 58011
10:00 AM +07 on November 26,2017,2017,11,26,10,0,Asia/Bangkok,26,79,21,69,65,0,0,,,,,6,4,1018,30.06,-999,-999,-9999,-9999,,,Mist,hazy,0,0,0,0,0,0,AAXX 26034 48376 31556 60000 10260 20208 30031 40177 52014 71022 82236 333 58012
1:00 PM +07 on November 26,2017,2017,11,26,13,0,Asia/Bangkok,30,85,21,70,52,5.6,3.5,,,240,WSW,7,4,1014,29.96,-999,-999,-9999,-9999,,,Haze,hazy,0,0,0,0,0,0,AAXX 26064 48376 31557 52403 10296 20212 30001 40145 57030 70522 82336 333 58003
4:00 PM +07 on November 26,2017,2017,11,26,16,0,Asia/Bangkok,29,84,23,73,62,0,0,,,,,6,4,1013,29.91,-999,-999,-9999,-9999,,,Mist,hazy,0,0,0,0,0,0,AAXX 26094 48376 31556 60000 10290 20227 39983 40127 57018 71022 82336 333 58002
7:00 PM +07 on November 26,2017,2017,11,26,19,0,Asia/Bangkok,26,78,23,73,80,0,0,,,,,6,4,1014,29.94,-999,-999,-9999,-9999,,,Mist,hazy,0,0,0,0,0,0,AAXX 26124 48376 31556 20000 10258 20228 39991 40137 52009 71011 82505 333 10300 59007
10:00 PM +07 on November 26,2017,2017,11,26,22,0,Asia/Bangkok,24,74,22,72,91,0,0,,,,,5,3,1015,29.98,-999,-999,-9999,-9999,,,Mist,hazy,0,0,0,0,0,0,AAXX 26154 48376 31550 20000 10236 20221 30005 40152 52014 71000 81505 333 59011
1:00 AM +07 on November 27,2017,2017,11,27,1,0,Asia/Bangkok,22,72,21,70,93,0,0,,,,,5,3,1015,29.98,-999,-999,-9999,-9999,,,Mist,hazy,0,0,0,0,0,0,AAXX 26184 48376 31550 20000 10225 20213 30003 40150 56002 71000 82505 333 59009
7:00 AM +07 on November 27,2017,2017,11,27,7,0,Asia/Bangkok,23,73,21,69,84,0,0,,,,,6,4,1015,29.98,-999,-999,-9999,-9999,,,Mist,hazy,0,0,0,0,0,0,AAXX 27004 48376 31556 80000 10226 20206 30002 40150 52012 71011 84576 333 20216 59015
10:00 AM +07 on November 27,2017,2017,11,27,10,0,Asia/Bangkok,25,77,20,69,69,7.4,4.6,,,280,West,7,4,1016,30.01,-999,-999,-9999,-9999,,,Mist,hazy,0,0,0,0,0,0,AAXX 27034 48376 31557 62804 10250 20204 30015 40161 52012 71022 83536 333 59016
1:00 PM +07 on November 27,2017,2017,11,27,13,0,Asia/Bangkok,28,83,21,70,57,7.4,4.6,,,320,NW,7,4,1013,29.91,-999,-999,-9999,-9999,,,Mist,hazy,0,0,0,0,0,0,AAXX 27064 48376 31557 63204 10282 20211 39982 40126 57032 71022 82236 333 59019
4:00 PM +07 on November 27,2017,2017,11,27,16,0,Asia/Bangkok,30,86,21,70,51,0,0,,,,,7,4,1010,29.84,-999,-999,-9999,-9999,,,Haze,hazy,0,0,0,0,0,0,AAXX 27094 48376 31557 50000 10302 20213 39961 40104 57021 70522 82536 333 59023
7:00 PM +07 on November 27,2017,2017,11,27,19,0,Asia/Bangkok,26,79,22,71,70,3.7,2.3,,,320,NW,6,4,1011,29.87,-999,-999,-9999,-9999,,,Mist,hazy,0,0,0,0,0,0,AAXX 27124 48376 31556 53202 10262 20217 39968 40113 51007 71022 82536 333 10304 59024
10:00 PM +07 on November 27,2017,2017,11,27,22,0,Asia/Bangkok,23,74,21,71,86,0,0,,,,,5,3,1013,29.93,-999,-999,-9999,-9999,,,Mist,hazy,0,0,0,0,0,0,AAXX 27154 48376 31550 20000 10232 20214 39987 40134 52020 71011 82505 333 59018
1:00 AM +07 on November 29,2017,2017,11,29,1,0,Asia/Bangkok,23,74,22,71,87,0,0,,,,,6,4,1014,29.96,-999,-999,-9999,-9999,,,Mist,hazy,0,0,0,0,0,0,AAXX 28184 48376 31956 60000 10233 20216 39997 40144 56005 71011 84056 333 58010
4:00 AM +07 on November 29,2017,2017,11,29,4,0,Asia/Bangkok,22,72,21,70,91,0,0,,,,,6,4,1013,29.92,-999,-999,-9999,-9999,,,Mist,hazy,0,0,0,0,0,0,AAXX 28214 48376 31556 60000 10225 20210 39985 40132 57012 71022 82536 333 58013
10:00 AM +07 on November 29,2017,2017,11,29,10,0,Asia/Bangkok,28,83,21,69,55,5.6,3.5,,,330,NNW,8,5,1015,29.99,-999,-999,-9999,-9999,,,Haze,hazy,0,0,0,0,0,0,AAXX 29034 48376 31558 53303 10282 20208 30008 40153 52013 70522 82556 333 59003
1:00 PM +07 on November 29,2017,2017,11,29,13,0,Asia/Bangkok,32,89,21,70,44,0,0,,,,,8,5,1012,29.9,-999,-999,-9999,-9999,,,Haze,hazy,0,0,0,0,0,0,AAXX 29064 48376 31558 60000 10318 20211 39980 40123 57028 70522 82236 333 59003
4:00 PM +07 on November 29,2017,2017,11,29,16,0,Asia/Bangkok,32,90,22,71,45,3.7,2.3,,,70,ENE,8,5,1010,29.83,-999,-999,-9999,-9999,,,Haze,hazy,0,0,0,0,0,0,AAXX 29094 48376 31558 50702 10320 20218 39960 40102 57020 70522 82536 333 59003
7:00 PM +07 on November 29,2017,2017,11,29,19,0,Asia/Bangkok,27,81,23,73,70,0,0,,,,,7,4,1012,29.89,-999,-999,-9999,-9999,,,Mist,hazy,0,0,0,0,0,0,AAXX 29124 48376 31557 20000 10272 20226 39976 40121 52016 71011 82205 333 10325 59005
10:00 PM +07 on November 29,2017,2017,11,29,22,0,Asia/Bangkok,25,77,22,71,78,5.6,3.5,,,290,WNW,7,4,1014,29.94,-999,-999,-9999,-9999,,,Mist,hazy,0,0,0,0,0,0,AAXX 29154 48376 31557 22903 10252 20219 39992 40137 52015 71000 81505 333 59011
1:00 AM +07 on November 30,2017,2017,11,30,1,0,Asia/Bangkok,24,74,22,71,86,0,0,,,,,5,3,1013,29.91,-999,-999,-9999,-9999,,,Mist,hazy,0,0,0,0,0,0,AAXX 29184 48376 31550 20000 10236 20215 39982 40129 56009 71000 81505 333 59015
7:00 AM +07 on November 30,2017,2017,11,30,7,0,Asia/Bangkok,22,72,21,69,88,0,0,,,,,6,4,1013,29.92,-999,-999,-9999,-9999,,,Mist,hazy,0,0,0,0,0,0,AAXX 30004 48376 31556 60000 10223 20206 39985 40132 52012 71011 82536 333 20213 59011
10:00 AM +07 on November 30,2017,2017,11,30,10,0,Asia/Bangkok,27,81,21,70,62,9.3,5.8,,,320,NW,8,5,1015,29.97,-999,-999,-9999,-9999,,,Mist,hazy,0,0,0,0,0,0,AAXX 30034 48376 31558 53205 10272 20212 30002 40147 52018 71022 82536 333 59005
1:00 PM +07 on November 30,2017,2017,11,30,13,0,Asia/Bangkok,31,87,22,71,50,5.6,3.5,,,340,NNW,8,5,1011,29.86,-999,-999,-9999,-9999,,,Haze,hazy,0,0,0,0,0,0,AAXX 30064 48376 31558 53403 10307 20217 39968 40111 57034 70522 82236 333 59012
4:00 PM +07 on November 30,2017,2017,11,30,16,0,Asia/Bangkok,31,87,22,72,53,5.6,3.5,,,90,East,7,4,1009,29.8,-999,-999,-9999,-9999,,,Haze,hazy,0,0,0,0,0,0,AAXX 30094 48376 31557 30903 10308 20223 39949 40091 57020 70511 82205 333 59011
7:00 PM +07 on November 30,2017,2017,11,30,19,0,Asia/Bangkok,27,81,23,74,74,0,0,,,,,6,4,1011,29.85,-999,-999,-9999,-9999,,,Mist,hazy,0,0,0,0,0,0,AAXX 30124 48376 31556 20000 10270 20233 39963 40107 52014 71011 81505 333 10320 59014
10:00 PM +07 on November 30,2017,2017,11,30,22,0,Asia/Bangkok,25,77,23,73,85,0,0,,,,,6,4,1012,29.9,-999,-999,-9999,-9999,,,Mist,hazy,0,0,0,0,0,0,AAXX 30154 48376 31556 20000 10248 20230 39980 40125 52017 71000 82505 333 59012
1:00 AM +07 on November 05,2017,2017,11,5,1,0,Asia/Bangkok,22,71,20,68,89,0,0,,,,,4,2,1013,29.93,-999,-999,-9999,-9999,,,Mist,hazy,0,0,0,0,0,0,AAXX 04184 48376 31940 20000 10219 20202 39986 40134 57008 71000 80005 333 58001
4:00 AM +07 on November 05,2017,2017,11,5,4,0,Asia/Bangkok,22,71,19,67,82,0,0,,,,,4,2,1012,29.9,-999,-999,-9999,-9999,,,Mist,hazy,0,0,0,0,0,0,AAXX 04214 48376 31540 60000 10218 20193 39978 40125 57008 71021 83536 333 58001
7:00 AM +07 on November 05,2017,2017,11,5,7,0,Asia/Bangkok,21,69,19,66,86,0,0,,,,,4,2,1014,29.96,-999,-999,-9999,-9999,,,Mist,hazy,0,0,0,0,0,0,AAXX 05004 48376 31540 20000 10208 20187 39997 40145 52019 71021 81535 333 20202 58008
10:00 AM +07 on November 05,2017,2017,11,5,10,0,Asia/Bangkok,25,78,18,65,56,0,0,,,,,6,4,1016,29.99,-999,-999,-9999,-9999,,,Mist,hazy,0,0,0,0,0,0,AAXX 05034 48376 31556 80000 10254 20185 30010 40156 52012 71021 84636 333 58007
1:00 PM +07 on November 05,2017,2017,11,5,13,0,Asia/Bangkok,27,80,18,65,51,3.7,2.3,,,100,East,6,4,1014,29.94,-999,-999,-9999,-9999,,,Haze,hazy,0,0,0,0,0,0,AAXX 05064 48376 01556 81002 10266 20183 39993 40138 57017 69901 70562 85576 333 58023 69906 79999
4:00 PM +07 on November 05,2017,2017,11,5,16,0,Asia/Bangkok,26,79,20,67,59,0,0,,,,,5,3,1012,29.89,-999,-999,-9999,-9999,,,Mist,hazy,0,0,0,0,0,0,AAXX 05094 48376 31550 80000 10263 20195 39976 40121 57017 71022 85576 333 58023
7:00 PM +07 on November 05,2017,2017,11,5,19,0,Asia/Bangkok,24,76,20,68,71,0,0,,,,,6,4,1013,29.92,-999,-999,-9999,-9999,,,Mist,hazy,0,0,0,0,0,0,AAXX 05124 48376 31556 60000 10242 20202 39984 40130 51008 71022 83536 333 10275 58013 79999
10:00 PM +07 on November 05,2017,2017,11,5,22,0,Asia/Bangkok,23,74,20,68,76,0,0,,,,,5,3,1014,29.96,-999,-999,-9999,-9999,,,Mist,hazy,0,0,0,0,0,0,AAXX 05154 48376 31550 70000 10231 20200 39998 40145 52014 71022 84636 333 58005
4:00 AM +07 on November 06,2017,2017,11,6,4,0,Asia/Bangkok,22,72,20,68,83,0,0,,,,,4,2,1012,29.89,-999,-999,-9999,-9999,,,Mist,hazy,0,0,0,0,0,0,AAXX 05214 48376 31540 70000 10225 20200 39974 40121 57014 71022 84536 333 59004
7:00 AM +07 on November 06,2017,2017,11,6,7,0,Asia/Bangkok,22,72,20,68,84,0,0,,,,,5,3,1014,29.94,-999,-999,-9999,-9999,,,Mist,hazy,0,0,0,0,0,0,AAXX 06004 48376 11550 80000 10220 20201 39989 40137 52015 69904 71022 85576 333 20214 59009 79999
10:00 AM +07 on November 06,2017,2017,11,6,10,0,Asia/Bangkok,25,78,21,69,68,3.7,2.3,,,180,South,6,4,1014,29.96,-999,-999,-9999,-9999,,,Mist,hazy,0,0,0,0,0,0,AAXX 06034 48376 31556 71802 10253 20207 39999 40144 51009 71022 84536 333 59011
1:00 PM +07 on November 06,2017,2017,11,6,13,0,Asia/Bangkok,26,79,20,68,62,7.4,4.6,,,270,West,5,3,1012,29.9,-999,-999,-9999,-9999,,,Mist,hazy,0,0,0,0,0,0,AAXX 06064 48376 31550 82704 10263 20202 39979 40124 57020 71022 85676 333 59014
4:00 PM +07 on November 06,2017,2017,11,6,16,0,Asia/Bangkok,26,79,21,70,66,0,0,,,,,6,4,1011,29.86,-999,-999,-9999,-9999,,,Mist,hazy,0,0,0,0,0,0,AAXX 06094 48376 31556 80000 10261 20209 39965 40110 57014 71022 85576 333 59011
7:00 PM +07 on November 06,2017,2017,11,6,19,0,Asia/Bangkok,25,76,21,69,73,0,0,,,,,5,3,1013,29.91,-999,-999,-9999,-9999,,,Mist,hazy,0,0,0,0,0,0,AAXX 06124 48376 31550 80000 10246 20206 39980 40126 52015 71022 85676 333 10270 59004
10:00 PM +07 on November 06,2017,2017,11,6,22,0,Asia/Bangkok,22,71,21,69,92,5.6,3.5,,,310,NW,4,2,1015,29.99,-999,-999,-9999,-9999,,,Light Rain,rain,0,1,0,0,0,0,AAXX 06154 48376 21540 83103 10215 20206 30005 40153 52025 72162 8652/ 333 58008 60057
1:00 AM +07 on November 09,2017,2017,11,9,1,0,Asia/Bangkok,25,77,23,74,88,0,0,,,,,5,3,1012,29.89,-999,-999,-9999,-9999,,,Mist,hazy,0,0,0,0,0,0,AAXX 08184 48376 31550 80000 10250 20234 39975 40120 56007 71022 85576 333 59003
4:00 AM +07 on November 09,2017,2017,11,9,4,0,Asia/Bangkok,25,76,23,73,88,0,0,,,,,5,3,1011,29.87,-999,-999,-9999,-9999,,,Mist,hazy,0,0,0,0,0,0,AAXX 08214 48376 31550 80000 10246 20228 39968 40113 56007 71022 85576 333 59009
7:00 AM +07 on November 09,2017,2017,11,9,7,0,Asia/Bangkok,24,75,22,72,89,0,0,,,,,6,4,1013,29.91,-999,-999,-9999,-9999,,,Mist,hazy,0,0,0,0,0,0,AAXX 09004 48376 31556 80000 10240 20225 39980 40126 52012 71022 8652/ 333 20233 59011
10:00 AM +07 on November 09,2017,2017,11,9,10,0,Asia/Bangkok,26,78,23,73,80,3.7,2.3,,,330,NNW,6,4,1014,29.94,-999,-999,-9999,-9999,,,Mist,hazy,0,0,0,0,0,0,AAXX 09034 48376 31556 83302 10258 20227 39993 40139 52014 71022 8452/ 333 59011
1:00 PM +07 on November 09,2017,2017,11,9,13,0,Asia/Bangkok,29,84,22,72,61,0,0,,,,,7,4,1012,29.87,-999,-999,-9999,-9999,,,Mist,hazy,0,0,0,0,0,0,AAXX 09064 48376 31557 80000 10288 20225 39971 40115 57022 71022 85576 333 59011
4:00 PM +07 on November 09,2017,2017,11,9,16,0,Asia/Bangkok,29,84,23,73,63,0,0,,,,,6,4,1010,29.81,-999,-999,-9999,-9999,,,Mist,hazy,0,0,0,0,0,0,AAXX 09094 48376 31556 70000 10290 20229 39952 40095 57020 71022 83536 333 59015
7:00 PM +07 on November 09,2017,2017,11,9,19,0,Asia/Bangkok,27,81,24,75,76,0,0,,,,,6,4,1011,29.85,-999,-999,-9999,-9999,,,Mist,hazy,0,0,0,0,0,0,AAXX 09124 48376 31556 60000 10273 20237 39963 40107 52011 71022 83536 333 10297 59009
10:00 PM +07 on November 09,2017,2017,11,9,22,0,Asia/Bangkok,26,79,23,74,79,0,0,,,,,5,3,1012,29.9,-999,-999,-9999,-9999,,,Mist,hazy,0,0,0,0,0,0,AAXX 09154 48376 31550 80000 10260 20231 39979 40124 52016 71022 8452/ 333 59003
1:00 AM +07 on November 20,2017,2017,11,20,1,0,Asia/Bangkok,26,78,25,77,94,0,0,,,,,6,4,1011,29.86,-999,-999,-9999,-9999,,,Mist,hazy,0,0,0,0,0,0,AAXX 19184 48376 31556 60000 10257 20248 39964 40109 56008 71011 82536 333 58015 79999
4:00 AM +07 on November 20,2017,2017,11,20,4,0,Asia/Bangkok,25,77,24,76,96,0,0,,,,,6,4,1010,29.82,-999,-999,-9999,-9999,,,Mist,hazy,0,0,0,0,0,0,AAXX 19214 48376 31556 60000 10252 20245 39953 40098 57011 71022 83536 333 58013
7:00 AM +07 on November 20,2017,2017,11,20,7,0,Asia/Bangkok,25,77,24,75,91,0,0,,,,,5,3,1011,29.87,-999,-999,-9999,-9999,,,Mist,hazy,0,0,0,0,0,0,AAXX 20004 48376 11550 80000 10251 20238 39968 40114 52015 69904 71022 8652/ 333 20244 58016 79999
10:00 AM +07 on November 20,2017,2017,11,20,10,0,Asia/Bangkok,30,85,25,78,73,0,0,,,,,7,4,1013,29.92,-999,-999,-9999,-9999,,,Mist,hazy,0,0,0,0,0,0,AAXX 20034 48376 31557 50000 10295 20254 39989 40132 52020 71022 82536 333 58025
1:00 PM +07 on November 20,2017,2017,11,20,13,0,Asia/Bangkok,34,92,25,77,53,0,0,,,,,8,5,1010,29.83,-999,-999,-9999,-9999,,,Haze,hazy,0,0,0,0,0,0,AAXX 20064 48376 31558 60000 10335 20250 39957 40099 57031 70522 82236 333 58016 79999
4:00 PM +07 on November 20,2017,2017,11,20,16,0,Asia/Bangkok,33,92,24,76,51,0,0,,,,,8,5,1007,29.74,-999,-999,-9999,-9999,,,Haze,hazy,0,0,0,0,0,0,AAXX 20094 48376 31558 60000 10334 20243 39931 40071 57027 70522 84936 333 58005
7:00 PM +07 on November 20,2017,2017,11,20,19,0,Asia/Bangkok,29,85,25,77,72,0,0,,,,,8,5,1009,29.81,-999,-999,-9999,-9999,,,Scattered Clouds,partlycloudy,0,0,0,0,0,0,AAXX 20124 48376 31558 30000 10293 20252 39951 40094 52021 71311 82965 333 10343 58002
10:00 PM +07 on November 20,2017,2017,11,20,22,0,Asia/Bangkok,26,79,22,72,75,0,0,,,,,8,5,1012,29.88,-999,-999,-9999,-9999,,,Mist,hazy,0,0,0,0,0,0,AAXX 20154 48376 31558 30000 10261 20224 39973 40118 52022 71000 82965 333 58001
1:00 AM +07 on November 25,2017,2017,11,25,1,0,Asia/Bangkok,24,74,22,72,90,0,0,,,,,5,3,1014,29.94,-999,-999,-9999,-9999,,,Mist,hazy,0,0,0,0,0,0,AAXX 24184 48376 31550 30000 10235 20220 39990 40136 56009 71000 82535 333 58008
4:00 AM +07 on November 25,2017,2017,11,25,4,0,Asia/Bangkok,23,73,22,71,92,0,0,,,,,5,3,1014,29.95,-999,-999,-9999,-9999,,,Mist,hazy,0,0,0,0,0,0,AAXX 24214 48376 31550 60000 10230 20218 39994 40141 51004 71011 83536 333 58019
7:00 AM +07 on November 25,2017,2017,11,25,7,0,Asia/Bangkok,23,73,22,71,91,0,0,,,,,6,4,1015,29.99,-999,-999,-9999,-9999,,,Mist,hazy,0,0,0,0,0,0,AAXX 25004 48376 31556 50000 10230 20216 30007 40154 52013 71011 82536 333 20220 58020
10:00 AM +07 on November 25,2017,2017,11,25,10,0,Asia/Bangkok,28,82,19,66,48,5.6,3.5,,,180,South,8,5,1016,30.02,-999,-999,-9999,-9999,,,Haze,hazy,0,0,0,0,0,0,AAXX 25034 48376 31558 21803 10280 20187 30020 40165 52013 70511 82205 333 58013
1:00 PM +07 on November 25,2017,2017,11,25,13,0,Asia/Bangkok,30,86,20,67,44,9.3,5.8,,,170,South,9,6,1014,29.95,-999,-999,-9999,-9999,,,Haze,hazy,0,0,0,0,0,0,AAXX 25064 48376 31559 21705 10302 20197 39999 40142 57021 70511 81205 333 58016
4:00 PM +07 on November 25,2017,2017,11,25,16,0,Asia/Bangkok,31,87,20,69,46,3.7,2.3,,,130,SE,9,6,1012,29.9,-999,-999,-9999,-9999,,,Haze,hazy,0,0,0,0,0,0,AAXX 25094 48376 31559 31302 10306 20205 39982 40125 57017 70500 82235 333 58017
7:00 PM +07 on November 25,2017,2017,11,25,19,0,Asia/Bangkok,26,79,23,73,78,0,0,,,,,6,4,1014,29.96,-999,-999,-9999,-9999,,,Mist,hazy,0,0,0,0,0,0,AAXX 25124 48376 31556 20000 10262 20230 39998 40143 52016 71000 81505 333 10311 58016
10:00 PM +07 on November 25,2017,2017,11,25,22,0,Asia/Bangkok,24,76,22,72,85,0,0,,,,,6,4,1016,30.01,-999,-999,-9999,-9999,,,Mist,hazy,0,0,0,0,0,0,AAXX 25154 48376 31956 20000 10242 20224 30016 40162 52018 71000 80005 333 58018
1:00 AM +07 on November 19,2017,2017,11,19,1,0,Asia/Bangkok,26,79,25,76,90,0,0,,,,,7,4,1009,29.81,-999,-999,-9999,-9999,,,Mist,hazy,0,0,0,0,0,0,AAXX 18184 48376 31557 20000 10263 20247 39949 40094 56005 71000 81505 333 59010
4:00 AM +07 on November 19,2017,2017,11,19,4,0,Asia/Bangkok,25,77,24,75,91,0,0,,,,,7,4,1008,29.78,-999,-999,-9999,-9999,,,Mist,hazy,0,0,0,0,0,0,AAXX 18214 48376 31557 20000 10250 20238 39940 40085 56009 71000 81505 333 59006
7:00 AM +07 on November 19,2017,2017,11,19,7,0,Asia/Bangkok,25,77,24,74,90,0,0,,,,,8,5,1010,29.82,-999,-999,-9999,-9999,,,Mist,hazy,0,0,0,0,0,0,AAXX 19004 48376 31558 20000 10248 20236 39952 40098 52012 71000 82505 333 20239 58002
1:00 PM +07 on November 19,2017,2017,11,19,13,0,Asia/Bangkok,35,95,26,78,50,3.7,2.3,,,60,ENE,10,6,1008,29.78,-999,-999,-9999,-9999,,,Scattered Clouds,partlycloudy,0,0,0,0,0,0,AAXX 19064 48376 32560 30602 10350 20258 39942 40083 57022 82935 333 58002
4:00 PM +07 on November 19,2017,2017,11,19,16,0,Asia/Bangkok,30,86,24,76,65,5.6,3.5,,,170,South,6,4,1007,29.73,-999,-999,-9999,-9999,,,Mist,hazy,0,0,0,0,0,0,AAXX 19094 48376 21556 71703 10298 20244 39924 40066 57019 71091 85976 333 58006 69906
7:00 PM +07 on November 19,2017,2017,11,19,19,0,Asia/Bangkok,28,82,25,78,83,0,0,,,,,8,5,1009,29.81,-999,-999,-9999,-9999,,,Mist,hazy,0,0,0,0,0,0,AAXX 19124 48376 11558 60000 10280 20253 39949 40092 52025 69902 71091 83556 333 10360 58018 79999
10:00 PM +07 on November 19,2017,2017,11,19,22,0,Asia/Bangkok,26,80,25,77,86,0,0,,,,,7,4,1012,29.88,-999,-999,-9999,-9999,,,Mist,hazy,0,0,0,0,0,0,AAXX 19154 48376 31557 30000 10264 20248 39972 40117 52023 71011 82535 333 58019
1:00 AM +07 on November 07,2017,2017,11,7,1,0,Asia/Bangkok,22,71,20,69,90,0,0,,,,,4,2,1014,29.94,-999,-999,-9999,-9999,,,Light Rain,rain,0,1,0,0,0,0,AAXX 06184 48376 01540 80000 10215 20204 39991 40138 57014 60053 72162 8652/ 333 58004 69945 70052
4:00 AM +07 on November 07,2017,2017,11,7,4,0,Asia/Bangkok,22,71,21,69,93,0,0,,,,,3,2,1013,29.91,-999,-999,-9999,-9999,,,Mist,hazy,0,0,0,0,0,0,AAXX 06214 48376 31530 80000 10217 20208 39981 40128 57010 71022 84576 333 58007
7:00 AM +07 on November 07,2017,2017,11,7,7,0,Asia/Bangkok,21,71,21,69,92,7.4,4.6,,,320,NW,5,3,1014,29.94,-999,-999,-9999,-9999,,,Mist,hazy,0,0,0,0,0,0,AAXX 07004 48376 11550 63204 10214 20206 39990 40137 51009 60054 71022 83536 333 20207 58001 70052
10:00 AM +07 on November 07,2017,2017,11,7,10,0,Asia/Bangkok,26,78,20,69,67,7.4,4.6,,,320,NW,7,4,1015,29.98,-999,-999,-9999,-9999,,,Mist,hazy,0,0,0,0,0,0,AAXX 07034 48376 31557 73204 10255 20205 30004 40150 52014 71022 84536 333 58005
1:00 PM +07 on November 07,2017,2017,11,7,13,0,Asia/Bangkok,29,84,21,70,55,7.4,4.6,,,340,NNW,7,4,1012,29.88,-999,-999,-9999,-9999,,,Haze,hazy,0,0,0,0,0,0,AAXX 07064 48376 31557 63404 10290 20212 39976 40119 57028 70522 83556 333 59005 70052
4:00 PM +07 on November 07,2017,2017,11,7,16,0,Asia/Bangkok,30,86,21,70,49,3.7,2.3,,,40,NE,7,4,1010,29.82,-999,-999,-9999,-9999,,,Haze,hazy,0,0,0,0,0,0,AAXX 07094 48376 31557 60402 10300 20210 39954 40096 57022 70522 82536 333 59014
7:00 PM +07 on November 07,2017,2017,11,7,19,0,Asia/Bangkok,28,82,22,71,61,0,0,,,,,6,4,1012,29.88,-999,-999,-9999,-9999,,,Mist,hazy,0,0,0,0,0,0,AAXX 07124 48376 31556 70000 10275 20215 39974 40118 52020 71022 83536 333 10305 59008 70052
10:00 PM +07 on November 07,2017,2017,11,7,22,0,Asia/Bangkok,25,77,22,72,82,0,0,,,,,5,3,1013,29.91,-999,-999,-9999,-9999,,,Mist,hazy,0,0,0,0,0,0,AAXX 07154 48376 31550 60000 10252 20225 39983 40129 52010 71022 83536 333 59024
1:00 AM +07 on December 02,2017,2017,12,2,1,0,Asia/Bangkok,23,74,22,71,87,0,0,,,,,6,4,1013,29.91,-999,-999,-9999,-9999,,,Mist,hazy,0,0,0,0,0,0,AAXX 01184 48376 31556 70000 10231 20216 39983 40129 56008 71011 84536 333 58010
4:00 AM +07 on December 02,2017,2017,12,2,4,0,Asia/Bangkok,23,73,21,70,89,0,0,,,,,6,4,1012,29.9,-999,-999,-9999,-9999,,,Mist,hazy,0,0,0,0,0,0,AAXX 01214 48376 31556 60000 10230 20213 39978 40124 56005 71022 82536 333 58013
7:00 AM +07 on December 02,2017,2017,12,2,7,0,Asia/Bangkok,22,71,21,69,92,0,0,,,,,7,4,1014,29.94,-999,-999,-9999,-9999,,,Mist,hazy,0,0,0,0,0,0,AAXX 02004 48376 31557 30000 10217 20206 39990 40138 52012 71011 82544 333 20208 58011
10:00 AM +07 on December 02,2017,2017,12,2,10,0,Asia/Bangkok,28,83,22,71,60,0,0,,,,,10,6,1016,29.99,-999,-999,-9999,-9999,,,Scattered Clouds,partlycloudy,0,0,0,0,0,0,AAXX 02034 48376 32560 20000 10283 20219 30011 40156 52021 81205 333 58006
1:00 PM +07 on December 02,2017,2017,12,2,13,0,Asia/Bangkok,31,88,20,69,44,5.6,3.5,,,110,ESE,10,6,1013,29.91,-999,-999,-9999,-9999,,,Scattered Clouds,partlycloudy,0,0,0,0,0,0,AAXX 02064 48376 32560 31103 10312 20205 39984 40126 57027 82305 333 58011
4:00 PM +07 on December 02,2017,2017,12,2,16,0,Asia/Bangkok,32,89,19,66,37,5.6,3.5,,,110,ESE,8,5,1010,29.84,-999,-999,-9999,-9999,,,Haze,hazy,0,0,0,0,0,0,AAXX 02094 48376 31558 21103 10316 20191 39963 40105 57021 70500 82205 333 58006
7:00 PM +07 on December 02,2017,2017,12,2,19,0,Asia/Bangkok,26,79,22,72,72,0,0,,,,,7,4,1012,29.89,-999,-999,-9999,-9999,,,Mist,hazy,0,0,0,0,0,0,AAXX 02124 48376 31557 20000 10260 20220 39976 40121 52014 71000 81505 333 10321 58005
10:00 PM +07 on December 02,2017,2017,12,2,22,0,Asia/Bangkok,23,74,22,71,87,0,0,,,,,6,4,1014,29.94,-999,-999,-9999,-9999,,,Mist,hazy,0,0,0,0,0,0,AAXX 02154 48376 31556 20000 10234 20216 39992 40138 52016 71000 81505 333 58001
1:00 AM +07 on December 03,2017,2017,12,3,1,0,Asia/Bangkok,22,72,21,70,90,0,0,,,,,5,3,1013,29.92,-999,-999,-9999,-9999,,,Mist,hazy,0,0,0,0,0,0,AAXX 02184 48376 31550 20000 10223 20209 39985 40132 56007 71000 81505 333 58002
4:00 AM +07 on December 03,2017,2017,12,3,4,0,Asia/Bangkok,21,70,20,67,88,0,0,,,,,5,3,1012,29.9,-999,-999,-9999,-9999,,,Mist,hazy,0,0,0,0,0,0,AAXX 02214 48376 31550 20000 10210 20196 39975 40123 56009 71000 81505 333 59002
7:00 AM +07 on December 03,2017,2017,12,3,7,0,Asia/Bangkok,20,69,20,67,93,0,0,,,,,6,4,1014,29.94,-999,-999,-9999,-9999,,,Mist,hazy,0,0,0,0,0,0,AAXX 03004 48376 31956 20000 10203 20197 39990 40138 52015 71000 80005 333 20197 58001
10:00 AM +07 on December 03,2017,2017,12,3,10,0,Asia/Bangkok,27,81,22,71,64,3.7,2.3,,,260,West,8,5,1015,29.98,-999,-999,-9999,-9999,,,Mist,hazy,0,0,0,0,0,0,AAXX 03034 48376 31558 22602 10270 20216 30005 40150 52015 71000 81505 333 59006
1:00 PM +07 on December 03,2017,2017,12,3,13,0,Asia/Bangkok,30,86,21,70,50,0,0,,,,,8,5,1012,29.89,-999,-999,-9999,-9999,,,Haze,hazy,0,0,0,0,0,0,AAXX 03064 48376 31558 50000 10301 20211 39978 40121 57027 70511 82236 333 59005
4:00 PM +07 on December 03,2017,2017,12,3,16,0,Asia/Bangkok,31,87,21,70,49,5.6,3.5,,,160,SSE,8,5,1010,29.83,-999,-999,-9999,-9999,,,Haze,hazy,0,0,0,0,0,0,AAXX 03094 48376 31558 31603 10308 20213 39958 40101 57020 70511 82235 333 59004
7:00 PM +07 on December 03,2017,2017,12,3,19,0,Asia/Bangkok,26,79,23,73,76,0,0,,,,,8,5,1011,29.87,-999,-999,-9999,-9999,,,Mist,hazy,0,0,0,0,0,0,AAXX 03124 48376 31558 20000 10262 20226 39968 40113 51009 71011 82505 333 10326 59009
10:00 PM +07 on December 03,2017,2017,12,3,22,0,Asia/Bangkok,24,75,22,71,85,0,0,,,,,6,4,1013,29.92,-999,-999,-9999,-9999,,,Mist,hazy,0,0,0,0,0,0,AAXX 03154 48376 31956 20000 10240 20219 39984 40130 52016 71000 80005 333 59008
1:00 AM +07 on December 04,2017,2017,12,4,1,0,Asia/Bangkok,23,74,22,72,90,0,0,,,,,6,4,1013,29.92,-999,-999,-9999,-9999,,,Mist,hazy,0,0,0,0,0,0,AAXX 03184 48376 31556 20000 10232 20220 39983 40130 56001 71000 81505 333 59002
4:00 AM +07 on December 04,2017,2017,12,4,4,0,Asia/Bangkok,21,70,20,68,93,0,0,,,,,6,4,1012,29.89,-999,-999,-9999,-9999,,,Mist,hazy,0,0,0,0,0,0,AAXX 03214 48376 31556 20000 10210 20202 39974 40122 56009 71000 81535 333 59001
7:00 AM +07 on December 04,2017,2017,12,4,7,0,Asia/Bangkok,21,70,20,68,93,0,0,,,,,6,4,1014,29.93,-999,-999,-9999,-9999,,,Mist,hazy,0,0,0,0,0,0,AAXX 04004 48376 31556 60000 10210 20202 39987 40135 52013 71011 83536 333 20200 59004
10:00 AM +07 on December 04,2017,2017,12,4,10,0,Asia/Bangkok,31,87,21,70,49,0,0,,,,,8,5,1012,29.89,-999,-999,-9999,-9999,,,Haze,hazy,0,0,0,0,0,0,AAXX 04034 48376 31558 30000 10307 20213 39978 40120 57018 70511 82335 333 59001
1:00 PM +07 on December 04,2017,2017,12,4,13,0,Asia/Bangkok,31,87,21,70,49,0,0,,,,,8,5,1012,29.89,-999,-999,-9999,-9999,,,Haze,hazy,0,0,0,0,0,0,AAXX 04064 48376 31558 30000 10307 20213 39978 40120 57018 70511 82335 333 59001
4:00 PM +07 on December 04,2017,2017,12,4,16,0,Asia/Bangkok,32,89,20,67,39,9.3,5.8,,,20,NNE,7,4,1009,29.8,-999,-999,-9999,-9999,,,Haze,hazy,0,0,0,0,0,0,AAXX 04094 48376 31557 30205 10315 20197 39949 40091 57028 70500 82305 333 59010
7:00 PM +07 on December 04,2017,2017,12,4,19,0,Asia/Bangkok,26,79,22,71,70,0,0,,,,,7,4,1010,29.84,-999,-999,-9999,-9999,,,Mist,hazy,0,0,0,0,0,0,AAXX 04124 48376 31557 20000 10260 20216 39960 40105 52011 71000 81405 333 10321 59008
10:00 PM +07 on December 04,2017,2017,12,4,22,0,Asia/Bangkok,24,74,21,70,85,0,0,,,,,7,4,1013,29.91,-999,-999,-9999,-9999,,,Mist,hazy,0,0,0,0,0,0,AAXX 04154 48376 31557 30000 10236 20213 39980 40126 52020 71000 82535 333 59005
1:00 AM +07 on December 04,2017,2017,12,4,1,0,Asia/Bangkok,23,74,22,72,90,0,0,,,,,6,4,1013,29.92,-999,-999,-9999,-9999,,,Mist,hazy,0,0,0,0,0,0,AAXX 03184 48376 31556 20000 10232 20220 39983 40130 56001 71000 81505 333 59002
4:00 AM +07 on December 04,2017,2017,12,4,4,0,Asia/Bangkok,21,70,20,68,93,0,0,,,,,6,4,1012,29.89,-999,-999,-9999,-9999,,,Mist,hazy,0,0,0,0,0,0,AAXX 03214 48376 31556 20000 10210 20202 39974 40122 56009 71000 81535 333 59001
7:00 AM +07 on December 04,2017,2017,12,4,7,0,Asia/Bangkok,21,70,20,68,93,0,0,,,,,6,4,1014,29.93,-999,-999,-9999,-9999,,,Mist,hazy,0,0,0,0,0,0,AAXX 04004 48376 31556 60000 10210 20202 39987 40135 52013 71011 83536 333 20200 59004
10:00 AM +07 on December 04,2017,2017,12,4,10,0,Asia/Bangkok,31,87,21,70,49,0,0,,,,,8,5,1012,29.89,-999,-999,-9999,-9999,,,Haze,hazy,0,0,0,0,0,0,AAXX 04034 48376 31558 30000 10307 20213 39978 40120 57018 70511 82335 333 59001
1:00 PM +07 on December 04,2017,2017,12,4,13,0,Asia/Bangkok,31,87,21,70,49,0,0,,,,,8,5,1012,29.89,-999,-999,-9999,-9999,,,Haze,hazy,0,0,0,0,0,0,AAXX 04064 48376 31558 30000 10307 20213 39978 40120 57018 70511 82335 333 59001
4:00 PM +07 on December 04,2017,2017,12,4,16,0,Asia/Bangkok,32,89,20,67,39,9.3,5.8,,,20,NNE,7,4,1009,29.8,-999,-999,-9999,-9999,,,Haze,hazy,0,0,0,0,0,0,AAXX 04094 48376 31557 30205 10315 20197 39949 40091 57028 70500 82305 333 59010
7:00 PM +07 on December 04,2017,2017,12,4,19,0,Asia/Bangkok,26,79,22,71,70,0,0,,,,,7,4,1010,29.84,-999,-999,-9999,-9999,,,Mist,hazy,0,0,0,0,0,0,AAXX 04124 48376 31557 20000 10260 20216 39960 40105 52011 71000 81405 333 10321 59008
10:00 PM +07 on December 04,2017,2017,12,4,22,0,Asia/Bangkok,24,74,21,70,85,0,0,,,,,7,4,1013,29.91,-999,-999,-9999,-9999,,,Mist,hazy,0,0,0,0,0,0,AAXX 04154 48376 31557 30000 10236 20213 39980 40126 52020 71000 82535 333 59005
1:00 AM +07 on December 05,2017,2017,12,5,1,0,Asia/Bangkok,23,74,21,69,80,0,0,,,,,6,4,1013,29.91,-999,-999,-9999,-9999,,,Mist,hazy,0,0,0,0,0,0,AAXX 04184 48376 31956 70000 10232 20206 39979 40126 54000 71011 85036 333 59004
4:00 AM +07 on December 05,2017,2017,12,5,4,0,Asia/Bangkok,22,72,20,69,87,0,0,,,,,5,3,1012,29.88,-999,-999,-9999,-9999,,,Mist,hazy,0,0,0,0,0,0,AAXX 04214 48376 31550 60000 10225 20205 39972 40119 56007 71022 82536 333 59003
7:00 AM +07 on December 05,2017,2017,12,5,7,0,Asia/Bangkok,23,73,20,68,78,5.6,3.5,,,320,NW,5,3,1013,29.93,-999,-999,-9999,-9999,,,Mist,hazy,0,0,0,0,0,0,AAXX 05004 48376 31550 63203 10229 20198 39987 40133 52014 71022 82536 333 20217 59001
10:00 AM +07 on December 05,2017,2017,12,5,10,0,Asia/Bangkok,25,77,21,70,72,5.6,3.5,,,290,WNW,6,4,1016,30,-999,-999,-9999,-9999,,,Mist,hazy,0,0,0,0,0,0,AAXX 05034 48376 31556 82903 10250 20209 30012 40158 52025 71022 85576 333 58017
1:00 PM +07 on December 05,2017,2017,12,5,13,0,Asia/Bangkok,27,81,20,67,54,9.3,5.8,,,280,West,6,4,1014,29.93,-999,-999,-9999,-9999,,,Haze,hazy,0,0,0,0,0,0,AAXX 05064 48376 31556 82805 10272 20195 39991 40135 57021 70522 85576 333 58015
4:00 PM +07 on December 05,2017,2017,12,5,16,0,Asia/Bangkok,28,82,20,67,52,5.6,3.5,,,310,NW,6,4,1011,29.86,-999,-999,-9999,-9999,,,Haze,hazy,0,0,0,0,0,0,AAXX 05094 48376 31556 53103 10278 20195 39967 40111 57023 70522 82536 333 58020
7:00 PM +07 on December 05,2017,2017,12,5,19,0,Asia/Bangkok,25,78,20,68,65,0,0,,,,,6,4,1012,29.89,-999,-999,-9999,-9999,,,Mist,hazy,0,0,0,0,0,0,AAXX 05124 48376 31556 30000 10253 20202 39975 40120 51008 71011 82535 333 10287 58016
10:00 PM +07 on December 05,2017,2017,12,5,22,0,Asia/Bangkok,24,74,20,69,79,0,0,,,,,5,3,1013,29.92,-999,-999,-9999,-9999,,,Mist,hazy,0,0,0,0,0,0,AAXX 05154 48376 31550 60000 10236 20205 39984 40131 51009 71011 82536 333 58005
1:00 AM +07 on December 06,2017,2017,12,6,1,0,Asia/Bangkok,23,74,20,69,79,0,0,,,,,5,3,1012,29.89,-999,-999,-9999,-9999,,,Mist,hazy,0,0,0,0,0,0,AAXX 05184 48376 31550 60000 10233 20204 39974 40121 57010 71011 83536 333 59005
4:00 AM +07 on December 06,2017,2017,12,6,4,0,Asia/Bangkok,22,71,20,68,87,0,0,,,,,5,3,1012,29.88,-999,-999,-9999,-9999,,,Mist,hazy,0,0,0,0,0,0,AAXX 05214 48376 31550 20000 10216 20200 39970 40117 56005 71011 82505 333 59002
7:00 AM +07 on December 06,2017,2017,12,6,7,0,Asia/Bangkok,21,69,20,67,93,0,0,,,,,5,3,1013,29.92,-999,-999,-9999,-9999,,,Mist,hazy,0,0,0,0,0,0,AAXX 06004 48376 31550 20000 10206 20197 39984 40132 52015 71011 82505 333 20200 59001
10:00 AM +07 on December 06,2017,2017,12,6,10,0,Asia/Bangkok,27,80,21,70,64,3.7,2.3,,,60,ENE,7,4,1014,29.96,-999,-999,-9999,-9999,,,Mist,hazy,0,0,0,0,0,0,AAXX 06034 48376 31557 30602 10269 20210 39999 40144 52015 71000 82535 333 59014
4:00 PM +07 on December 06,2017,2017,12,6,16,0,Asia/Bangkok,30,86,20,68,46,7.4,4.6,,,40,NE,7,4,1010,29.84,-999,-999,-9999,-9999,,,Haze,hazy,0,0,0,0,0,0,AAXX 06094 48376 31557 20404 10300 20202 39961 40104 57022 70511 82505 333 59008
7:00 PM +07 on December 06,2017,2017,12,6,19,0,Asia/Bangkok,26,78,22,71,74,0,0,,,,,6,4,1012,29.88,-999,-999,-9999,-9999,,,Mist,hazy,0,0,0,0,0,0,AAXX 06124 48376 31556 20000 10256 20217 39971 40116 52010 71011 82505 333 10306 59004
10:00 PM +07 on December 06,2017,2017,12,6,22,0,Asia/Bangkok,24,74,22,71,88,0,0,,,,,6,4,1013,29.92,-999,-999,-9999,-9999,,,Mist,hazy,0,0,0,0,0,0,AAXX 06154 48376 31556 20000 10235 20218 39986 40132 52015 71000 81505 333 58002
1:00 AM +07 on December 07,2017,2017,12,7,1,0,Asia/Bangkok,23,73,21,70,87,0,0,,,,,6,4,1013,29.91,-999,-999,-9999,-9999,,,Mist,hazy,0,0,0,0,0,0,AAXX 06184 48376 31556 60000 10226 20211 39981 40128 56005 71011 83536 333 58007
4:00 AM +07 on December 07,2017,2017,12,7,4,0,Asia/Bangkok,23,73,21,70,86,0,0,,,,,5,3,1012,29.88,-999,-999,-9999,-9999,,,Mist,hazy,0,0,0,0,0,0,AAXX 06214 48376 31550 70000 10226 20209 39970 40116 57012 71022 83536 333 59001
7:00 AM +07 on December 07,2017,2017,12,7,7,0,Asia/Bangkok,22,71,21,69,92,0,0,,,,,5,3,1013,29.91,-999,-999,-9999,-9999,,,Mist,hazy,0,0,0,0,0,0,AAXX 07004 48376 31550 60000 10215 20207 39980 40127 52010 71022 83536 333 20209 59005
10:00 AM +07 on December 07,2017,2017,12,7,10,0,Asia/Bangkok,26,79,21,71,69,5.6,3.5,,,70,ENE,5,3,1014,29.96,-999,-999,-9999,-9999,,,Mist,hazy,0,0,0,0,0,0,AAXX 07034 48376 31550 50703 10262 20214 39998 40143 52018 71022 82536 333 59001
1:00 PM +07 on December 07,2017,2017,12,7,13,0,Asia/Bangkok,30,87,22,71,50,0,0,,,,,5,3,1012,29.88,-999,-999,-9999,-9999,,,Haze,hazy,0,0,0,0,0,0,AAXX 07064 48376 31550 50000 10303 20217 39974 40117 57024 70522 82236 333 59010
4:00 PM +07 on December 07,2017,2017,12,7,16,0,Asia/Bangkok,30,86,23,74,60,3.7,2.3,,,110,ESE,5,3,1010,29.83,-999,-999,-9999,-9999,,,Mist,hazy,0,0,0,0,0,0,AAXX 07094 48376 31550 51102 10299 20234 39959 40102 57015 71022 82536 333 59002
7:00 PM +07 on December 07,2017,2017,12,7,19,0,Asia/Bangkok,27,81,23,74,72,0,0,,,,,5,3,1012,29.89,-999,-999,-9999,-9999,,,Mist,hazy,0,0,0,0,0,0,AAXX 07124 48376 31550 60000 10272 20231 39977 40122 52019 71022 83536 333 10315 58006
10:00 PM +07 on December 07,2017,2017,12,7,22,0,Asia/Bangkok,25,77,23,73,83,0,0,,,,,5,3,1014,29.94,-999,-999,-9999,-9999,,,Mist,hazy,0,0,0,0,0,0,AAXX 07154 48376 31550 60000 10248 20227 39993 40139 52016 71022 82536 333 58007
1:00 AM +07 on December 08,2017,2017,12,8,1,0,Asia/Bangkok,24,74,22,72,92,0,0,,,,,3,2,1014,29.94,-999,-999,-9999,-9999,,,Mist,hazy,0,0,0,0,0,0,AAXX 07184 48376 31530 20000 10235 20223 39993 40139 56001 71011 82505 333 58011
4:00 AM +07 on December 08,2017,2017,12,8,4,0,Asia/Bangkok,23,74,22,72,93,0,0,,,,,3,2,1013,29.93,-999,-999,-9999,-9999,,,Mist,hazy,0,0,0,0,0,0,AAXX 07214 48376 31530 20000 10233 20224 39986 40133 56007 71000 82505 333 58016
7:00 AM +07 on December 08,2017,2017,12,8,7,0,Asia/Bangkok,22,71,21,69,93,0,0,,,,,4,2,1015,29.98,-999,-999,-9999,-9999,,,Mist,hazy,0,0,0,0,0,0,AAXX 08004 48376 31540 30000 10216 20208 30003 40151 52017 71000 82535 333 20212 58024
10:00 AM +07 on December 08,2017,2017,12,8,10,0,Asia/Bangkok,26,79,22,72,73,0,0,,,,,6,4,1016,30.01,-999,-999,-9999,-9999,,,Mist,hazy,0,0,0,0,0,0,AAXX 08034 48376 31556 60000 10262 20222 30016 40161 52012 71011 83536 333 58018
1:00 PM +07 on December 08,2017,2017,12,8,13,0,Asia/Bangkok,30,86,22,72,54,5.6,3.5,,,100,East,6,4,1013,29.91,-999,-999,-9999,-9999,,,Haze,hazy,0,0,0,0,0,0,AAXX 08064 48376 31556 71003 10299 20221 39986 40129 57030 70511 84536 333 58013
4:00 PM +07 on December 08,2017,2017,12,8,16,0,Asia/Bangkok,30,87,22,71,50,5.6,3.5,,,180,South,6,4,1011,29.85,-999,-999,-9999,-9999,,,Haze,hazy,0,0,0,0,0,0,AAXX 08094 48376 31556 51803 10305 20216 39965 40107 57021 70522 82536 333 58006
7:00 PM +07 on December 08,2017,2017,12,8,19,0,Asia/Bangkok,27,81,23,73,71,0,0,,,,,5,3,1012,29.9,-999,-999,-9999,-9999,,,Mist,hazy,0,0,0,0,0,0,AAXX 08124 48376 31550 60000 10270 20229 39980 40125 52016 71022 83536 333 10310 58003
10:00 PM +07 on December 08,2017,2017,12,8,22,0,Asia/Bangkok,26,78,23,74,83,0,0,,,,,5,3,1015,29.97,-999,-999,-9999,-9999,,,Mist,hazy,0,0,0,0,0,0,AAXX 08154 48376 31550 60000 10257 20232 30002 40147 52021 71022 83536 333 58008
1:00 AM +07 on January 01,2018,2018,1,1,1,0,Asia/Bangkok,21,70,20,68,91,0,0,,,,,7,4,1014,29.94,-999,-999,-9999,-9999,,,Mist,hazy,0,0,0,0,0,0,AAXX 31184 48376 31957 60000 10213 20199 39989 40137 56005 71011 85036 333 59011
4:00 AM +07 on January 01,2018,2018,1,1,4,0,Asia/Bangkok,21,71,20,68,86,0,0,,,,,7,4,1013,29.91,-999,-999,-9999,-9999,,,Mist,hazy,0,0,0,0,0,0,AAXX 31214 48376 31557 70000 10214 20198 39979 40126 57011 71022 84576 333 59012
10:00 AM +07 on January 01,2018,2018,1,1,10,0,Asia/Bangkok,24,74,20,69,79,5.6,3.5,,,30,NNE,4,2,1016,30,-999,-999,-9999,-9999,,,Mist,hazy,0,0,0,0,0,0,AAXX 01034 48376 31540 80303 10235 20204 30011 40157 52022 71022 8652/ 333 59012
1:00 PM +07 on January 01,2018,2018,1,1,13,0,Asia/Bangkok,28,82,19,66,48,5.6,3.5,,,120,ESE,7,4,1013,29.92,-999,-999,-9999,-9999,,,Haze,hazy,0,0,0,0,0,0,AAXX 01064 48376 31557 31203 10280 20187 39986 40130 57025 70511 82235 333 59010
4:00 PM +07 on January 01,2018,2018,1,1,16,0,Asia/Bangkok,28,82,19,67,51,5.6,3.5,,,70,ENE,7,4,1011,29.85,-999,-999,-9999,-9999,,,Haze,hazy,0,0,0,0,0,0,AAXX 01094 48376 31557 60703 10280 20194 39963 40107 57022 70511 83536 333 59006
7:00 PM +07 on January 01,2018,2018,1,1,19,0,Asia/Bangkok,24,76,20,69,72,0,0,,,,,7,4,1012,29.89,-999,-999,-9999,-9999,,,Mist,hazy,0,0,0,0,0,0,AAXX 01124 48376 31557 30000 10243 20203 39974 40120 52011 71011 82235 333 10296 59005
10:00 PM +07 on January 01,2018,2018,1,1,22,0,Asia/Bangkok,22,72,20,68,83,0,0,,,,,6,4,1014,29.94,-999,-999,-9999,-9999,,,Mist,hazy,0,0,0,0,0,0,AAXX 01154 48376 31556 20000 10221 20199 39991 40138 52017 71000 81505 333 59003
1:00 AM +07 on December 09,2017,2017,12,9,1,0,Asia/Bangkok,25,77,23,74,86,0,0,,,,,5,3,1014,29.96,-999,-999,-9999,-9999,,,Mist,hazy,0,0,0,0,0,0,AAXX 08184 48376 31550 60000 10250 20231 39998 40144 56003 71022 83536 333 58005
7:00 AM +07 on December 09,2017,2017,12,9,7,0,Asia/Bangkok,23,74,22,72,91,0,0,,,,,5,3,1015,29.96,-999,-999,-9999,-9999,,,Mist,hazy,0,0,0,0,0,0,AAXX 09004 48376 31550 50000 10234 20222 39999 40146 52012 71022 82536 333 20227 59005
10:00 AM +07 on December 09,2017,2017,12,9,10,0,Asia/Bangkok,27,80,20,69,60,5.6,3.5,,,180,South,6,4,1016,30.01,-999,-999,-9999,-9999,,,Mist,hazy,0,0,0,0,0,0,AAXX 09034 48376 31556 61803 10267 20203 30017 40162 52018 71022 83536 333 58001
1:00 PM +07 on December 09,2017,2017,12,9,13,0,Asia/Bangkok,30,87,20,68,44,9.3,5.8,,,180,South,7,4,1013,29.92,-999,-999,-9999,-9999,,,Haze,hazy,0,0,0,0,0,0,AAXX 09064 48376 31557 61805 10305 20201 39989 40132 57028 70522 82536 333 58003
4:00 PM +07 on December 09,2017,2017,12,9,16,0,Asia/Bangkok,30,86,20,67,44,5.6,3.5,,,90,East,7,4,1011,29.87,-999,-999,-9999,-9999,,,Haze,hazy,0,0,0,0,0,0,AAXX 09094 48376 31557 20903 10302 20195 39971 40113 57018 70511 82505 333 58006
7:00 PM +07 on December 09,2017,2017,12,9,19,0,Asia/Bangkok,26,79,20,68,62,0,0,,,,,6,4,1013,29.93,-999,-999,-9999,-9999,,,Mist,hazy,0,0,0,0,0,0,AAXX 09124 48376 31556 20000 10260 20202 39988 40133 52018 71011 81505 333 10312 58009
10:00 PM +07 on December 09,2017,2017,12,9,22,0,Asia/Bangkok,23,74,20,68,77,0,0,,,,,5,3,1015,29.99,-999,-999,-9999,-9999,,,Mist,hazy,0,0,0,0,0,0,AAXX 09154 48376 31550 20000 10232 20201 30006 40153 52017 71000 82505 333 58005
1:00 AM +07 on December 10,2017,2017,12,10,1,0,Asia/Bangkok,22,72,20,68,85,0,0,,,,,5,3,1015,29.96,-999,-999,-9999,-9999,,,Mist,hazy,0,0,0,0,0,0,AAXX 09184 48376 31550 30000 10225 20202 39998 40146 56007 71000 82535 333 58001
4:00 AM +07 on December 10,2017,2017,12,10,4,0,Asia/Bangkok,21,70,20,67,89,0,0,,,,,5,3,1013,29.92,-999,-999,-9999,-9999,,,Mist,hazy,0,0,0,0,0,0,AAXX 09214 48376 31550 20000 10210 20197 39984 40131 57015 71000 81505 333 59002
7:00 AM +07 on December 10,2017,2017,12,10,7,0,Asia/Bangkok,21,70,20,68,91,0,0,,,,,5,3,1015,29.97,-999,-999,-9999,-9999,,,Mist,hazy,0,0,0,0,0,0,AAXX 10004 48376 31550 60000 10210 20199 30001 40149 52017 71011 83536 333 20202 58003
10:00 AM +07 on December 10,2017,2017,12,10,10,0,Asia/Bangkok,26,78,21,69,68,0,0,,,,,5,3,1016,30.01,-999,-999,-9999,-9999,,,Mist,hazy,0,0,0,0,0,0,AAXX 10034 48376 31950 20000 10257 20207 30014 40160 52013 71011 80005 333 59003
1:00 PM +07 on December 10,2017,2017,12,10,13,0,Asia/Bangkok,31,88,21,70,46,5.6,3.5,,,120,ESE,5,3,1013,29.91,-999,-999,-9999,-9999,,,Haze,hazy,0,0,0,0,0,0,AAXX 10064 48376 31550 21203 10310 20210 39984 40127 57030 70511 81205 333 59005
4:00 PM +07 on December 10,2017,2017,12,10,16,0,Asia/Bangkok,32,90,22,72,47,3.7,2.3,,,90,East,5,3,1011,29.85,-999,-999,-9999,-9999,,,Haze,hazy,0,0,0,0,0,0,AAXX 10094 48376 31550 20902 10321 20225 39964 40106 57020 70500 81205 333 59007
7:00 PM +07 on December 10,2017,2017,12,10,19,0,Asia/Bangkok,28,83,23,73,64,0,0,,,,,5,3,1013,29.91,-999,-999,-9999,-9999,,,Mist,hazy,0,0,0,0,0,0,AAXX 10124 48376 31550 50000 10282 20226 39982 40126 52018 71011 82536 333 10327 59007
10:00 PM +07 on December 10,2017,2017,12,10,22,0,Asia/Bangkok,26,78,22,72,77,0,0,,,,,4,2,1014,29.96,-999,-999,-9999,-9999,,,Mist,hazy,0,0,0,0,0,0,AAXX 10154 48376 31540 20000 10258 20222 39998 40144 52016 71011 82505 333 59009
4:00 AM +07 on December 11,2017,2017,12,11,4,0,Asia/Bangkok,23,74,22,71,86,0,0,,,,,4,2,1013,29.91,-999,-999,-9999,-9999,,,Mist,hazy,0,0,0,0,0,0,AAXX 10214 48376 31540 20000 10232 20215 39980 40126 57014 71000 82505 333 59005
7:00 AM +07 on December 11,2017,2017,12,11,7,0,Asia/Bangkok,22,72,22,71,94,0,0,,,,,5,3,1014,29.93,-999,-999,-9999,-9999,,,Mist,hazy,0,0,0,0,0,0,AAXX 11004 48376 31550 20000 10223 20215 39988 40135 51008 71000 81505 333 20217 59014
10:00 AM +07 on December 11,2017,2017,12,11,10,0,Asia/Bangkok,29,84,22,72,60,0,0,,,,,5,3,1014,29.96,-999,-999,-9999,-9999,,,Mist,hazy,0,0,0,0,0,0,AAXX 11034 48376 31950 20000 10289 20224 39999 40143 52011 71000 80005 333 59017
1:00 PM +07 on December 11,2017,2017,12,11,13,0,Asia/Bangkok,33,92,23,73,45,5.6,3.5,,,180,South,5,3,1011,29.87,-999,-999,-9999,-9999,,,Haze,hazy,0,0,0,0,0,0,AAXX 11064 48376 31550 21803 10331 20228 39973 40114 57026 70500 82205 333 59013
4:00 PM +07 on December 11,2017,2017,12,11,16,0,Asia/Bangkok,33,92,23,73,46,5.6,3.5,,,220,SW,6,4,1009,29.81,-999,-999,-9999,-9999,,,Haze,hazy,0,0,0,0,0,0,AAXX 11094 48376 31556 52203 10333 20230 39952 40093 57021 70511 82236 333 59013
7:00 PM +07 on December 11,2017,2017,12,11,19,0,Asia/Bangkok,29,84,24,75,68,3.7,2.3,,,210,SSW,5,3,1011,29.86,-999,-999,-9999,-9999,,,Mist,hazy,0,0,0,0,0,0,AAXX 11124 48376 31550 32102 10291 20239 39968 40111 52016 71011 82235 333 10345 59015
10:00 PM +07 on December 11,2017,2017,12,11,22,0,Asia/Bangkok,27,81,23,73,72,3.7,2.3,,,210,SSW,5,3,1013,29.92,-999,-999,-9999,-9999,,,Mist,hazy,0,0,0,0,0,0,AAXX 11154 48376 31550 22102 10271 20230 39987 40132 52019 71000 82505 333 59012
1:00 AM +07 on December 13,2017,2017,12,13,1,0,Asia/Bangkok,27,81,23,73,70,5.6,3.5,,,260,West,6,4,1011,29.86,-999,-999,-9999,-9999,,,Mist,hazy,0,0,0,0,0,0,AAXX 12184 48376 31556 22603 10272 20226 39968 40112 56001 71000 81505 333 59013
4:00 AM +07 on December 13,2017,2017,12,13,4,0,Asia/Bangkok,25,78,23,73,79,0,0,,,,,6,4,1011,29.85,-999,-999,-9999,-9999,,,Mist,hazy,0,0,0,0,0,0,AAXX 12214 48376 31556 20000 10253 20226 39962 40107 56006 71000 82505 333 59008
7:00 AM +07 on December 13,2017,2017,12,13,7,0,Asia/Bangkok,24,75,22,71,84,0,0,,,,,6,4,1012,29.89,-999,-999,-9999,-9999,,,Mist,hazy,0,0,0,0,0,0,AAXX 13004 48376 31556 20000 10240 20217 39976 40122 52015 71000 81505 333 20235 59007
10:00 AM +07 on December 13,2017,2017,12,13,10,0,Asia/Bangkok,30,86,22,71,52,7.4,4.6,,,300,WNW,8,5,1014,29.94,-999,-999,-9999,-9999,,,Haze,hazy,0,0,0,0,0,0,AAXX 13034 48376 31558 23004 10298 20216 39994 40137 52017 70500 81205 333 59003
1:00 PM +07 on December 13,2017,2017,12,13,13,0,Asia/Bangkok,32,90,21,71,43,0,0,,,,,8,5,1010,29.84,-999,-999,-9999,-9999,,,Haze,hazy,0,0,0,0,0,0,AAXX 13064 48376 31558 30000 10325 20214 39962 40104 57031 70500 82235 333 59004
4:00 PM +07 on December 13,2017,2017,12,13,16,0,Asia/Bangkok,33,92,20,67,35,11.1,6.9,,,260,West,8,5,1008,29.77,-999,-999,-9999,-9999,,,Haze,hazy,0,0,0,0,0,0,AAXX 13094 48376 31558 22606 10331 20197 39939 40080 57023 70500 81205 333 59002
7:00 PM +07 on December 13,2017,2017,12,13,19,0,Asia/Bangkok,28,83,22,71,60,5.6,3.5,,,260,West,7,4,1010,29.81,-999,-999,-9999,-9999,,,Mist,hazy,0,0,0,0,0,0,AAXX 13124 48376 31957 22603 10285 20218 39952 40095 52012 71000 80005 333 10339 59004
10:00 PM +07 on December 13,2017,2017,12,13,22,0,Asia/Bangkok,25,76,22,71,80,0,0,,,,,6,4,1011,29.86,-999,-999,-9999,-9999,,,Mist,hazy,0,0,0,0,0,0,AAXX 13154 48376 31956 20000 10246 20216 39967 40112 52015 71000 80005 333 59001
1:00 AM +07 on December 14,2017,2017,12,14,1,0,Asia/Bangkok,23,73,21,70,86,0,0,,,,,6,4,1011,29.86,-999,-999,-9999,-9999,,,Mist,hazy,0,0,0,0,0,0,AAXX 13184 48376 31956 20000 10229 20209 39965 40111 56002 71000 80005 333 59001
4:00 AM +07 on December 14,2017,2017,12,14,4,0,Asia/Bangkok,22,72,21,69,88,0,0,,,,,5,3,1011,29.85,-999,-999,-9999,-9999,,,Mist,hazy,0,0,0,0,0,0,AAXX 13214 48376 31950 20000 10221 20206 39961 40108 56004 71000 80005 333 58001
7:00 AM +07 on December 14,2017,2017,12,14,7,0,Asia/Bangkok,21,69,20,68,95,0,0,,,,,8,5,1013,29.91,-999,-999,-9999,-9999,,,Mist,hazy,0,0,0,0,0,0,AAXX 14004 48376 31958 20000 10208 20199 39981 40128 52020 71000 80005 333 20203 58006
10:00 AM +07 on December 14,2017,2017,12,14,10,0,Asia/Bangkok,28,83,23,73,64,3.7,2.3,,,260,West,8,5,1014,29.95,-999,-999,-9999,-9999,,,Mist,hazy,0,0,0,0,0,0,AAXX 14034 48376 31958 22602 10283 20227 39997 40141 52016 71000 80005 333 58004
1:00 PM +07 on December 14,2017,2017,12,14,13,0,Asia/Bangkok,33,91,20,68,37,5.6,3.5,,,270,West,8,5,1011,29.87,-999,-999,-9999,-9999,,,Haze,hazy,0,0,0,0,0,0,AAXX 14064 48376 31558 22703 10330 20199 39971 40113 57026 70500 82205 333 58009
4:00 PM +07 on December 14,2017,2017,12,14,16,0,Asia/Bangkok,34,93,19,66,31,5.6,3.5,,,310,NW,8,5,1009,29.79,-999,-999,-9999,-9999,,,Haze,hazy,0,0,0,0,0,0,AAXX 14094 48376 31558 23103 10339 20188 39947 40088 57024 70500 81205 333 58008
7:00 PM +07 on December 14,2017,2017,12,14,19,0,Asia/Bangkok,28,82,21,70,59,0,0,,,,,7,4,1010,29.84,-999,-999,-9999,-9999,,,Mist,hazy,0,0,0,0,0,0,AAXX 14124 48376 31557 20000 10275 20210 39961 40105 52014 71000 82505 333 10345 58010
10:00 PM +07 on December 14,2017,2017,12,14,22,0,Asia/Bangkok,24,75,20,68,73,0,0,,,,,7,4,1012,29.9,-999,-999,-9999,-9999,,,Mist,hazy,0,0,0,0,0,0,AAXX 14154 48376 31557 20000 10240 20200 39978 40124 52017 71000 81505 333 58012
1:00 AM +07 on December 16,2017,2017,12,16,1,0,Asia/Bangkok,22,71,20,67,84,0,0,,,,,6,4,1014,29.95,-999,-999,-9999,-9999,,,Mist,hazy,0,0,0,0,0,0,AAXX 15184 48376 31556 20000 10215 20195 39995 40142 54000 71000 82505 333 58016
4:00 AM +07 on December 16,2017,2017,12,16,4,0,Asia/Bangkok,21,69,19,66,87,5.6,3.5,,,280,West,6,4,1014,29.94,-999,-999,-9999,-9999,,,Mist,hazy,0,0,0,0,0,0,AAXX 15214 48376 31556 32803 10208 20189 39990 40138 56005 71000 82535 333 58022
7:00 AM +07 on December 16,2017,2017,12,16,7,0,Asia/Bangkok,21,70,19,65,81,3.7,2.3,,,280,West,5,3,1015,29.99,-999,-999,-9999,-9999,,,Mist,hazy,0,0,0,0,0,0,AAXX 16004 48376 31550 32802 10210 20186 30006 40154 52016 71000 82535 333 20200 58019
10:00 AM +07 on December 16,2017,2017,12,16,10,0,Asia/Bangkok,25,77,19,67,63,9.3,5.8,,,280,West,6,4,1017,30.04,-999,-999,-9999,-9999,,,Mist,hazy,0,0,0,0,0,0,AAXX 16034 48376 31556 62805 10251 20193 30026 40173 52020 71011 82536 333 58022
1:00 PM +07 on December 16,2017,2017,12,16,13,0,Asia/Bangkok,29,85,21,70,53,0,0,,,,,6,4,1015,29.97,-999,-999,-9999,-9999,,,Haze,hazy,0,0,0,0,0,0,AAXX 16064 48376 31556 60000 10292 20213 30003 40147 57024 70511 83536 333 58025
4:00 PM +07 on December 16,2017,2017,12,16,16,0,Asia/Bangkok,29,85,22,72,57,0,0,,,,,6,4,1013,29.93,-999,-999,-9999,-9999,,,Mist,hazy,0,0,0,0,0,0,AAXX 16094 48376 31556 60000 10292 20223 39990 40133 57013 71022 82536 333 58036
7:00 PM +07 on December 16,2017,2017,12,16,19,0,Asia/Bangkok,25,78,22,72,78,0,0,,,,,6,4,1015,29.98,-999,-999,-9999,-9999,,,Mist,hazy,0,0,0,0,0,0,AAXX 16124 48376 31556 50000 10254 20224 30005 40150 52015 71022 82536 333 10304 58032
10:00 PM +07 on December 16,2017,2017,12,16,22,0,Asia/Bangkok,24,76,22,72,84,0,0,,,,,5,3,1016,30.01,-999,-999,-9999,-9999,,,Light Rain,rain,0,1,0,0,0,0,AAXX 16154 48376 21550 60000 10242 20223 30016 40163 52012 72122 83536 333 58021 69905
1:00 AM +07 on December 24,2017,2017,12,24,1,0,Asia/Bangkok,18,65,17,62,88,0,0,,,,,6,4,1013,29.93,-999,-999,-9999,-9999,,,Mist,hazy,0,0,0,0,0,0,AAXX 23184 48376 31956 00000 10185 20168 39984 40133 51003 71000 333 59019
4:00 AM +07 on December 24,2017,2017,12,24,4,0,Asia/Bangkok,17,63,16,61,90,0,0,,,,,6,4,1013,29.91,-999,-999,-9999,-9999,,,Mist,hazy,0,0,0,0,0,0,AAXX 23214 48376 31956 00000 10172 20160 39977 40127 56007 71000 333 59010
7:00 AM +07 on December 24,2017,2017,12,24,7,0,Asia/Bangkok,17,62,15,59,87,0,0,,,,,6,4,1014,29.95,-999,-999,-9999,-9999,,,Mist,hazy,0,0,0,0,0,0,AAXX 24004 48376 31956 20000 10168 20151 39990 40140 52013 71000 80005 333 20160 59006
10:00 AM +07 on December 24,2017,2017,12,24,10,0,Asia/Bangkok,24,76,17,63,55,5.6,3.5,,,280,West,7,4,1016,30,-999,-999,-9999,-9999,,,Haze,hazy,0,0,0,0,0,0,AAXX 24034 48376 31957 02803 10245 20171 30011 40157 52021 70500 333 58004
1:00 PM +07 on December 24,2017,2017,12,24,13,0,Asia/Bangkok,31,87,17,63,35,7.4,4.6,,,330,NNW,7,4,1012,29.9,-999,-999,-9999,-9999,,,Haze,hazy,0,0,0,0,0,0,AAXX 24064 48376 31557 23304 10307 20173 39980 40123 57030 70500 81205 333 58007
4:00 PM +07 on December 24,2017,2017,12,24,16,0,Asia/Bangkok,32,89,17,63,32,5.6,3.5,,,130,SE,7,4,1010,29.82,-999,-999,-9999,-9999,,,Haze,hazy,0,0,0,0,0,0,AAXX 24094 48376 31957 11303 10318 20174 39955 40097 57025 70500 80005 333 59002
7:00 PM +07 on December 24,2017,2017,12,24,19,0,Asia/Bangkok,26,78,19,66,59,0,0,,,,,7,4,1012,29.88,-999,-999,-9999,-9999,,,Mist,hazy,0,0,0,0,0,0,AAXX 24124 48376 31957 20000 10258 20191 39972 40117 52016 71000 80005 333 10326 58010
10:00 PM +07 on December 24,2017,2017,12,24,22,0,Asia/Bangkok,23,73,18,65,70,0,0,,,,,6,4,1015,29.97,-999,-999,-9999,-9999,,,Mist,hazy,0,0,0,0,0,0,AAXX 24154 48376 31556 50000 10226 20185 30002 40149 52030 71011 82536 333 58020
1:00 AM +07 on December 29,2017,2017,12,29,1,0,Asia/Bangkok,21,70,20,68,90,0,0,,,,,3,2,1016,30.02,-999,-999,-9999,-9999,,,Mist,hazy,0,0,0,0,0,0,AAXX 28184 48376 31530 80000 10209 20198 30015 40164 56005 71022 8652/ 333 58002 70014
4:00 AM +07 on December 29,2017,2017,12,29,4,0,Asia/Bangkok,21,69,20,67,92,5.6,3.5,,,320,NW,4,2,1015,29.98,-999,-999,-9999,-9999,,,Mist,hazy,0,0,0,0,0,0,AAXX 28214 48376 31540 83203 10207 20196 30003 40151 57012 71022 8552/ 333 58003
7:00 AM +07 on December 29,2017,2017,12,29,7,0,Asia/Bangkok,21,70,20,67,88,3.7,2.3,,,290,WNW,4,2,1016,30.01,-999,-999,-9999,-9999,,,Mist,hazy,0,0,0,0,0,0,AAXX 29004 48376 11540 82902 10209 20195 30015 40163 52011 69964 71022 85576 333 20198 58000 70006
10:00 AM +07 on December 29,2017,2017,12,29,10,0,Asia/Bangkok,23,74,20,69,79,9.3,5.8,,,280,West,6,4,1018,30.07,-999,-999,-9999,-9999,,,Mist,hazy,0,0,0,0,0,0,AAXX 29034 48376 31556 82805 10234 20205 30034 40181 52019 71022 85576 333 59002
1:00 PM +07 on December 29,2017,2017,12,29,13,0,Asia/Bangkok,26,80,20,69,61,5.6,3.5,,,300,WNW,6,4,1016,30,-999,-999,-9999,-9999,,,Mist,hazy,0,0,0,0,0,0,AAXX 29064 48376 31556 83003 10264 20205 30012 40157 57021 71022 85576 333 59005
4:00 PM +07 on December 29,2017,2017,12,29,16,0,Asia/Bangkok,27,81,21,70,62,7.4,4.6,,,330,NNW,6,4,1014,29.95,-999,-999,-9999,-9999,,,Mist,hazy,0,0,0,0,0,0,AAXX 29094 48376 31556 63304 10274 20211 39995 40140 57017 71022 84536 333 59007
7:00 PM +07 on December 29,2017,2017,12,29,19,0,Asia/Bangkok,25,78,21,70,71,0,0,,,,,6,4,1015,29.98,-999,-999,-9999,-9999,,,Mist,hazy,0,0,0,0,0,0,AAXX 29124 48376 31556 70000 10254 20213 30004 40150 51009 71022 84536 333 10283 59006
10:00 PM +07 on December 29,2017,2017,12,29,22,0,Asia/Bangkok,24,75,21,70,79,5.6,3.5,,,310,NW,6,4,1017,30.03,-999,-999,-9999,-9999,,,Mist,hazy,0,0,0,0,0,0,AAXX 29154 48376 31956 63103 10237 20210 30021 40168 52017 71022 84036 333 59001
1:00 AM +07 on December 30,2017,2017,12,30,1,0,Asia/Bangkok,23,73,20,69,82,5.6,3.5,,,300,WNW,6,4,1016,30.02,-999,-999,-9999,-9999,,,Mist,hazy,0,0,0,0,0,0,AAXX 29184 48376 31556 73003 10226 20203 30017 40165 56004 71022 84536 333 58001
4:00 AM +07 on December 30,2017,2017,12,30,4,0,Asia/Bangkok,22,72,21,69,88,0,0,,,,,6,4,1015,29.98,-999,-999,-9999,-9999,,,Mist,hazy,0,0,0,0,0,0,AAXX 29214 48376 31556 60000 10225 20207 30002 40150 57015 71022 82536 333 59002
7:00 AM +07 on December 30,2017,2017,12,30,7,0,Asia/Bangkok,22,72,20,69,86,5.6,3.5,,,280,West,8,5,1016,29.99,-999,-999,-9999,-9999,,,Mist,hazy,0,0,0,0,0,0,AAXX 30004 48376 31558 62803 10221 20204 30008 40156 51006 71022 82536 333 20213 59007
10:00 AM +07 on December 30,2017,2017,12,30,10,0,Asia/Bangkok,27,81,21,70,61,7.4,4.6,,,340,NNW,10,6,1017,30.02,-999,-999,-9999,-9999,,,Scattered Clouds,partlycloudy,0,0,0,0,0,0,AAXX 30034 48376 32560 23404 10271 20209 30021 40166 52012 81205 333 59015
1:00 PM +07 on December 30,2017,2017,12,30,13,0,Asia/Bangkok,30,86,21,71,51,5.6,3.5,,,340,NNW,10,6,1014,29.93,-999,-999,-9999,-9999,,,Partly Cloudy,partlycloudy,0,0,0,0,0,0,AAXX 30064 48376 32560 63403 10302 20214 39991 40135 57029 83336 333 59023
4:00 PM +07 on December 30,2017,2017,12,30,16,0,Asia/Bangkok,31,88,21,70,47,5.6,3.5,,,60,ENE,10,6,1012,29.88,-999,-999,-9999,-9999,,,Scattered Clouds,partlycloudy,0,0,0,0,0,0,AAXX 30094 48376 32560 20603 10310 20213 39975 40118 57016 82205 333 59022
7:00 PM +07 on December 30,2017,2017,12,30,19,0,Asia/Bangkok,28,82,23,73,67,0,0,,,,,10,6,1013,29.93,-999,-999,-9999,-9999,,,Scattered Clouds,partlycloudy,0,0,0,0,0,0,AAXX 30124 48376 32560 50000 10275 20226 39989 40133 52014 82536 333 10315 59016
1:00 AM +07 on December 12,2017,2017,12,12,1,0,Asia/Bangkok,25,77,23,73,84,0,0,,,,,5,3,1012,29.9,-999,-999,-9999,-9999,,,Mist,hazy,0,0,0,0,0,0,AAXX 11184 48376 31550 20000 10250 20228 39980 40125 56007 71000 82505 333 59015
4:00 AM +07 on December 12,2017,2017,12,12,4,0,Asia/Bangkok,24,75,22,72,89,0,0,,,,,5,3,1012,29.87,-999,-999,-9999,-9999,,,Mist,hazy,0,0,0,0,0,0,AAXX 11214 48376 31550 20000 10241 20225 39969 40115 57010 71000 81505 333 59011
7:00 AM +07 on December 12,2017,2017,12,12,7,0,Asia/Bangkok,23,74,22,72,90,0,0,,,,,6,4,1013,29.91,-999,-999,-9999,-9999,,,Mist,hazy,0,0,0,0,0,0,AAXX 12004 48376 31556 20000 10231 20220 39983 40129 52013 71000 81205 333 20224 59006
10:00 AM +07 on December 12,2017,2017,12,12,10,0,Asia/Bangkok,30,87,23,73,55,5.6,3.5,,,320,NW,10,6,1014,29.95,-999,-999,-9999,-9999,,,Clear,clear,0,0,0,0,0,0,AAXX 12034 48376 32960 23203 10303 20229 39997 40141 52015 80005 333 59002
1:00 PM +07 on December 12,2017,2017,12,12,13,0,Asia/Bangkok,33,91,22,72,44,9.3,5.8,,,290,WNW,10,6,1011,29.85,-999,-999,-9999,-9999,,,Scattered Clouds,partlycloudy,0,0,0,0,0,0,AAXX 12064 48376 32560 32905 10330 20220 39966 40108 57031 82205 333 59006
4:00 PM +07 on December 12,2017,2017,12,12,16,0,Asia/Bangkok,34,93,22,71,39,9.3,5.8,,,260,West,10,6,1008,29.78,-999,-999,-9999,-9999,,,Scattered Clouds,partlycloudy,0,0,0,0,0,0,AAXX 12094 48376 32560 32605 10340 20215 39941 40082 57025 82235 333 59011
7:00 PM +07 on December 12,2017,2017,12,12,19,0,Asia/Bangkok,29,85,23,74,62,3.7,2.3,,,260,West,10,6,1010,29.83,-999,-999,-9999,-9999,,,Scattered Clouds,partlycloudy,0,0,0,0,0,0,AAXX 12124 48376 32560 22602 10293 20233 39956 40099 52015 81505 333 10350 59012
10:00 PM +07 on December 12,2017,2017,12,12,22,0,Asia/Bangkok,28,82,23,73,68,9.3,5.8,,,260,West,8,5,1011,29.87,-999,-999,-9999,-9999,,,Mist,hazy,0,0,0,0,0,0,AAXX 12154 48376 31558 22605 10280 20229 39969 40113 52013 71000 82505 333 59019
1:00 AM +07 on December 20,2017,2017,12,20,1,0,Asia/Bangkok,15,60,14,56,84,0,0,,,,,5,3,1022,30.17,-999,-999,-9999,-9999,,,Mist,hazy,0,0,0,0,0,0,AAXX 19184 48376 31550 60000 10154 20136 30065 40217 51008 71011 82536 333 58009
4:00 AM +07 on December 20,2017,2017,12,20,4,0,Asia/Bangkok,14,58,14,57,94,0,0,,,,,5,3,1021,30.17,-999,-999,-9999,-9999,,,Mist,hazy,0,0,0,0,0,0,AAXX 19214 48376 31950 20000 10144 20137 30061 40214 56004 71011 80005 333 58011
7:00 AM +07 on December 20,2017,2017,12,20,7,0,Asia/Bangkok,13,56,13,55,94,0,0,,,,,5,3,1022,30.19,-999,-999,-9999,-9999,,,Mist,hazy,0,0,0,0,0,0,AAXX 20004 48376 31950 20000 10132 20126 30071 40224 51009 71011 80005 333 20125 58006
10:00 AM +07 on December 20,2017,2017,12,20,10,0,Asia/Bangkok,20,69,10,50,40,11.1,6.9,,,50,NE,5,3,1026,30.29,-999,-999,-9999,-9999,,,Haze,hazy,0,0,0,0,0,0,AAXX 20034 48376 31950 20506 10203 20099 30108 40257 52037 70500 80002 333 58024
1:00 PM +07 on December 20,2017,2017,12,20,13,0,Asia/Bangkok,23,74,9,47,28,11.1,6.9,,,120,ESE,5,3,1022,30.19,-999,-999,-9999,-9999,,,Haze,hazy,0,0,0,0,0,0,AAXX 20064 48376 31950 21206 10232 20086 30074 40222 57034 70500 80005 333 58023
4:00 PM +07 on December 20,2017,2017,12,20,16,0,Asia/Bangkok,24,76,10,51,30,7.4,4.6,,,60,ENE,5,3,1019,30.09,-999,-999,-9999,-9999,,,Haze,hazy,0,0,0,0,0,0,AAXX 20094 48376 31950 20604 10243 20104 30041 40188 57033 70500 80005 333 58017
7:00 PM +07 on December 20,2017,2017,12,20,19,0,Asia/Bangkok,19,66,13,56,61,0,0,,,,,6,4,1021,30.15,-999,-999,-9999,-9999,,,Mist,hazy,0,0,0,0,0,0,AAXX 20124 48376 31956 20000 10191 20131 30060 40209 52019 71000 80005 333 10247 58025
10:00 PM +07 on December 20,2017,2017,12,20,22,0,Asia/Bangkok,15,60,11,53,69,0,0,,,,,5,3,1023,30.21,-999,-999,-9999,-9999,,,Mist,hazy,0,0,0,0,0,0,AAXX 20154 48376 31950 20000 10153 20114 30077 40229 52018 71000 80005 333 58021
1:00 AM +07 on December 22,2017,2017,12,22,1,0,Asia/Bangkok,14,57,12,54,85,0,0,,,,,5,3,1019,30.1,-999,-999,-9999,-9999,,,Mist,hazy,0,0,0,0,0,0,AAXX 21184 48376 31950 20000 10140 20121 30039 40191 56008 71000 80005 333 59037
4:00 AM +07 on December 22,2017,2017,12,22,4,0,Asia/Bangkok,13,55,11,52,87,0,0,,,,,5,3,1018,30.06,-999,-999,-9999,-9999,,,Mist,hazy,0,0,0,0,0,0,AAXX 21214 48376 31950 20000 10129 20112 30024 40177 57014 71000 80005 333 59045
7:00 AM +07 on December 22,2017,2017,12,22,7,0,Asia/Bangkok,13,55,11,52,84,3.7,2.3,,,270,West,5,3,1019,30.09,-999,-999,-9999,-9999,,,Mist,hazy,0,0,0,0,0,0,AAXX 22004 48376 31950 22702 10130 20109 30035 40188 52011 71000 80005 333 20113 59043
10:00 AM +07 on December 22,2017,2017,12,22,10,0,Asia/Bangkok,20,69,10,51,41,9.3,5.8,,,300,WNW,6,4,1020,30.11,-999,-999,-9999,-9999,,,Haze,hazy,0,0,0,0,0,0,AAXX 22034 48376 31956 13005 10205 20103 30047 40196 52012 70500 80005 333 59041
1:00 PM +07 on December 22,2017,2017,12,22,13,0,Asia/Bangkok,26,79,11,51,27,11.1,6.9,,,320,NW,7,4,1016,30.01,-999,-999,-9999,-9999,,,Haze,hazy,0,0,0,0,0,0,AAXX 22064 48376 31957 23206 10263 20106 30015 40160 57033 70500 80005 333 59041
4:00 PM +07 on December 22,2017,2017,12,22,16,0,Asia/Bangkok,28,83,13,55,28,0,0,,,,,7,4,1013,29.92,-999,-999,-9999,-9999,,,Haze,hazy,0,0,0,0,0,0,AAXX 22094 48376 31957 20000 10282 20129 39986 40130 57029 70500 80005 333 59035
7:00 PM +07 on December 22,2017,2017,12,22,19,0,Asia/Bangkok,22,72,16,60,57,0,0,,,,,5,3,1014,29.95,-999,-999,-9999,-9999,,,Mist,hazy,0,0,0,0,0,0,AAXX 22124 48376 31950 20000 10222 20155 39993 40140 51007 71000 80005 333 10288 59044
10:00 PM +07 on December 22,2017,2017,12,22,22,0,Asia/Bangkok,18,65,15,59,76,0,0,,,,,5,3,1016,30,-999,-999,-9999,-9999,,,Mist,hazy,0,0,0,0,0,0,AAXX 22154 48376 31950 20000 10185 20151 30007 40157 52015 71000 80005 333 59041
1:00 AM +07 on December 25,2017,2017,12,25,1,0,Asia/Bangkok,22,72,18,65,73,0,0,,,,,6,4,1014,29.96,-999,-999,-9999,-9999,,,Mist,hazy,0,0,0,0,0,0,AAXX 24184 48376 31556 60000 10225 20184 39998 40145 56003 71011 82536 333 58013
4:00 AM +07 on December 25,2017,2017,12,25,4,0,Asia/Bangkok,22,71,18,65,76,0,0,,,,,5,3,1014,29.93,-999,-999,-9999,-9999,,,Mist,hazy,0,0,0,0,0,0,AAXX 24214 48376 31550 30000 10215 20183 39987 40135 57011 71011 82535 333 58008
7:00 AM +07 on December 25,2017,2017,12,25,7,0,Asia/Bangkok,20,68,18,64,82,3.7,2.3,,,280,West,5,3,1014,29.96,-999,-999,-9999,-9999,,,Mist,hazy,0,0,0,0,0,0,AAXX 25004 48376 31550 52802 10201 20177 39995 40144 51008 71011 82556 333 20194 58004
10:00 AM +07 on December 25,2017,2017,12,25,10,0,Asia/Bangkok,25,77,17,63,54,3.7,2.3,,,280,West,6,4,1016,30.01,-999,-999,-9999,-9999,,,Haze,hazy,0,0,0,0,0,0,AAXX 25034 48376 31556 32802 10248 20174 30015 40161 52019 70511 82535 333 58004
1:00 PM +07 on December 25,2017,2017,12,25,13,0,Asia/Bangkok,28,82,18,65,46,0,0,,,,,7,4,1013,29.92,-999,-999,-9999,-9999,,,Haze,hazy,0,0,0,0,0,0,AAXX 25064 48376 31557 60000 10275 20182 39988 40132 57027 70511 82236 333 58009
4:00 PM +07 on December 25,2017,2017,12,25,16,0,Asia/Bangkok,29,85,16,62,35,5.6,3.5,,,40,NE,7,4,1011,29.85,-999,-999,-9999,-9999,,,Haze,hazy,0,0,0,0,0,0,AAXX 25094 48376 31557 50403 10292 20164 39964 40107 57023 70522 82556 333 58010
7:00 PM +07 on December 25,2017,2017,12,25,19,0,Asia/Bangkok,24,75,18,65,63,0,0,,,,,6,4,1013,29.92,-999,-999,-9999,-9999,,,Mist,hazy,0,0,0,0,0,0,AAXX 25124 48376 31556 20000 10237 20183 39984 40130 52020 71011 81505 333 10298 58013
10:00 PM +07 on December 25,2017,2017,12,25,22,0,Asia/Bangkok,21,69,18,65,82,0,0,,,,,6,4,1015,29.98,-999,-999,-9999,-9999,,,Mist,hazy,0,0,0,0,0,0,AAXX 25154 48376 31556 20000 10208 20182 30002 40150 52018 71000 81505 333 58001
1:00 AM +07 on December 23,2017,2017,12,23,1,0,Asia/Bangkok,16,62,15,59,86,0,0,,,,,5,3,1015,29.98,-999,-999,-9999,-9999,,,Mist,hazy,0,0,0,0,0,0,AAXX 22184 48376 31950 20000 10165 20149 30001 40152 56006 71000 80005 333 59039
4:00 AM +07 on December 23,2017,2017,12,23,4,0,Asia/Bangkok,15,59,14,57,92,0,0,,,,,5,3,1014,29.94,-999,-999,-9999,-9999,,,Mist,hazy,0,0,0,0,0,0,AAXX 22214 48376 31950 20000 10152 20141 39986 40136 57016 71000 80005 333 59041
7:00 AM +07 on December 23,2017,2017,12,23,7,0,Asia/Bangkok,15,60,14,57,87,0,0,,,,,5,3,1015,29.96,-999,-999,-9999,-9999,,,Mist,hazy,0,0,0,0,0,0,AAXX 23004 48376 31950 20000 10153 20139 39995 40146 52010 71000 80005 333 20142 59042
10:00 AM +07 on December 23,2017,2017,12,23,10,0,Asia/Bangkok,23,73,15,59,53,5.6,3.5,,,270,West,6,4,1015,29.99,-999,-999,-9999,-9999,,,Haze,hazy,0,0,0,0,0,0,AAXX 23034 48376 31956 02703 10228 20151 30006 40153 52011 70500 333 59043
1:00 PM +07 on December 23,2017,2017,12,23,13,0,Asia/Bangkok,30,85,15,58,30,7.4,4.6,,,320,NW,6,4,1012,29.88,-999,-999,-9999,-9999,,,Haze,hazy,0,0,0,0,0,0,AAXX 23064 48376 31956 23204 10295 20147 39973 40117 57033 70500 80005 333 59044
4:00 PM +07 on December 23,2017,2017,12,23,16,0,Asia/Bangkok,32,89,16,62,30,3.7,2.3,,,90,East,7,4,1010,29.83,-999,-999,-9999,-9999,,,Haze,hazy,0,0,0,0,0,0,AAXX 23094 48376 31957 20902 10315 20164 39958 40100 57016 70500 80005 333 59030
7:00 PM +07 on December 23,2017,2017,12,23,19,0,Asia/Bangkok,25,77,19,66,60,0,0,,,,,6,4,1011,29.85,-999,-999,-9999,-9999,,,Mist,hazy,0,0,0,0,0,0,AAXX 23124 48376 31956 20000 10250 20187 39962 40107 51004 71000 80005 333 10320 59033
10:00 PM +07 on December 23,2017,2017,12,23,22,0,Asia/Bangkok,21,70,18,65,79,0,0,,,,,5,3,1013,29.91,-999,-999,-9999,-9999,,,Mist,hazy,0,0,0,0,0,0,AAXX 23154 48376 31950 20000 10209 20182 39981 40129 52020 71000 80005 333 59028
1:00 AM +07 on December 31,2017,2017,12,31,1,0,Asia/Bangkok,25,76,23,73,88,0,0,,,,,8,5,1015,29.97,-999,-999,-9999,-9999,,,Mist,hazy,0,0,0,0,0,0,AAXX 30184 48376 31558 70000 10247 20229 30002 40148 56005 71022 84536 333 59016
4:00 AM +07 on December 31,2017,2017,12,31,4,0,Asia/Bangkok,24,75,23,73,90,0,0,,,,,8,5,1014,29.94,-999,-999,-9999,-9999,,,Mist,hazy,0,0,0,0,0,0,AAXX 30214 48376 31558 60000 10239 20226 39992 40138 57010 71022 83536 333 59012
7:00 AM +07 on December 31,2017,2017,12,31,7,0,Asia/Bangkok,23,74,22,72,93,0,0,,,,,7,4,1015,29.98,-999,-999,-9999,-9999,,,Mist,hazy,0,0,0,0,0,0,AAXX 31004 48376 31557 80000 10232 20224 30004 40151 52012 71022 85576 333 20227 59005
10:00 AM +07 on December 31,2017,2017,12,31,10,0,Asia/Bangkok,26,78,21,70,69,9.3,5.8,,,170,South,6,4,1017,30.03,-999,-999,-9999,-9999,,,Mist,hazy,0,0,0,0,0,0,AAXX 31034 48376 31556 81705 10258 20209 30024 40169 52020 71022 8552/ 333 58004
1:00 PM +07 on December 31,2017,2017,12,31,13,0,Asia/Bangkok,29,83,20,68,51,9.3,5.8,,,180,South,8,5,1014,29.95,-999,-999,-9999,-9999,,,Haze,hazy,0,0,0,0,0,0,AAXX 31064 48376 31558 51805 10286 20199 39996 40140 57027 70522 82236 333 58006
4:00 PM +07 on December 31,2017,2017,12,31,16,0,Asia/Bangkok,30,86,19,67,43,9.3,5.8,,,180,South,9,6,1011,29.87,-999,-999,-9999,-9999,,,Haze,hazy,0,0,0,0,0,0,AAXX 31094 48376 31559 61805 10299 20193 39970 40113 57026 70522 83236 333 59004
7:00 PM +07 on December 31,2017,2017,12,31,19,0,Asia/Bangkok,26,78,21,70,69,0,0,,,,,8,5,1012,29.9,-999,-999,-9999,-9999,,,Mist,hazy,0,0,0,0,0,0,AAXX 31124 48376 31558 20000 10256 20209 39980 40125 51009 71011 81505 333 10302 59008
10:00 PM +07 on December 31,2017,2017,12,31,22,0,Asia/Bangkok,23,73,20,68,79,0,0,,,,,8,5,1014,29.95,-999,-999,-9999,-9999,,,Mist,hazy,0,0,0,0,0,0,AAXX 31154 48376 31958 20000 10230 20199 39994 40141 52015 71000 81015 333 59012
1:00 AM +07 on December 18,2017,2017,12,18,1,0,Asia/Bangkok,21,69,18,64,77,0,0,,,,,5,3,1019,30.09,-999,-999,-9999,-9999,,,Mist,hazy,0,0,0,0,0,0,AAXX 17184 48376 31550 60000 10208 20175 30041 40189 51001 71011 83536 333 58024
4:00 AM +07 on December 18,2017,2017,12,18,4,0,Asia/Bangkok,20,68,18,64,84,0,0,,,,,6,4,1018,30.08,-999,-999,-9999,-9999,,,Mist,hazy,0,0,0,0,0,0,AAXX 17214 48376 31556 60000 10200 20179 30036 40185 56004 71022 83526 333 58023
7:00 AM +07 on December 18,2017,2017,12,18,7,0,Asia/Bangkok,20,69,17,62,73,0,0,,,,,6,4,1019,30.11,-999,-999,-9999,-9999,,,Mist,hazy,0,0,0,0,0,0,AAXX 18004 48376 31556 50000 10203 20168 30045 40194 51009 71022 82536 333 20198 58016
10:00 AM +07 on December 18,2017,2017,12,18,10,0,Asia/Bangkok,24,75,15,60,49,7.4,4.6,,,90,East,7,4,1020,30.13,-999,-999,-9999,-9999,,,Haze,hazy,0,0,0,0,0,0,AAXX 18034 48376 31557 20904 10241 20153 30055 40202 52010 70511 81505 333 58004
1:00 PM +07 on December 18,2017,2017,12,18,13,0,Asia/Bangkok,26,79,14,58,38,0,0,,,,,6,4,1018,30.07,-999,-999,-9999,-9999,,,Haze,hazy,0,0,0,0,0,0,AAXX 18064 48376 31556 50000 10260 20143 30037 40183 57018 70511 82536 333 58003
4:00 PM +07 on December 18,2017,2017,12,18,16,0,Asia/Bangkok,27,81,14,58,35,7.4,4.6,,,60,ENE,6,4,1016,30,-999,-999,-9999,-9999,,,Haze,hazy,0,0,0,0,0,0,AAXX 18094 48376 31556 20604 10270 20145 30013 40158 57024 70511 81505 333 58009
7:00 PM +07 on December 18,2017,2017,12,18,19,0,Asia/Bangkok,22,72,17,63,65,0,0,,,,,6,4,1018,30.05,-999,-999,-9999,-9999,,,Mist,hazy,0,0,0,0,0,0,AAXX 18124 48376 31956 20000 10223 20171 30028 40175 52015 71011 80005 333 10290 58011
10:00 PM +07 on December 18,2017,2017,12,18,22,0,Asia/Bangkok,21,70,16,61,65,3.7,2.3,,,90,East,5,3,1021,30.15,-999,-999,-9999,-9999,,,Mist,hazy,0,0,0,0,0,0,AAXX 18154 48376 31550 60902 10209 20159 30061 40210 52033 71011 82536 333 58022
1:00 AM +07 on December 26,2017,2017,12,26,1,0,Asia/Bangkok,19,66,17,63,88,0,0,,,,,5,3,1015,29.97,-999,-999,-9999,-9999,,,Mist,hazy,0,0,0,0,0,0,AAXX 25184 48376 31950 20000 10190 20174 39998 40147 56004 71000 80005 333 58001
4:00 AM +07 on December 26,2017,2017,12,26,4,0,Asia/Bangkok,18,65,17,63,89,0,0,,,,,5,3,1014,29.94,-999,-999,-9999,-9999,,,Mist,hazy,0,0,0,0,0,0,AAXX 25214 48376 31950 20000 10182 20170 39990 40139 56008 71000 80005 333 58004
10:00 AM +07 on December 26,2017,2017,12,26,10,0,Asia/Bangkok,22,71,18,64,72,0,0,,,,,6,4,1017,30.03,-999,-999,-9999,-9999,,,Mist,hazy,0,0,0,0,0,0,AAXX 26034 48376 31556 60000 10219 20177 30021 40169 52021 71022 83536 333 58008
4:00 PM +07 on December 26,2017,2017,12,26,16,0,Asia/Bangkok,27,80,16,60,41,5.6,3.5,,,50,NE,6,4,1012,29.89,-999,-999,-9999,-9999,,,Haze,hazy,0,0,0,0,0,0,AAXX 26094 48376 31556 70503 10266 20158 39977 40122 57018 70522 83536 333 58015
7:00 PM +07 on December 26,2017,2017,12,26,19,0,Asia/Bangkok,24,75,16,60,51,0,0,,,,,6,4,1014,29.95,-999,-999,-9999,-9999,,,Haze,hazy,0,0,0,0,0,0,AAXX 26124 48376 31556 60000 10239 20158 39994 40141 52017 70522 83536 333 10281 58011
10:00 PM +07 on December 26,2017,2017,12,26,22,0,Asia/Bangkok,20,68,18,65,87,0,0,,,,,5,3,1017,30.02,-999,-999,-9999,-9999,,,Light Rain,rain,0,1,0,0,0,0,AAXX 26154 48376 21550 80000 10201 20183 30018 40166 52024 76022 8552/ 333 58017 60015
1:00 AM +07 on December 27,2017,2017,12,27,1,0,Asia/Bangkok,19,67,18,64,86,0,0,,,,,5,3,1016,30.02,-999,-999,-9999,-9999,,,Mist,hazy,0,0,0,0,0,0,AAXX 26184 48376 01550 80000 10194 20176 30016 40165 56002 60013 71062 8552/ 333 58018 69937 70013
4:00 AM +07 on December 27,2017,2017,12,27,4,0,Asia/Bangkok,18,65,17,63,91,0,0,,,,,5,3,1015,29.97,-999,-999,-9999,-9999,,,Light Rain,rain,0,1,0,0,0,0,AAXX 26214 48376 21550 80000 10185 20172 39998 40147 57018 76162 8552/ 333 58008 60016
7:00 AM +07 on December 27,2017,2017,12,27,7,0,Asia/Bangkok,19,66,18,64,93,0,0,,,,,3,2,1016,30,-999,-999,-9999,-9999,,,Light Rain,rain,0,1,0,0,0,0,AAXX 27004 48376 01530 80000 10190 20180 30008 40157 51009 60034 76062 8552/ 333 20174 58007 69985 70033
10:00 AM +07 on December 27,2017,2017,12,27,10,0,Asia/Bangkok,19,67,18,65,92,0,0,,,,,1,1,1017,30.05,-999,-999,-9999,-9999,,,Light Rain,rain,0,1,0,0,0,0,AAXX 27034 48376 21510 80000 10193 20185 30024 40174 52017 76166 8552/ 333 58004 60057
1:00 PM +07 on December 27,2017,2017,12,27,13,0,Asia/Bangkok,20,69,19,67,91,0,0,,,,,2,1,1015,29.97,-999,-999,-9999,-9999,,,Mist,hazy,0,0,0,0,0,0,AAXX 27064 48376 01520 80000 10205 20194 30000 40148 57024 60061 71062 8552/ 333 58008 69957 70088
4:00 PM +07 on December 27,2017,2017,12,27,16,0,Asia/Bangkok,20,68,19,66,91,0,0,,,,,2,1,1013,29.93,-999,-999,-9999,-9999,,,Light Rain,rain,0,1,0,0,0,0,AAXX 27094 48376 21520 80000 10199 20189 39986 40134 57015 76162 8552/ 333 58012 60027
10:00 PM +07 on December 27,2017,2017,12,27,22,0,Asia/Bangkok,20,68,19,66,93,0,0,,,,,4,2,1016,30.02,-999,-999,-9999,-9999,,,Light Rain,rain,0,1,0,0,0,0,AAXX 27154 48376 21540 80000 10199 20191 30017 40165 51013 72162 8652/ 333 59001 69986
1:00 AM +07 on December 19,2017,2017,12,19,1,0,Asia/Bangkok,19,67,14,58,65,5.6,3.5,,,110,ESE,5,3,1021,30.15,-999,-999,-9999,-9999,,,Mist,hazy,0,0,0,0,0,0,AAXX 18184 48376 31550 61103 10194 20144 30058 40208 56002 71011 83536 333 58019
4:00 AM +07 on December 19,2017,2017,12,19,4,0,Asia/Bangkok,18,65,14,56,66,0,0,,,,,5,3,1020,30.13,-999,-999,-9999,-9999,,,Mist,hazy,0,0,0,0,0,0,AAXX 18214 48376 31550 60000 10181 20135 30052 40203 56006 71022 82536 333 58017
7:00 AM +07 on December 19,2017,2017,12,19,7,0,Asia/Bangkok,16,60,13,56,82,0,0,,,,,5,3,1022,30.18,-999,-999,-9999,-9999,,,Mist,hazy,0,0,0,0,0,0,AAXX 19004 48376 31950 20000 10155 20133 30066 40218 52014 71011 80005 333 20147 58024
10:00 AM +07 on December 19,2017,2017,12,19,10,0,Asia/Bangkok,23,73,11,52,36,9.3,5.8,,,90,East,6,4,1023,30.22,-999,-999,-9999,-9999,,,Haze,hazy,0,0,0,0,0,0,AAXX 19034 48376 31956 20905 10227 20110 30085 40234 52019 70500 80005 333 58032
1:00 PM +07 on December 19,2017,2017,12,19,13,0,Asia/Bangkok,25,77,11,52,31,11.1,6.9,,,60,ENE,6,4,1020,30.12,-999,-999,-9999,-9999,,,Haze,hazy,0,0,0,0,0,0,AAXX 19064 48376 31556 20606 10250 20111 30052 40198 57034 70500 81205 333 58016
4:00 PM +07 on December 19,2017,2017,12,19,16,0,Asia/Bangkok,25,77,13,55,35,5.6,3.5,,,60,ENE,6,4,1017,30.04,-999,-999,-9999,-9999,,,Haze,hazy,0,0,0,0,0,0,AAXX 19094 48376 31956 20603 10252 20126 30024 40170 57027 70500 80005 333 58013
7:00 PM +07 on December 19,2017,2017,12,19,19,0,Asia/Bangkok,21,69,15,59,62,0,0,,,,,6,4,1018,30.08,-999,-999,-9999,-9999,,,Mist,hazy,0,0,0,0,0,0,AAXX 19124 48376 31956 20000 10207 20149 30036 40184 52011 71000 80005 333 10257 58009
10:00 PM +07 on December 19,2017,2017,12,19,22,0,Asia/Bangkok,17,63,15,59,84,0,0,,,,,5,3,1021,30.15,-999,-999,-9999,-9999,,,Mist,hazy,0,0,0,0,0,0,AAXX 19154 48376 31950 20000 10173 20152 30058 40208 52022 71000 80005 333 59001
1:00 AM +07 on December 17,2017,2017,12,17,1,0,Asia/Bangkok,24,74,22,72,90,0,0,,,,,5,3,1016,30.02,-999,-999,-9999,-9999,,,Mist,hazy,0,0,0,0,0,0,AAXX 16184 48376 11550 60000 10235 20220 30018 40165 51001 69903 71062 83536 333 58023 79999
4:00 AM +07 on December 17,2017,2017,12,17,4,0,Asia/Bangkok,22,71,21,69,92,0,0,,,,,3,2,1016,30.01,-999,-999,-9999,-9999,,,Mist,hazy,0,0,0,0,0,0,AAXX 16214 48376 31530 30000 10215 20207 30015 40162 56003 71011 82535 333 58025
7:00 AM +07 on December 17,2017,2017,12,17,7,0,Asia/Bangkok,22,71,21,69,92,0,0,,,,,5,3,1018,30.06,-999,-999,-9999,-9999,,,Mist,hazy,0,0,0,0,0,0,AAXX 17004 48376 11550 60000 10217 20206 30031 40179 52016 69904 71011 83536 333 20205 58024 79999
10:00 AM +07 on December 17,2017,2017,12,17,10,0,Asia/Bangkok,25,77,20,68,67,5.6,3.5,,,180,South,6,4,1020,30.12,-999,-999,-9999,-9999,,,Mist,hazy,0,0,0,0,0,0,AAXX 17034 48376 31556 21803 10251 20200 30051 40198 52021 71011 82205 333 58025
1:00 PM +07 on December 17,2017,2017,12,17,13,0,Asia/Bangkok,28,82,19,66,50,5.6,3.5,,,140,SE,6,4,1018,30.06,-999,-999,-9999,-9999,,,Haze,hazy,0,0,0,0,0,0,AAXX 17064 48376 31556 61403 10278 20191 30034 40179 57017 70511 83236 333 58033 79999
4:00 PM +07 on December 17,2017,2017,12,17,16,0,Asia/Bangkok,28,82,21,69,57,0,0,,,,,6,4,1015,29.97,-999,-999,-9999,-9999,,,Haze,hazy,0,0,0,0,0,0,AAXX 17094 48376 31556 50000 10280 20206 30004 40149 57030 70522 82236 333 58015
7:00 PM +07 on December 17,2017,2017,12,17,19,0,Asia/Bangkok,24,76,20,67,67,0,0,,,,,6,4,1016,30.02,-999,-999,-9999,-9999,,,Mist,hazy,0,0,0,0,0,0,AAXX 17124 48376 31556 20000 10242 20195 30018 40164 52014 71011 82505 333 10290 58014 79999
10:00 PM +07 on December 17,2017,2017,12,17,22,0,Asia/Bangkok,22,71,19,67,82,0,0,,,,,6,4,1019,30.09,-999,-999,-9999,-9999,,,Mist,hazy,0,0,0,0,0,0,AAXX 17154 48376 31556 20000 10216 20192 30039 40187 52022 71000 82505 333 58025
1:00 AM +07 on December 15,2017,2017,12,15,1,0,Asia/Bangkok,22,71,19,67,82,0,0,,,,,6,4,1013,29.91,-999,-999,-9999,-9999,,,Mist,hazy,0,0,0,0,0,0,AAXX 14184 48376 31556 20000 10216 20192 39979 40126 54000 71000 81505 333 58015
4:00 AM +07 on December 15,2017,2017,12,15,4,0,Asia/Bangkok,20,68,19,66,90,0,0,,,,,6,4,1012,29.88,-999,-999,-9999,-9999,,,Mist,hazy,0,0,0,0,0,0,AAXX 14214 48376 31556 20000 10201 20187 39968 40116 57011 71000 81505 333 58008
7:00 AM +07 on December 15,2017,2017,12,15,7,0,Asia/Bangkok,19,66,18,64,93,0,0,,,,,7,4,1014,29.93,-999,-999,-9999,-9999,,,Mist,hazy,0,0,0,0,0,0,AAXX 15004 48376 31957 20000 10191 20180 39986 40135 52019 71000 80005 333 20183 58007
10:00 AM +07 on December 15,2017,2017,12,15,10,0,Asia/Bangkok,27,80,19,66,53,7.4,4.6,,,300,WNW,8,5,1015,29.98,-999,-999,-9999,-9999,,,Haze,hazy,0,0,0,0,0,0,AAXX 15034 48376 31958 23004 10266 20188 30006 40151 52019 70500 80005 333 58010
1:00 PM +07 on December 15,2017,2017,12,15,13,0,Asia/Bangkok,32,89,19,66,36,5.6,3.5,,,330,NNW,8,5,1012,29.89,-999,-999,-9999,-9999,,,Haze,hazy,0,0,0,0,0,0,AAXX 15064 48376 31558 23303 10315 20187 39979 40121 57027 70500 82205 333 58008
4:00 PM +07 on December 15,2017,2017,12,15,16,0,Asia/Bangkok,33,91,18,65,32,0,0,,,,,8,5,1010,29.82,-999,-999,-9999,-9999,,,Haze,hazy,0,0,0,0,0,0,AAXX 15094 48376 31558 30000 10328 20181 39956 40098 57022 70500 82235 333 58010
7:00 PM +07 on December 15,2017,2017,12,15,19,0,Asia/Bangkok,27,81,21,70,62,0,0,,,,,7,4,1012,29.88,-999,-999,-9999,-9999,,,Mist,hazy,0,0,0,0,0,0,AAXX 15124 48376 31957 20000 10270 20211 39974 40118 52017 71000 80005 333 10336 58013
10:00 PM +07 on December 15,2017,2017,12,15,22,0,Asia/Bangkok,23,74,20,69,79,0,0,,,,,6,4,1014,29.95,-999,-999,-9999,-9999,,,Mist,hazy,0,0,0,0,0,0,AAXX 15154 48376 31556 20000 10233 20205 39995 40142 52021 71000 81505 333 58017
1:00 AM +07 on December 28,2017,2017,12,28,1,0,Asia/Bangkok,20,68,19,66,91,0,0,,,,,3,2,1016,30.01,-999,-999,-9999,-9999,,,Light Rain,rain,0,1,0,0,0,0,AAXX 27184 48376 01530 80000 10199 20189 30013 40162 56004 60093 76062 8652/ 333 59004 69925 70110
4:00 AM +07 on December 28,2017,2017,12,28,4,0,Asia/Bangkok,19,67,18,65,91,3.7,2.3,,,330,NNW,4,2,1015,29.97,-999,-999,-9999,-9999,,,Mist,hazy,0,0,0,0,0,0,AAXX 27214 48376 31540 83302 10193 20183 39999 40148 57014 71022 8652/ 333 58001
7:00 AM +07 on December 28,2017,2017,12,28,7,0,Asia/Bangkok,19,66,18,65,95,5.6,3.5,,,320,NW,3,2,1016,30.01,-999,-999,-9999,-9999,,,Light Rain,rain,0,1,0,0,0,0,AAXX 28004 48376 01530 83203 10190 20183 30014 40163 52014 60104 76162 8652/ 333 20180 58006 69986 70098
10:00 AM +07 on December 28,2017,2017,12,28,10,0,Asia/Bangkok,20,68,19,66,92,5.6,3.5,,,330,NNW,3,2,1018,30.07,-999,-999,-9999,-9999,,,Overcast,cloudy,0,0,0,0,0,0,AAXX 28034 48376 21530 83303 10200 20190 30034 40183 52020 71662 8652/ 333 58009 69947
1:00 PM +07 on December 28,2017,2017,12,28,13,0,Asia/Bangkok,21,70,19,67,87,3.7,2.3,,,350,North,4,2,1016,30.01,-999,-999,-9999,-9999,,,Mist,hazy,0,0,0,0,0,0,AAXX 28064 48376 01540 83502 10210 20194 30014 40162 57020 69961 71062 8652/ 333 58014 69927 70049
4:00 PM +07 on December 28,2017,2017,12,28,16,0,Asia/Bangkok,21,70,20,68,92,0,0,,,,,3,2,1015,29.97,-999,-999,-9999,-9999,,,Overcast,cloudy,0,0,0,0,0,0,AAXX 28094 48376 31530 80000 10212 20201 39999 40147 57015 71622 8652/ 333 58013
7:00 PM +07 on December 28,2017,2017,12,28,19,0,Asia/Bangkok,21,70,20,69,94,0,0,,,,,3.5,2,1016,29.99,-999,-999,-9999,-9999,,,Mist,hazy,0,0,0,0,0,0,AAXX 28124 48376 31535 80000 10211 20203 30008 40156 52010 71022 8652/ 333 10216 58004 70024
10:00 PM +07 on December 28,2017,2017,12,28,22,0,Asia/Bangkok,21,70,20,68,92,0,0,,,,,3.5,2,1017,30.03,-999,-999,-9999,-9999,,,Mist,hazy,0,0,0,0,0,0,AAXX 28154 48376 31535 80000 10210 20201 30020 40168 52012 71022 8652/ 333 58003
